{"type":"FeatureCollection","bbox":[-81.32823,-18.350928,-68.652279,-0.038606],"properties":{"fecha":"2026-08-20","aviso_num":"232","nivel_max":2,"fuente":"https://www.senamhi.gob.pe/?p=aviso-24H"},"features":[{"type":"Feature","properties":{"NIVEL":1,"FECHA":"2026-08-20","DESCRIPCIO":null,"RECOMENDAC":null,"RESPONS":"AFLORES","nivel":1,"nivel_nombre":"VERDE","fecha":"2026-08-20","aviso_num":"232"},"geometry":{"type":"Polygon","coordinates":[[[-73.31954,-2.38958],[-73.26244,-2.50379],[-73.10063,-2.73222],[-73.04352,-2.84644],[-72.92931,-2.9321],[-72.85317,-3.05583],[-72.74847,-3.17956],[-72.71992,-3.28426],[-72.71992,-3.4651],[-72.76751,-3.61738],[-72.86269,-3.72208],[-72.91979,-3.80774],[-72.91028,-3.88388],[-72.88172,-3.9981],[-72.82461,-4.07424],[-72.79606,-4.16942],[-72.8151,-4.24556],[-72.76751,-4.35026],[-72.7104,-4.40736],[-72.61522,-4.48351],[-72.5486,-4.59772],[-72.53908,-4.6929],[-72.43438,-4.81663],[-72.39663,-4.87325],[-72.40488,-4.88853],[-72.41337,-4.8756],[-72.42265,-4.87682],[-72.41466,-4.8997],[-72.42833,-4.90153],[-72.4312,-4.91088],[-72.44296,-4.8982],[-72.45467,-4.90079],[-72.45451,-4.89149],[-72.47043,-4.89113],[-72.46919,-4.90529],[-72.46322,-4.90267],[-72.45135,-4.91569],[-72.45841,-4.92418],[-72.47373,-4.92455],[-72.48203,-4.9508],[-72.48795,-4.9503],[-72.48773,-4.93339],[-72.49678,-4.94999],[-72.50674,-4.94514],[-72.50494,-4.93581],[-72.52116,-4.93287],[-72.52217,-4.96002],[-72.52725,-4.95341],[-72.5388,-4.9641],[-72.53689,-4.95365],[-72.55194,-4.95556],[-72.568,-4.98372],[-72.58299,-4.98152],[-72.58467,-4.99796],[-72.598,-4.98386],[-72.59783,-4.99485],[-72.60983,-4.99601],[-72.59851,-4.99999],[-72.61223,-5.01656],[-72.60621,-5.03097],[-72.61712,-5.03596],[-72.6212,-5.0518],[-72.62881,-5.03835],[-72.62841,-5.05088],[-72.64142,-5.06299],[-72.64201,-5.04497],[-72.65737,-5.06363],[-72.65749,-5.05453],[-72.66599,-5.05912],[-72.67083,-5.04726],[-72.69245,-5.0609],[-72.70902,-5.04837],[-72.71519,-5.05746],[-72.72765,-5.05199],[-72.72622,-5.06167],[-72.7376,-5.06123],[-72.72987,-5.0744],[-72.73809,-5.07553],[-72.73986,-5.08859],[-72.75637,-5.07662],[-72.76802,-5.09922],[-72.78419,-5.09331],[-72.77906,-5.10201],[-72.78595,-5.11344],[-72.79052,-5.10584],[-72.80103,-5.11137],[-72.81725,-5.10223],[-72.81536,-5.13914],[-72.82231,-5.13168],[-72.82348,-5.14404],[-72.83356,-5.13849],[-72.84952,-5.14595],[-72.85085,-5.13601],[-72.88725,-5.16307],[-72.88421,-5.17525],[-72.87719,-5.17418],[-72.87999,-5.18689],[-72.87578,-5.17668],[-72.86903,-5.17906],[-72.87673,-5.18841],[-72.86936,-5.20086],[-72.87574,-5.20367],[-72.8649,-5.20768],[-72.8639,-5.234],[-72.87327,-5.24889],[-72.86224,-5.2475],[-72.87108,-5.26346],[-72.86052,-5.27117],[-72.86789,-5.27445],[-72.86778,-5.29073],[-72.87646,-5.28907],[-72.87045,-5.29378],[-72.8745,-5.30385],[-72.88864,-5.30691],[-72.88253,-5.31062],[-72.89185,-5.31772],[-72.88815,-5.32359],[-72.90416,-5.33381],[-72.90353,-5.34],[-72.89609,-5.33246],[-72.89029,-5.35084],[-72.90395,-5.35293],[-72.90725,-5.37099],[-72.92028,-5.37595],[-72.92414,-5.40761],[-72.93866,-5.41852],[-72.93211,-5.42687],[-72.95281,-5.44465],[-72.94592,-5.45369],[-72.95888,-5.46613],[-72.95843,-5.4809],[-72.94904,-5.47988],[-72.9616,-5.4953],[-72.96059,-5.52198],[-72.95441,-5.52359],[-72.95286,-5.54487],[-72.93857,-5.54128],[-72.95731,-5.55819],[-72.95015,-5.56358],[-72.96129,-5.5731],[-72.95298,-5.57747],[-72.96076,-5.57989],[-72.95165,-5.58267],[-72.97368,-5.61291],[-72.95912,-5.65689],[-72.98557,-5.66128],[-72.98956,-5.67451],[-72.97994,-5.6785],[-72.98422,-5.69351],[-72.99296,-5.69634],[-72.99067,-5.70621],[-72.99842,-5.70057],[-73.00399,-5.70847],[-72.99511,-5.71583],[-73.00318,-5.7202],[-73.00047,-5.72852],[-73.00791,-5.72434],[-73.00524,-5.73232],[-73.02753,-5.73341],[-73.01919,-5.74052],[-73.0464,-5.75935],[-73.04272,-5.77554],[-73.05465,-5.77564],[-73.04904,-5.78267],[-73.05303,-5.79517],[-73.06229,-5.79362],[-73.06726,-5.80217],[-73.07086,-5.79657],[-73.073,-5.80515],[-73.07979,-5.8012],[-73.08479,-5.81145],[-73.07548,-5.8098],[-73.07647,-5.81644],[-73.0954,-5.82118],[-73.08767,-5.82024],[-73.08909,-5.83023],[-73.10131,-5.82574],[-73.11422,-5.83318],[-73.11702,-5.86433],[-73.12236,-5.85783],[-73.12821,-5.87057],[-73.13575,-5.86343],[-73.13485,-5.86964],[-73.15207,-5.86796],[-73.16116,-5.88534],[-73.15612,-5.88085],[-73.15361,-5.88686],[-73.16732,-5.89712],[-73.16123,-5.90786],[-73.16766,-5.90765],[-73.17211,-5.93011],[-73.1796,-5.92679],[-73.18695,-5.94472],[-73.17734,-5.97085],[-73.19417,-5.99056],[-73.1868,-6.00513],[-73.20898,-6.00864],[-73.21839,-6.01988],[-73.2094,-6.0221],[-73.22234,-6.02206],[-73.21799,-6.02757],[-73.23629,-6.03569],[-73.23821,-6.04399],[-73.22754,-6.04358],[-73.23538,-6.05133],[-73.22879,-6.0536],[-73.2345,-6.06349],[-73.22747,-6.0767],[-73.23957,-6.07739],[-73.23112,-6.09134],[-73.23764,-6.09056],[-73.23573,-6.10075],[-73.24819,-6.10802],[-73.24664,-6.14962],[-73.21627,-6.18318],[-73.2156,-6.19247],[-73.22423,-6.19437],[-73.21121,-6.20171],[-73.22029,-6.21958],[-73.21283,-6.22609],[-73.2086,-6.21954],[-73.18667,-6.26207],[-73.18061,-6.25729],[-73.1607,-6.27667],[-73.15792,-6.32255],[-73.15253,-6.32934],[-73.14728,-6.32307],[-73.15055,-6.3384],[-73.14301,-6.33484],[-73.1409,-6.35874],[-73.13205,-6.36265],[-73.13558,-6.38026],[-73.12986,-6.37505],[-73.12791,-6.3932],[-73.11858,-6.38866],[-73.10473,-6.40666],[-73.10578,-6.4194],[-73.12119,-6.43174],[-73.11117,-6.45357],[-73.11979,-6.46795],[-73.11856,-6.462],[-73.12974,-6.46358],[-73.12791,-6.47693],[-73.14253,-6.49077],[-73.13195,-6.49675],[-73.13523,-6.51046],[-73.14182,-6.51468],[-73.14187,-6.50532],[-73.15135,-6.52668],[-73.16339,-6.53133],[-73.17033,-6.51794],[-73.17304,-6.52778],[-73.18797,-6.52302],[-73.17574,-6.53457],[-73.18726,-6.54074],[-73.18168,-6.54578],[-73.19953,-6.54671],[-73.19335,-6.55424],[-73.20297,-6.5532],[-73.19611,-6.56287],[-73.20669,-6.57711],[-73.22179,-6.56443],[-73.23006,-6.57345],[-73.22741,-6.58884],[-73.24176,-6.58375],[-73.23935,-6.59276],[-73.25072,-6.581],[-73.2683,-6.59346],[-73.27538,-6.58492],[-73.29238,-6.58768],[-73.29696,-6.59715],[-73.31592,-6.59085],[-73.32957,-6.60041],[-73.33327,-6.59354],[-73.35281,-6.59327],[-73.38241,-6.6216],[-73.37992,-6.63576],[-73.41503,-6.64293],[-73.42485,-6.65502],[-73.4403,-6.65191],[-73.46405,-6.66906],[-73.47214,-6.66434],[-73.48532,-6.67452],[-73.52193,-6.67614],[-73.54035,-6.68612],[-73.56179,-6.72203],[-73.58713,-6.72362],[-73.62416,-6.74516],[-73.6244,-6.75283],[-73.63826,-6.75415],[-73.66637,-6.80555],[-73.68198,-6.81426],[-73.69595,-6.83997],[-73.71046,-6.84019],[-73.72227,-6.8846],[-73.74744,-6.90903],[-73.76079,-6.93583],[-73.74389,-6.96416],[-73.76128,-6.97773],[-73.76308,-7.00746],[-73.75597,-7.01499],[-73.76289,-7.03437],[-73.7571,-7.04676],[-73.78707,-7.09029],[-73.78398,-7.10365],[-73.79985,-7.1162],[-73.79462,-7.13002],[-73.78264,-7.13062],[-73.78932,-7.14449],[-73.76903,-7.15495],[-73.76984,-7.16915],[-73.75611,-7.17413],[-73.75604,-7.1957],[-73.74246,-7.21949],[-73.71662,-7.22756],[-73.72107,-7.23705],[-73.70912,-7.24631],[-73.716,-7.27371],[-73.69488,-7.29907],[-73.70039,-7.32246],[-73.71093,-7.32271],[-73.727,-7.34438],[-73.75464,-7.35379],[-73.7529,-7.34039],[-73.76163,-7.3369],[-73.78136,-7.33875],[-73.78902,-7.34774],[-73.8211,-7.33862],[-73.82998,-7.35191],[-73.85366,-7.35431],[-73.86355,-7.38925],[-73.88733,-7.37892],[-73.90387,-7.3857],[-73.9067,-7.37342],[-73.92176,-7.36176],[-73.93497,-7.37726],[-73.94703,-7.35744],[-73.95572,-7.36995],[-73.93877,-7.40818],[-73.92174,-7.41988],[-73.92509,-7.42813],[-73.90976,-7.47299],[-73.92368,-7.47995],[-73.91834,-7.50386],[-73.94171,-7.53343],[-73.98303,-7.53436],[-73.97912,-7.56081],[-73.9584,-7.56444],[-73.88902,-7.60355],[-73.90046,-7.64023],[-73.86654,-7.67624],[-73.83918,-7.66687],[-73.83606,-7.69223],[-73.82246,-7.70052],[-73.81982,-7.71576],[-73.80176,-7.71372],[-73.74142,-7.73329],[-73.73409,-7.74475],[-73.7148,-7.74239],[-73.71172,-7.76091],[-73.68904,-7.76668],[-73.67875,-7.78144],[-73.67922,-7.85964],[-73.70357,-7.87596],[-73.72091,-7.8724],[-73.73545,-7.87881],[-73.75827,-7.87067],[-73.76154,-7.8606],[-73.76582,-7.86622],[-73.75522,-7.89233],[-73.77226,-7.90916],[-73.7403,-7.92967],[-73.74789,-7.94737],[-73.73048,-7.95263],[-73.72678,-7.96585],[-73.70563,-7.9547],[-73.69987,-7.97632],[-73.6811,-7.98387],[-73.68166,-7.99675],[-73.66802,-8.01315],[-73.63925,-8.00653],[-73.61685,-8.03425],[-73.62625,-8.05746],[-73.58447,-8.12868],[-73.59569,-8.16456],[-73.58879,-8.19697],[-73.57141,-8.22366],[-73.58739,-8.24086],[-73.56299,-8.2455],[-73.52626,-8.27079],[-73.53761,-8.29677],[-73.52643,-8.32113],[-73.54191,-8.35022],[-73.52512,-8.3567],[-73.51987,-8.37298],[-73.48529,-8.38422],[-73.44131,-8.4254],[-73.42169,-8.43469],[-73.40671,-8.43129],[-73.38812,-8.47024],[-73.37615,-8.46376],[-73.37161,-8.47265],[-73.33183,-8.47404],[-73.32881,-8.52306],[-73.3352,-8.53304],[-73.34104,-8.61678],[-73.33651,-8.62096],[-73.31928,-8.61091],[-73.31188,-8.63191],[-73.30009,-8.63196],[-73.28488,-8.66433],[-73.26569,-8.67133],[-73.25547,-8.69022],[-73.20452,-8.68775],[-73.16724,-8.6983],[-73.13598,-8.73912],[-73.14055,-8.74961],[-73.13463,-8.76672],[-73.11465,-8.78441],[-73.11201,-8.8193],[-73.09579,-8.8364],[-73.07771,-8.84219],[-73.08004,-8.86032],[-73.07108,-8.86243],[-73.05889,-8.90577],[-73.0371,-8.91618],[-73.01928,-8.9113],[-72.99969,-8.91752],[-72.96798,-8.98101],[-72.94091,-8.98494],[-72.96307,-9.0121],[-72.94653,-9.03299],[-72.94306,-9.05353],[-72.94982,-9.07024],[-72.93999,-9.09325],[-72.94648,-9.12035],[-72.96008,-9.13313],[-72.9582,-9.14302],[-72.99016,-9.16203],[-73.00367,-9.16059],[-73.01178,-9.17413],[-73.02612,-9.17786],[-73.01229,-9.19505],[-73.00334,-9.19545],[-73.0093,-9.22236],[-73.02371,-9.22043],[-73.03639,-9.23475],[-73.0626,-9.2271],[-73.07352,-9.23461],[-73.09436,-9.26928],[-73.10733,-9.27535],[-73.10143,-9.30812],[-73.13141,-9.31832],[-73.1338,-9.33056],[-73.14809,-9.33672],[-73.14837,-9.3541],[-73.16938,-9.36039],[-73.17667,-9.35501],[-73.18876,-9.36322],[-73.18693,-9.39904],[-73.2038,-9.40715],[-72.71629,-9.41224],[-72.71158,-9.43],[-72.69893,-9.42922],[-72.69515,-9.43936],[-72.68264,-9.43345],[-72.65502,-9.45205],[-72.64332,-9.4422],[-72.62782,-9.44236],[-72.61995,-9.45346],[-72.57678,-9.45587],[-72.57734,-9.46418],[-72.56783,-9.45995],[-72.56132,-9.47251],[-72.55702,-9.46586],[-72.54214,-9.46702],[-72.51953,-9.49128],[-72.50094,-9.48045],[-72.45462,-9.48977],[-72.44078,-9.47703],[-72.42647,-9.4857],[-72.40749,-9.47715],[-72.3864,-9.49235],[-72.35688,-9.4946],[-72.3405,-9.50692],[-72.34248,-9.52053],[-72.31859,-9.54379],[-72.30048,-9.53325],[-72.2829,-9.53995],[-72.28821,-9.60316],[-72.26843,-9.62076],[-72.25282,-9.61633],[-72.26031,-9.64176],[-72.24539,-9.65874],[-72.26296,-9.75086],[-72.24562,-9.75083],[-72.21487,-9.77882],[-72.18691,-9.77821],[-72.15136,-9.79742],[-72.16283,-9.8304],[-72.1543,-9.83526],[-72.1482,-9.87223],[-72.13594,-9.87487],[-72.15071,-9.90574],[-72.16533,-9.90896],[-72.17434,-9.93093],[-72.15583,-9.94223],[-72.16205,-9.95358],[-72.14999,-9.96634],[-72.15885,-9.97918],[-72.17717,-9.9855],[-72.1804,-9.99967],[-71.37504,-10.00014],[-71.36001,-9.98374],[-71.35007,-9.98519],[-71.34276,-9.96677],[-71.31241,-9.99164],[-71.29819,-9.9922],[-71.29105,-9.98193],[-71.254,-9.97656],[-71.25321,-9.96293],[-71.22052,-9.96968],[-71.20939,-9.96505],[-71.20509,-9.94638],[-71.19257,-9.94176],[-71.18943,-9.92091],[-71.17876,-9.91812],[-71.17118,-9.89053],[-71.13974,-9.85702],[-71.10224,-9.85319],[-71.07692,-9.8277],[-71.05859,-9.82475],[-71.05122,-9.81584],[-70.99391,-9.81721],[-70.99243,-9.79504],[-70.96337,-9.74891],[-70.92383,-9.7413],[-70.8978,-9.71413],[-70.8685,-9.66481],[-70.83824,-9.65637],[-70.83615,-9.64324],[-70.79332,-9.63846],[-70.78615,-9.61427],[-70.76569,-9.60697],[-70.76775,-9.60069],[-70.75724,-9.60425],[-70.75953,-9.58404],[-70.75067,-9.56043],[-70.73832,-9.55901],[-70.7298,-9.57026],[-70.71476,-9.54715],[-70.67972,-9.53446],[-70.66612,-9.51942],[-70.6632,-9.52601],[-70.65138,-9.51237],[-70.65295,-9.50027],[-70.63578,-9.50163],[-70.6319,-9.48019],[-70.6233,-9.47059],[-70.61599,-9.47613],[-70.61154,-9.45743],[-70.59635,-9.45909],[-70.59581,-9.4425],[-70.57081,-9.44039],[-70.56191,-9.43001],[-70.54969,-9.43566],[-70.54649,-9.42788],[-70.53853,-9.43836],[-70.52672,-9.42889],[-70.52602,-9.43831],[-70.51047,-9.42468],[-70.49665,-9.42489],[-70.49587,-9.44088],[-70.51156,-9.44775],[-70.50478,-9.46334],[-70.5249,-9.4612],[-70.5057,-9.5046],[-70.51372,-9.4928],[-70.52192,-9.50547],[-70.53152,-9.50355],[-70.53098,-9.51552],[-70.54433,-9.51409],[-70.54213,-9.5377],[-70.57062,-9.53292],[-70.564,-9.54071],[-70.56908,-9.55435],[-70.55629,-9.56076],[-70.55532,-9.57189],[-70.56603,-9.57318],[-70.57638,-9.56373],[-70.58755,-9.56726],[-70.58909,-9.54887],[-70.60017,-9.5604],[-70.58565,-9.57558],[-70.58804,-9.59833],[-70.59824,-9.60762],[-70.5847,-9.64084],[-70.56663,-9.66741],[-70.55302,-9.66818],[-70.54256,-9.67994],[-70.52523,-9.71498],[-70.53949,-9.75041],[-70.53663,-9.76584],[-70.55928,-9.78942],[-70.57777,-9.77779],[-70.5909,-9.80298],[-70.60816,-9.80114],[-70.62338,-9.82054],[-70.62228,-9.85293],[-70.61348,-9.86608],[-70.61375,-11.00017],[-70.52167,-10.93422],[-70.51538,-10.94717],[-70.45174,-10.99676],[-70.43776,-11.0388],[-70.38578,-11.04777],[-70.37377,-11.06054],[-70.30843,-11.07059],[-70.24154,-11.04706],[-70.19905,-11.05401],[-70.17608,-11.04013],[-70.15827,-11.04187],[-70.15614,-11.03353],[-70.14053,-11.02967],[-70.1157,-11.00591],[-70.10741,-11.00789],[-70.09285,-10.98712],[-70.06459,-10.99388],[-70.03713,-10.98002],[-70.03685,-10.97097],[-70.02736,-10.97775],[-70.00753,-10.96271],[-69.99882,-10.96517],[-69.9944,-10.9507],[-69.9845,-10.95566],[-69.98202,-10.94313],[-69.97425,-10.9493],[-69.95796,-10.94085],[-69.95398,-10.92857],[-69.9333,-10.92222],[-69.92068,-10.93381],[-69.90122,-10.92056],[-69.87344,-10.93106],[-69.86272,-10.92683],[-69.85827,-10.93434],[-69.85114,-10.92458],[-69.83159,-10.93388],[-69.81107,-10.926],[-69.79431,-10.93409],[-69.76954,-10.92994],[-69.77309,-10.94003],[-69.75993,-10.93951],[-69.73764,-10.97497],[-69.72226,-10.96472],[-69.71686,-10.97591],[-69.70053,-10.96553],[-69.69731,-10.97245],[-69.65869,-10.95256],[-69.6336,-10.95739],[-69.62034,-10.95006],[-69.61048,-10.95758],[-69.60922,-10.94567],[-69.58346,-10.94787],[-69.5881,-10.94063],[-69.57699,-10.94125],[-69.05989,-11.75725],[-69.11737,-11.74288],[-69.717,-11.70005],[-70.1453,-11.70005],[-70.38801,-11.62867],[-70.53355,-11.54377],[-70.67652,-11.42265],[-70.77169,-11.32747],[-70.93826,-11.23229],[-70.97395,-11.1847],[-71.09292,-11.13711],[-71.2,-11.01814],[-71.24759,-10.93486],[-71.30707,-10.87537],[-71.34277,-10.86348],[-71.46174,-10.79209],[-71.58071,-10.7564],[-71.75917,-10.7326],[-71.96143,-10.7326],[-72.0923,-10.7445],[-72.13988,-10.7683],[-72.22317,-10.79209],[-72.47301,-10.78019],[-72.55629,-10.80399],[-72.56936,-10.8236],[-72.67526,-10.84285],[-72.74665,-10.94993],[-72.82993,-11.02131],[-72.98459,-11.0927],[-73.09167,-11.0927],[-73.28203,-11.18787],[-73.60325,-11.23546],[-73.8174,-11.23546],[-73.97207,-11.19977],[-74.07915,-11.19977],[-74.10559,-11.19096],[-74.11226,-11.1968],[-74.11226,-11.23963],[-74.09798,-11.31815],[-74.05515,-11.45378],[-73.99805,-11.50375],[-73.95522,-11.58941],[-73.81959,-11.78928],[-73.79817,-11.87494],[-73.80531,-11.94633],[-73.82875,-11.96691],[-73.87634,-11.96096],[-73.92393,-11.93717],[-74.031,-11.87173],[-74.16782,-11.75871],[-74.20467,-11.75437],[-74.21934,-11.72504],[-74.2693,-11.68935],[-74.32641,-11.6251],[-74.39066,-11.58227],[-74.51201,-11.46806],[-74.58339,-11.37526],[-74.69047,-11.31101],[-74.7333,-11.23249],[-74.79754,-11.16111],[-74.84751,-11.08258],[-74.92604,-11.01834],[-75.02597,-10.97551],[-75.22585,-10.93268],[-75.34006,-10.87557],[-75.41858,-10.87557],[-75.43286,-10.89699],[-75.43286,-10.94249],[-75.46855,-10.98265],[-75.46855,-11.04689],[-75.44,-11.13969],[-75.37575,-11.28246],[-75.3472,-11.32529],[-75.23299,-11.41809],[-75.17588,-11.4395],[-75.1045,-11.48233],[-75.05453,-11.53944],[-75.04025,-11.57513],[-74.98314,-11.64652],[-74.84037,-11.76787],[-74.75471,-11.86067],[-74.69761,-12.02485],[-74.69761,-12.06054],[-74.53342,-12.08196],[-74.49773,-12.15334],[-74.35823,-12.19088],[-74.28679,-12.29409],[-74.22731,-12.35357],[-74.20351,-12.35357],[-74.03695,-12.44875],[-73.85849,-12.62126],[-73.71572,-12.70454],[-73.47778,-12.78782],[-73.41829,-12.79377],[-73.08632,-12.75653],[-72.92927,-12.67087],[-72.75795,-12.6566],[-72.5438,-12.6566],[-72.40103,-12.57094],[-72.30109,-12.45672],[-72.27254,-12.34251],[-72.1155,-12.29968],[-72.01556,-12.35679],[-71.91562,-12.48528],[-71.81568,-12.68515],[-71.69057,-12.80187],[-71.67668,-12.9693],[-71.66241,-12.99309],[-71.63861,-13.02165],[-71.59578,-13.04544],[-71.51012,-13.14062],[-71.46729,-13.16917],[-71.36735,-13.16917],[-71.29597,-13.20249],[-71.24362,-13.25483],[-71.08631,-13.25664],[-70.44511,-13.48465],[-70.25952,-13.55603],[-70.05964,-13.67025],[-69.81694,-13.77019],[-69.68845,-13.8844],[-69.50285,-13.99861],[-69.3458,-14.08427],[-69.21731,-14.22704],[-69.00574,-14.39664],[-69.00526,-14.40434],[-69.02481,-14.40681],[-69.02949,-14.42551],[-69.05038,-14.42913],[-69.06123,-14.44254],[-69.08195,-14.44444],[-69.09748,-14.48572],[-69.11252,-14.48615],[-69.12473,-14.51264],[-69.15403,-14.52162],[-69.14354,-14.53026],[-69.15003,-14.58031],[-69.17925,-14.59052],[-69.22135,-14.58179],[-69.23101,-14.60873],[-69.2279,-14.65416],[-69.2449,-14.66133],[-69.25837,-14.68398],[-69.22487,-14.73902],[-69.23994,-14.75947],[-69.27085,-14.76957],[-69.3012,-14.7653],[-69.3538,-14.80167],[-69.35679,-14.85198],[-69.34387,-14.88273],[-69.35384,-14.92441],[-69.36459,-14.93098],[-69.36057,-14.96106],[-69.32324,-15.00459],[-69.31436,-15.04123],[-69.29952,-15.04737],[-69.3041,-15.05363],[-69.29012,-15.07471],[-69.29245,-15.08374],[-69.28593,-15.08313],[-69.28465,-15.09647],[-69.27269,-15.10348],[-69.27729,-15.1099],[-69.26843,-15.10434],[-69.26561,-15.11724],[-69.26257,-15.10972],[-69.24346,-15.11221],[-69.24394,-15.12185],[-69.23624,-15.11969],[-69.22961,-15.13216],[-69.19045,-15.15878],[-69.11962,-15.25903],[-69.13734,-15.25515],[-69.15216,-15.26889],[-69.1763,-15.26136],[-69.17797,-15.27918],[-69.19349,-15.29582],[-69.19479,-15.31504],[-69.20656,-15.32425],[-69.21564,-15.31716],[-69.24856,-15.37081],[-69.26033,-15.37404],[-69.24985,-15.42672],[-69.23233,-15.4418],[-69.25351,-15.46919],[-69.29007,-15.43688],[-69.30895,-15.46389],[-69.31172,-15.47297],[-69.30058,-15.48635],[-69.31338,-15.49253],[-69.30886,-15.50513],[-69.32967,-15.53481],[-69.38546,-15.69777],[-69.24571,-16.1444],[-69.10079,-16.22482],[-69.08154,-16.22138],[-69.05526,-16.19736],[-69.01276,-16.21976],[-69.00697,-16.20536],[-68.98434,-16.19011],[-68.96239,-16.19165],[-68.8847,-16.26566],[-68.81422,-16.31977],[-68.81422,-16.34799],[-68.98628,-16.44001],[-69.03904,-16.56652],[-69.01705,-16.63815],[-68.9961,-16.65658],[-69.04346,-16.68784],[-69.05521,-16.68665],[-69.10452,-16.71246],[-69.13644,-16.71354],[-69.17001,-16.72754],[-69.18619,-16.79755],[-69.19753,-16.79924],[-69.21924,-16.83613],[-69.2534,-16.86099],[-69.30467,-16.91584],[-69.32459,-16.95154],[-69.32008,-16.96075],[-69.33543,-16.98026],[-69.36901,-16.99041],[-69.39358,-17.02057],[-69.37309,-17.04831],[-69.37374,-17.07312],[-69.40627,-17.10029],[-69.43292,-17.10986],[-69.44913,-17.09775],[-69.51185,-17.14617],[-69.5569,-17.15928],[-69.5781,-17.20648],[-69.60315,-17.21978],[-69.61598,-17.26128],[-69.64429,-17.28097],[-69.64132,-17.28745],[-69.57522,-17.29259],[-69.46732,-17.37354],[-69.46829,-17.50417],[-69.66541,-17.6599],[-69.79599,-17.64624],[-69.8212,-17.68636],[-69.82168,-17.74381],[-69.80005,-17.76233],[-69.79571,-17.86226],[-69.77672,-17.90816],[-69.74718,-17.94394],[-69.7515,-17.98559],[-69.81308,-18.11448],[-69.85431,-18.16535],[-69.96055,-18.26288],[-69.98023,-18.27026],[-70.05071,-18.2688],[-70.14965,-18.31837],[-70.19717,-18.32219],[-70.31745,-18.3097],[-70.35388,-18.32619],[-70.37671,-18.35093],[-70.48482,-18.27118],[-70.67857,-18.16185],[-70.7606,-18.07871],[-70.81167,-18.05025],[-70.81316,-18.04049],[-70.8877,-18.00929],[-70.88259,-17.99336],[-70.89019,-17.96929],[-70.91208,-17.9528],[-70.91049,-17.94007],[-70.92333,-17.93779],[-70.92526,-17.92668],[-70.93543,-17.92931],[-70.94314,-17.91381],[-70.95968,-17.91067],[-71.00913,-17.8769],[-71.02951,-17.8849],[-71.09628,-17.8682],[-71.10545,-17.8434],[-71.16769,-17.81027],[-71.18489,-17.78121],[-71.3492,-17.69345],[-71.36337,-17.69265],[-71.36819,-17.70616],[-71.38139,-17.70735],[-71.34108,-17.63699],[-71.36555,-17.54536],[-71.36295,-17.48879],[-71.38114,-17.44998],[-71.39436,-17.38941],[-71.4188,-17.37749],[-71.42467,-17.36363],[-71.43279,-17.36665],[-71.43139,-17.35052],[-71.44471,-17.33224],[-71.45811,-17.33242],[-71.46989,-17.31882],[-71.47688,-17.32281],[-71.47442,-17.29513],[-71.50285,-17.28113],[-71.50932,-17.26861],[-71.52407,-17.26533],[-71.52867,-17.27113],[-71.53792,-17.25396],[-71.56402,-17.26157],[-71.67322,-17.21737],[-71.76667,-17.19653],[-71.87125,-17.06299],[-71.93729,-17.01781],[-72.00183,-16.99844],[-72.06607,-16.94847],[-72.12318,-16.91992],[-72.22312,-16.83426],[-72.25881,-16.79143],[-72.35161,-16.70577],[-72.5729,-16.60583],[-72.67283,-16.59156],[-72.90126,-16.49876],[-72.96551,-16.46306],[-73.02975,-16.44165],[-73.07972,-16.42737],[-73.15074,-16.43383],[-73.15916,-16.41993],[-73.18935,-16.4154],[-73.20911,-16.40027],[-73.23501,-16.41528],[-73.24358,-16.40679],[-73.26039,-16.40928],[-73.26036,-16.40199],[-73.27221,-16.3982],[-73.29151,-16.40578],[-73.30593,-16.37527],[-73.30077,-16.35206],[-73.3142,-16.3387],[-73.45126,-16.28131],[-73.48219,-16.28369],[-73.55933,-16.24449],[-73.56741,-16.24954],[-73.61993,-16.23009],[-73.64917,-16.23429],[-73.67621,-16.22356],[-73.70032,-16.24155],[-73.69971,-16.21994],[-73.72788,-16.19525],[-73.83482,-16.15456],[-73.87012,-16.13491],[-73.88734,-16.11049],[-73.95303,-16.07511],[-73.95911,-16.06082],[-73.97941,-16.05296],[-73.98962,-16.03912],[-74.01782,-16.03687],[-74.03317,-16.01757],[-74.0256,-15.99252],[-74.05445,-15.95452],[-74.17503,-15.89698],[-74.2416,-15.8787],[-74.25182,-15.85514],[-74.27901,-15.83882],[-74.29178,-15.83701],[-74.3044,-15.8465],[-74.31322,-15.8399],[-74.32674,-15.84973],[-74.3268,-15.84204],[-74.39548,-15.82936],[-74.43912,-15.79491],[-74.46274,-15.75543],[-74.46287,-15.72604],[-74.47246,-15.71948],[-74.6803,-15.64513],[-74.72851,-15.61169],[-74.80333,-15.57684],[-74.83949,-15.56509],[-74.85341,-15.57321],[-74.84776,-15.55454],[-74.88755,-15.52413],[-74.97363,-15.49057],[-74.98454,-15.47019],[-75.00051,-15.46212],[-75.05637,-15.45463],[-75.07508,-15.44296],[-75.07108,-15.43563],[-75.08191,-15.42401],[-75.09964,-15.42348],[-75.11029,-15.41052],[-75.1404,-15.40717],[-75.14468,-15.39381],[-75.15857,-15.39287],[-75.16151,-15.37813],[-75.19453,-15.36815],[-75.18628,-15.35442],[-75.1608,-15.3583],[-75.15285,-15.3512],[-75.15149,-15.33458],[-75.16446,-15.31148],[-75.19593,-15.29115],[-75.22913,-15.28574],[-75.24865,-15.2553],[-75.26403,-15.25076],[-75.22281,-15.25638],[-75.21623,-15.2333],[-75.23221,-15.20277],[-75.27468,-15.16832],[-75.31557,-15.15041],[-75.33622,-15.14622],[-75.3495,-15.15833],[-75.34812,-15.14842],[-75.35792,-15.13995],[-75.37174,-15.15154],[-75.37134,-15.12815],[-75.38413,-15.11641],[-75.39479,-15.08067],[-75.40921,-15.06799],[-75.41357,-15.04312],[-75.43316,-15.02658],[-75.44269,-15.00059],[-75.48632,-14.97908],[-75.50314,-14.96238],[-75.50186,-14.94181],[-75.49165,-14.9342],[-75.50979,-14.91077],[-75.57452,-14.8678],[-75.68203,-14.81771],[-75.76031,-14.76141],[-75.85557,-14.71628],[-75.84891,-14.70844],[-75.85576,-14.69444],[-75.91677,-14.65891],[-75.92776,-14.64203],[-75.93046,-14.57128],[-75.97473,-14.52461],[-75.96478,-14.50589],[-75.97228,-14.4705],[-76.03911,-14.42453],[-76.0662,-14.38694],[-76.13652,-14.34881],[-76.14524,-14.33016],[-76.11096,-14.32922],[-76.1053,-14.31406],[-76.13802,-14.23421],[-76.19048,-14.19826],[-76.19804,-14.17277],[-76.21786,-14.16792],[-76.21644,-14.15763],[-76.2258,-14.15047],[-76.25198,-14.15439],[-76.25991,-14.14216],[-76.27093,-14.14216],[-76.25658,-14.16749],[-76.25493,-14.15491],[-76.25321,-14.16046],[-76.27215,-14.2002],[-76.27549,-14.1829],[-76.29338,-14.16325],[-76.27872,-14.15243],[-76.28576,-14.13822],[-76.27989,-14.12754],[-76.28444,-14.10001],[-76.29216,-14.089],[-76.27613,-14.08249],[-76.27637,-14.06187],[-76.26063,-14.05577],[-76.27051,-14.03615],[-76.26262,-14.02023],[-76.28578,-13.99679],[-76.27023,-13.98087],[-76.27304,-13.95187],[-76.29536,-13.92837],[-76.28252,-13.91805],[-76.28287,-13.90904],[-76.30615,-13.89217],[-76.31427,-13.89418],[-76.31633,-13.91545],[-76.32808,-13.92488],[-76.33913,-13.91532],[-76.35601,-13.9228],[-76.36226,-13.91382],[-76.39647,-13.90876],[-76.38595,-13.84385],[-76.36791,-13.82863],[-76.37129,-13.80888],[-76.36544,-13.80328],[-76.29642,-13.79328],[-76.28888,-13.79786],[-76.31165,-13.84707],[-76.29764,-13.83804],[-76.26141,-13.86583],[-76.25088,-13.85421],[-76.25815,-13.83857],[-76.24803,-13.83139],[-76.2503,-13.81304],[-76.2204,-13.71765],[-76.21704,-13.6812],[-76.19766,-13.64088],[-76.18744,-13.56582],[-76.1909,-13.47581],[-76.18544,-13.44943],[-76.20843,-13.38099],[-76.25619,-13.30645],[-76.39313,-13.13731],[-76.48978,-13.03185],[-76.48289,-13.01593],[-76.51646,-12.9554],[-76.50663,-12.94731],[-76.50579,-12.92581],[-76.51983,-12.84993],[-76.55926,-12.82164],[-76.56785,-12.80295],[-76.60918,-12.77774],[-76.61846,-12.75944],[-76.63786,-12.74516],[-76.6301,-12.72104],[-76.65638,-12.69908],[-76.65406,-12.68617],[-76.67249,-12.66071],[-76.67221,-12.62827],[-76.70472,-12.59634],[-76.70983,-12.57452],[-76.74642,-12.53933],[-76.80378,-12.50883],[-76.79866,-12.4997],[-76.80553,-12.49422],[-76.79805,-12.48938],[-76.80322,-12.48029],[-76.79093,-12.47763],[-76.78519,-12.44371],[-76.77504,-12.43787],[-76.78159,-12.4149],[-76.77569,-12.4045],[-76.7834,-12.39813],[-76.77736,-12.39368],[-76.78955,-12.38571],[-76.79942,-12.36228],[-76.81725,-12.35227],[-76.81927,-12.33944],[-76.82699,-12.34294],[-76.83661,-12.31617],[-76.85529,-12.30019],[-76.94443,-12.24528],[-77.03784,-12.20565],[-77.0384,-12.16842],[-77.02752,-12.16496],[-77.02608,-12.14455],[-77.0651,-12.10288],[-77.13466,-12.06987],[-77.17072,-12.07307],[-77.14862,-12.05861],[-77.15632,-12.04847],[-77.14871,-12.05741],[-77.14627,-12.04407],[-77.14206,-12.04676],[-77.14082,-12.04562],[-77.14295,-12.03744],[-77.14896,-12.03891],[-77.15568,-12.04669],[-77.15629,-12.04692],[-77.13872,-12.01935],[-77.13355,-11.96313],[-77.15902,-11.86882],[-77.17209,-11.84642],[-77.18689,-11.83888],[-77.17798,-11.80212],[-77.19018,-11.7837],[-77.19815,-11.78348],[-77.19827,-11.76821],[-77.17768,-11.77466],[-77.16739,-11.74244],[-77.19852,-11.6955],[-77.19219,-11.68077],[-77.20784,-11.64809],[-77.28208,-11.58737],[-77.2705,-11.58434],[-77.271,-11.57207],[-77.29596,-11.53725],[-77.30072,-11.51796],[-77.34231,-11.48696],[-77.34269,-11.47439],[-77.3605,-11.46023],[-77.49671,-11.37793],[-77.64835,-11.30274],[-77.64587,-11.2964],[-77.65423,-11.29124],[-77.64329,-11.29052],[-77.64009,-11.27561],[-77.6499,-11.24464],[-77.64715,-11.22173],[-77.63099,-11.21183],[-77.6255,-11.21777],[-77.60171,-11.21402],[-77.59235,-11.18208],[-77.60234,-11.15053],[-77.62013,-11.1269],[-77.6131,-11.11216],[-77.63386,-11.09361],[-77.62807,-11.08928],[-77.63738,-11.0713],[-77.63342,-11.05451],[-77.66187,-11.01348],[-77.64682,-10.99819],[-77.66463,-10.95898],[-77.65783,-10.94651],[-77.70152,-10.88612],[-77.70596,-10.85358],[-77.75083,-10.81881],[-77.75458,-10.80372],[-77.74404,-10.79454],[-77.76495,-10.77181],[-77.76242,-10.76282],[-77.80403,-10.72595],[-77.80869,-10.70257],[-77.88659,-10.61206],[-77.90868,-10.56959],[-77.90078,-10.5642],[-77.90816,-10.54429],[-77.9394,-10.50901],[-77.96561,-10.49297],[-77.96332,-10.47111],[-77.98041,-10.43937],[-78.01442,-10.41124],[-78.00071,-10.39747],[-78.0106,-10.3747],[-78.05523,-10.34537],[-78.05683,-10.30346],[-78.08707,-10.27712],[-78.08101,-10.24832],[-78.09196,-10.24198],[-78.08729,-10.23012],[-78.10158,-10.20111],[-78.16357,-10.14719],[-78.17344,-10.11521],[-78.18502,-10.10939],[-78.16574,-10.09195],[-78.17576,-10.0697],[-78.17577,-10.04396],[-78.1961,-10.02012],[-78.19306,-10.00135],[-78.20808,-9.96677],[-78.23356,-9.95131],[-78.22424,-9.93985],[-78.23022,-9.91254],[-78.22451,-9.90722],[-78.24379,-9.86849],[-78.23429,-9.85403],[-78.2378,-9.83419],[-78.2271,-9.82157],[-78.22603,-9.79548],[-78.29589,-9.72629],[-78.29434,-9.70543],[-78.30652,-9.69523],[-78.30761,-9.68394],[-78.31929,-9.6815],[-78.31884,-9.66666],[-78.33579,-9.65475],[-78.34337,-9.63291],[-78.35859,-9.62398],[-78.36687,-9.62969],[-78.36133,-9.61007],[-78.37227,-9.58624],[-78.36532,-9.58128],[-78.36638,-9.55891],[-78.39127,-9.53102],[-78.38449,-9.52096],[-78.39666,-9.49897],[-78.39459,-9.47766],[-78.40471,-9.47509],[-78.39195,-9.45794],[-78.38088,-9.45572],[-78.38011,-9.44549],[-78.39199,-9.42912],[-78.40764,-9.43585],[-78.40668,-9.42482],[-78.41776,-9.42615],[-78.41601,-9.41875],[-78.42794,-9.41129],[-78.42679,-9.39204],[-78.43373,-9.39037],[-78.42828,-9.37157],[-78.4095,-9.36312],[-78.42762,-9.36032],[-78.4254,-9.3413],[-78.43768,-9.34175],[-78.44294,-9.32703],[-78.4567,-9.32743],[-78.46086,-9.31619],[-78.47461,-9.31794],[-78.4722,-9.32882],[-78.48133,-9.33334],[-78.47948,-9.3219],[-78.49834,-9.31197],[-78.49887,-9.28692],[-78.52552,-9.27456],[-78.4918,-9.25087],[-78.48492,-9.20887],[-78.49377,-9.19196],[-78.53269,-9.17469],[-78.56147,-9.18118],[-78.56636,-9.19356],[-78.55676,-9.20348],[-78.55388,-9.23512],[-78.58381,-9.20336],[-78.57704,-9.19474],[-78.59,-9.19568],[-78.60308,-9.17544],[-78.61018,-9.17621],[-78.60993,-9.16011],[-78.56969,-9.17],[-78.55932,-9.15025],[-78.55922,-9.12283],[-78.58503,-9.08248],[-78.60472,-9.07613],[-78.6131,-9.08153],[-78.61255,-9.07294],[-78.62261,-9.08124],[-78.62991,-9.07357],[-78.63774,-9.04772],[-78.62151,-9.01596],[-78.65794,-8.99594],[-78.65833,-8.98607],[-78.65051,-8.99095],[-78.64387,-8.98214],[-78.64369,-8.93508],[-78.6508,-8.91609],[-78.76116,-8.77396],[-78.76102,-8.757],[-78.74277,-8.74032],[-78.73754,-8.71458],[-78.74672,-8.68427],[-78.73792,-8.66627],[-78.74724,-8.62443],[-78.79495,-8.55034],[-78.91425,-8.46079],[-78.93448,-8.43704],[-78.93452,-8.42796],[-78.91402,-8.42953],[-78.90523,-8.42072],[-78.89541,-8.38289],[-78.95831,-8.29245],[-78.95784,-8.2621],[-78.98346,-8.22903],[-78.98398,-8.21546],[-79.11557,-8.09666],[-79.1231,-8.08376],[-79.11935,-8.07186],[-79.13008,-8.05985],[-79.30786,-7.92543],[-79.3111,-7.91239],[-79.37448,-7.84444],[-79.38957,-7.79121],[-79.46546,-7.71657],[-79.4377,-7.69831],[-79.43682,-7.6736],[-79.57661,-7.46151],[-79.58864,-7.4149],[-79.56954,-7.38999],[-79.58854,-7.35093],[-79.59155,-7.3048],[-79.61458,-7.25885],[-79.69093,-7.1769],[-79.68202,-7.153],[-79.68347,-7.1249],[-79.74777,-7.04931],[-79.86612,-6.9486],[-79.87148,-6.92483],[-79.93185,-6.87331],[-79.93993,-6.82641],[-79.9813,-6.7517],[-80.07489,-6.67552],[-80.25648,-6.56083],[-80.5325,-6.41704],[-80.78692,-6.29693],[-80.89454,-6.20335],[-81.09802,-6.07678],[-81.14926,-5.98124],[-81.14943,-5.88959],[-81.12851,-5.86446],[-81.12351,-5.84297],[-81.09746,-5.83817],[-81.08544,-5.81566],[-81.08362,-5.79166],[-81.06807,-5.78582],[-81.03599,-5.82268],[-81.0042,-5.83587],[-80.99202,-5.83285],[-80.95419,-5.84618],[-80.92196,-5.83686],[-80.89149,-5.80982],[-80.86124,-5.74967],[-80.85044,-5.6565],[-80.8663,-5.59015],[-80.89758,-5.51145],[-80.9385,-5.44649],[-81.05298,-5.33099],[-81.08518,-5.30996],[-81.10777,-5.31524],[-81.13812,-5.26362],[-81.19478,-5.21151],[-81.16736,-5.16712],[-81.17962,-5.13294],[-81.16047,-5.12341],[-81.16784,-5.08097],[-81.15998,-5.07275],[-81.1488,-5.07936],[-81.13239,-5.06971],[-81.1122,-5.08418],[-81.09067,-5.08174],[-81.06254,-5.05027],[-81.06029,-5.03401],[-81.08651,-4.96706],[-81.3282,-4.68259],[-81.3273,-4.66914],[-81.30871,-4.66008],[-81.2861,-4.57504],[-81.2744,-4.57112],[-81.28064,-4.52961],[-81.30503,-4.47977],[-81.30039,-4.46107],[-81.27345,-4.44578],[-81.25283,-4.39562],[-81.24963,-4.34747],[-81.26082,-4.30969],[-81.25407,-4.27732],[-81.23817,-4.25101],[-81.17433,-4.2155],[-81.14614,-4.17946],[-81.12723,-4.17379],[-81.10005,-4.12818],[-81.05229,-4.10479],[-81.01066,-4.04133],[-80.98681,-3.9847],[-80.97279,-3.97659],[-80.96306,-3.95788],[-80.83365,-3.87576],[-80.82869,-3.8373],[-80.78723,-3.74819],[-80.7536,-3.71817],[-80.72657,-3.7108],[-80.68363,-3.6795],[-80.65656,-3.66678],[-80.63519,-3.66707],[-80.60352,-3.63645],[-80.57886,-3.63383],[-80.54485,-3.58973],[-80.49771,-3.49919],[-80.47487,-3.50646],[-80.4697,-3.50571],[-80.47579,-3.50522],[-80.4797,-3.50362],[-80.45794,-3.50025],[-80.46296,-3.50397],[-80.46095,-3.50592],[-80.45625,-3.5],[-80.42672,-3.48729],[-80.40732,-3.48522],[-80.39902,-3.48626],[-80.42316,-3.48713],[-80.44113,-3.49477],[-80.4287,-3.49018],[-80.43114,-3.49862],[-80.41596,-3.49639],[-80.42104,-3.51281],[-80.37883,-3.49461],[-80.39497,-3.49225],[-80.37191,-3.48572],[-80.32659,-3.43978],[-80.31285,-3.4027],[-80.31848,-3.38177],[-80.28992,-3.41048],[-80.25667,-3.41315],[-80.22168,-3.43614],[-80.22076,-3.4455],[-80.24013,-3.46125],[-80.24502,-3.4858],[-80.23244,-3.48916],[-80.22801,-3.50162],[-80.21573,-3.5],[-80.20499,-3.55221],[-80.21864,-3.57391],[-80.21113,-3.59221],[-80.18819,-3.5984],[-80.19716,-3.61771],[-80.18662,-3.62913],[-80.18559,-3.659],[-80.19874,-3.68938],[-80.18018,-3.73516],[-80.18845,-3.74331],[-80.18358,-3.75175],[-80.19194,-3.74854],[-80.19261,-3.77537],[-80.16043,-3.80239],[-80.16311,-3.82767],[-80.15144,-3.85483],[-80.15855,-3.86982],[-80.12679,-3.89455],[-80.14024,-3.91296],[-80.15781,-3.91315],[-80.18346,-3.92725],[-80.21678,-3.95698],[-80.23495,-3.94883],[-80.23616,-3.96272],[-80.27223,-4.0081],[-80.29905,-4.01725],[-80.32369,-4.01117],[-80.33865,-3.99217],[-80.35276,-3.99476],[-80.36453,-3.98212],[-80.37711,-3.98964],[-80.39829,-3.98026],[-80.42454,-3.99647],[-80.43024,-3.9895],[-80.44619,-3.99703],[-80.44532,-4.01585],[-80.45631,-4.01788],[-80.45113,-4.03103],[-80.46792,-4.03504],[-80.47955,-4.05397],[-80.47214,-4.07561],[-80.48733,-4.08313],[-80.46385,-4.1158],[-80.46738,-4.12729],[-80.44701,-4.12115],[-80.44931,-4.20934],[-80.43114,-4.19606],[-80.40928,-4.21854],[-80.36778,-4.19743],[-80.35268,-4.2207],[-80.33979,-4.20838],[-80.32937,-4.21458],[-80.31319,-4.19825],[-80.30958,-4.20562],[-80.36725,-4.26995],[-80.36718,-4.28205],[-80.3908,-4.29577],[-80.42357,-4.33098],[-80.43512,-4.36127],[-80.44579,-4.3678],[-80.45387,-4.38733],[-80.44602,-4.39365],[-80.45388,-4.40765],[-80.44913,-4.44761],[-80.41951,-4.46688],[-80.41667,-4.46005],[-80.39034,-4.48598],[-80.38052,-4.47675],[-80.36189,-4.48008],[-80.33587,-4.4674],[-80.2915,-4.43672],[-80.29555,-4.42397],[-80.27708,-4.4041],[-80.26491,-4.41175],[-80.23469,-4.38701],[-80.23123,-4.3724],[-80.22048,-4.37812],[-80.21829,-4.35347],[-80.21135,-4.35925],[-80.19573,-4.34977],[-80.20548,-4.33867],[-80.18686,-4.33511],[-80.17985,-4.29879],[-80.17132,-4.28999],[-80.15541,-4.30434],[-80.13628,-4.28516],[-80.13496,-4.29628],[-80.10863,-4.29815],[-80.10424,-4.29096],[-80.06148,-4.31022],[-80.0345,-4.34875],[-79.96298,-4.39448],[-79.93867,-4.39671],[-79.91928,-4.38543],[-79.87064,-4.41331],[-79.85405,-4.43447],[-79.853,-4.45131],[-79.81302,-4.4911],[-79.79016,-4.49274],[-79.72592,-4.46985],[-79.70627,-4.47074],[-79.65546,-4.43416],[-79.62814,-4.43911],[-79.60165,-4.45628],[-79.56339,-4.51427],[-79.55253,-4.51396],[-79.54163,-4.52673],[-79.52078,-4.52645],[-79.50929,-4.51784],[-79.49043,-4.52815],[-79.47802,-4.56785],[-79.49521,-4.5799],[-79.48825,-4.62599],[-79.46446,-4.65046],[-79.45595,-4.70422],[-79.43044,-4.74001],[-79.39602,-4.82583],[-79.38914,-4.83428],[-79.3653,-4.83633],[-79.34766,-4.88443],[-79.32412,-4.88474],[-79.30169,-4.90412],[-79.26551,-4.96717],[-79.17874,-4.96117],[-79.11071,-4.9794],[-79.07616,-4.97104],[-79.07104,-4.99107],[-79.05635,-4.98909],[-79.03436,-5.01334],[-79.01491,-5.01562],[-78.99139,-4.96578],[-78.97228,-4.89487],[-78.94497,-4.89815],[-78.89166,-4.88734],[-78.88953,-4.87303],[-78.91186,-4.85164],[-78.8969,-4.8322],[-78.89169,-4.80801],[-78.91542,-4.78086],[-78.88963,-4.76393],[-78.89049,-4.71729],[-78.86322,-4.6906],[-78.85618,-4.66767],[-78.80476,-4.63793],[-78.77434,-4.64206],[-78.76206,-4.62911],[-78.71418,-4.6282],[-78.68055,-4.59503],[-78.65582,-4.58488],[-78.66286,-4.57009],[-78.65657,-4.56209],[-78.66112,-4.53008],[-78.63575,-4.50088],[-78.63448,-4.46402],[-78.62323,-4.44174],[-78.60026,-4.42515],[-78.60275,-4.41104],[-78.62227,-4.41482],[-78.63926,-4.39224],[-78.65227,-4.33251],[-78.63818,-4.30265],[-78.61824,-4.29422],[-78.61086,-4.26726],[-78.59854,-4.25792],[-78.60895,-4.22609],[-78.59998,-4.20922],[-78.57728,-4.19555],[-78.58115,-4.13487],[-78.56774,-4.10118],[-78.53723,-4.06159],[-78.56769,-4.0451],[-78.56611,-3.9933],[-78.54267,-3.97447],[-78.5245,-3.93726],[-78.48883,-3.93382],[-78.47555,-3.90606],[-78.4868,-3.89372],[-78.47784,-3.88316],[-78.47625,-3.85771],[-78.45996,-3.83699],[-78.46587,-3.82753],[-78.436,-3.81912],[-78.40937,-3.78239],[-78.41614,-3.76543],[-78.40248,-3.73539],[-78.4218,-3.72406],[-78.42344,-3.6932],[-78.41575,-3.68597],[-78.40024,-3.68973],[-78.39322,-3.67718],[-78.40082,-3.65041],[-78.38631,-3.6401],[-78.39978,-3.6062],[-78.39286,-3.60368],[-78.39475,-3.58776],[-78.38621,-3.57371],[-78.39119,-3.5601],[-78.36907,-3.53924],[-78.35538,-3.49435],[-78.35918,-3.46952],[-78.34138,-3.4271],[-78.35623,-3.40356],[-78.34426,-3.39182],[-78.34637,-3.38241],[-78.30265,-3.39975],[-78.24621,-3.40233],[-78.24426,-3.43776],[-78.22617,-3.49155],[-78.2314,-3.49881],[-78.21729,-3.50886],[-78.20049,-3.49548],[-78.19232,-3.50034],[-78.16039,-3.48007],[-78.14917,-3.4808],[-78.14464,-3.46116],[-78.15491,-3.41156],[-78.17774,-3.41009],[-78.19574,-3.36076],[-78.17031,-3.35064],[-78.15174,-3.32854],[-78.1368,-3.32654],[-78.14141,-3.32016],[-78.10725,-3.27715],[-78.09071,-3.23431],[-78.06477,-3.22445],[-78.03622,-3.18964],[-78.01269,-3.17885],[-78.00913,-3.15807],[-77.98496,-3.1336],[-77.98245,-3.11965],[-77.97076,-3.11741],[-77.96268,-3.0954],[-77.95031,-3.08951],[-77.94302,-3.06777],[-77.84005,-3.0082],[-77.84457,-2.998],[-76.63187,-2.58969],[-76.26074,-2.29616],[-76.24446,-2.345],[-76.16117,-2.45208],[-76.00651,-2.49967],[-75.93513,-2.48777],[-75.75667,-2.41639],[-75.6258,-2.30931],[-75.53062,-2.19034],[-75.45923,-2.03567],[-75.1856,-1.96429],[-74.93575,-1.83342],[-74.78109,-1.65496],[-74.7097,-1.55978],[-74.66211,-1.40512],[-74.53903,-1.28203],[-74.37602,-1.26647],[-74.29036,-1.26647],[-74.16663,-1.28551],[-74.07145,-1.34262],[-73.81447,-1.53297],[-73.69074,-1.72333],[-73.6717,-1.82803],[-73.60508,-1.97079],[-73.52893,-2.03742],[-73.42424,-2.11356],[-73.36713,-2.21826],[-73.31954,-2.38958]],[[-70.65813,-10.05409],[-70.65742,-10.05701],[-70.65742,-10.05507],[-70.65813,-10.05409]],[[-75.17072,-12.55309],[-75.20642,-12.58878],[-75.20642,-12.60663],[-75.24806,-12.68396],[-75.2659,-12.75534],[-75.25995,-12.93975],[-75.23616,-12.98139],[-75.20642,-13.10037],[-75.12313,-13.20149],[-75.08149,-13.23719],[-75.0458,-13.29667],[-75.01606,-13.31452],[-74.86734,-13.33236],[-74.79001,-13.4097],[-74.76622,-13.44539],[-74.71863,-13.47513],[-74.6294,-13.47513],[-74.56991,-13.45729],[-74.53422,-13.42159],[-74.52232,-13.374],[-74.51637,-13.29667],[-74.52827,-13.21934],[-74.52827,-13.11821],[-74.67699,-13.02303],[-74.74837,-12.99329],[-74.75432,-12.86837],[-74.84355,-12.74345],[-74.86139,-12.68396],[-74.88519,-12.66017],[-75.01606,-12.58283],[-75.08149,-12.56499],[-75.17072,-12.55309]]]}},{"type":"Feature","properties":{"NIVEL":1,"FECHA":"2026-08-20","DESCRIPCIO":null,"RECOMENDAC":null,"RESPONS":"AFLORES","nivel":1,"nivel_nombre":"VERDE","fecha":"2026-08-20","aviso_num":"232"},"geometry":{"type":"Polygon","coordinates":[[[-78.62227,-4.41482],[-78.63409,-4.41516],[-78.63926,-4.39224],[-78.63918,-4.39226],[-78.62227,-4.41482]]]}},{"type":"Feature","properties":{"NIVEL":2,"FECHA":"2026-08-20","DESCRIPCIO":null,"RECOMENDAC":null,"RESPONS":"AFLORES","nivel":2,"nivel_nombre":"AMARILLO","fecha":"2026-08-20","aviso_num":"232"},"geometry":{"type":"Polygon","coordinates":[[[-74.51637,-13.29667],[-74.52232,-13.374],[-74.53422,-13.42159],[-74.56991,-13.45729],[-74.6294,-13.47513],[-74.71863,-13.47513],[-74.76622,-13.44539],[-74.79001,-13.4097],[-74.86734,-13.33236],[-74.99821,-13.32047],[-75.0458,-13.29667],[-75.08149,-13.23719],[-75.12313,-13.20149],[-75.20642,-13.10037],[-75.23616,-12.98139],[-75.25995,-12.93975],[-75.2659,-12.75534],[-75.24806,-12.68396],[-75.20642,-12.60663],[-75.20642,-12.58878],[-75.17072,-12.55309],[-75.08149,-12.56499],[-75.01606,-12.58283],[-74.88519,-12.66017],[-74.86139,-12.68396],[-74.84355,-12.74345],[-74.75432,-12.86837],[-74.74837,-12.99329],[-74.67699,-13.02303],[-74.52827,-13.11821],[-74.52827,-13.21934],[-74.51637,-13.29667]]]}},{"type":"Feature","properties":{"NIVEL":2,"FECHA":"2026-08-20","DESCRIPCIO":null,"RECOMENDAC":null,"RESPONS":"AFLORES","nivel":2,"nivel_nombre":"AMARILLO","fecha":"2026-08-20","aviso_num":"232"},"geometry":{"type":"Polygon","coordinates":[[[-75.14137,-0.06632],[-75.07736,-0.0842],[-75.01689,-0.14569],[-74.9728,-0.15353],[-74.96967,-0.18002],[-74.95862,-0.19384],[-74.93845,-0.20366],[-74.92826,-0.22021],[-74.9182,-0.2153],[-74.9173,-0.20246],[-74.91068,-0.20355],[-74.89229,-0.2369],[-74.84809,-0.23358],[-74.83176,-0.20619],[-74.80898,-0.18902],[-74.78246,-0.20136],[-74.74802,-0.25033],[-74.73147,-0.29006],[-74.73251,-0.33492],[-74.72668,-0.34356],[-74.71065,-0.35024],[-74.68959,-0.32927],[-74.68192,-0.33042],[-74.68387,-0.35926],[-74.66131,-0.37433],[-74.60934,-0.35139],[-74.61515,-0.37882],[-74.57622,-0.39228],[-74.57342,-0.41063],[-74.55318,-0.42081],[-74.52795,-0.46675],[-74.49897,-0.46162],[-74.49756,-0.48834],[-74.4764,-0.4741],[-74.46505,-0.48794],[-74.42295,-0.49892],[-74.42397,-0.55346],[-74.41477,-0.55809],[-74.40057,-0.54004],[-74.39451,-0.54198],[-74.38772,-0.59071],[-74.36093,-0.62382],[-74.37283,-0.65289],[-74.33757,-0.68293],[-74.34537,-0.70544],[-74.37556,-0.71699],[-74.37259,-0.73479],[-74.34428,-0.75903],[-74.31255,-0.75627],[-74.31666,-0.79303],[-74.30351,-0.7923],[-74.29007,-0.77499],[-74.28334,-0.77786],[-74.28026,-0.78728],[-74.29235,-0.81324],[-74.28493,-0.82484],[-74.24533,-0.8184],[-74.26815,-0.84701],[-74.26917,-0.87929],[-74.30546,-0.86517],[-74.31995,-0.87965],[-74.31287,-0.89538],[-74.28742,-0.89354],[-74.2783,-0.89986],[-74.26311,-0.94408],[-74.27135,-0.96711],[-74.26722,-0.98236],[-74.21862,-1.00942],[-74.16836,-1.00633],[-74.09426,-1.04801],[-74.06392,-1.05295],[-74.0462,-1.04482],[-74.03826,-1.01362],[-74.02277,-1.00488],[-74.01518,-1.01824],[-74.02266,-1.06292],[-74.01097,-1.09281],[-73.98804,-1.10316],[-73.96167,-1.08263],[-73.95059,-1.09791],[-73.96656,-1.11778],[-73.96165,-1.12907],[-73.90947,-1.12164],[-73.89707,-1.13718],[-73.89541,-1.16858],[-73.87142,-1.1973],[-73.86752,-1.22316],[-73.85713,-1.23178],[-73.82355,-1.23636],[-73.80962,-1.24912],[-73.78815,-1.23968],[-73.78392,-1.25761],[-73.77433,-1.25909],[-73.75401,-1.2384],[-73.75369,-1.20599],[-73.74512,-1.19966],[-73.741,-1.23426],[-73.73231,-1.24563],[-73.7084,-1.25177],[-73.68093,-1.23802],[-73.64701,-1.26719],[-73.62109,-1.2596],[-73.6108,-1.31903],[-73.59583,-1.32875],[-73.57653,-1.31806],[-73.56979,-1.32243],[-73.57916,-1.35958],[-73.56148,-1.37718],[-73.55022,-1.40688],[-73.55386,-1.41677],[-73.5814,-1.41392],[-73.58536,-1.42307],[-73.53432,-1.43285],[-73.52631,-1.468],[-73.511,-1.48213],[-73.48901,-1.48304],[-73.48565,-1.49778],[-73.4951,-1.51015],[-73.47857,-1.52209],[-73.47841,-1.53043],[-73.4903,-1.5693],[-73.47962,-1.57552],[-73.46374,-1.5673],[-73.45735,-1.57432],[-73.46523,-1.59117],[-73.50366,-1.62258],[-73.51659,-1.66271],[-73.53667,-1.68591],[-73.52953,-1.70727],[-73.49995,-1.7312],[-73.45928,-1.7364],[-73.43566,-1.76248],[-73.43159,-1.7887],[-73.38334,-1.77471],[-73.32697,-1.80486],[-73.31738,-1.82619],[-73.30373,-1.81811],[-73.30884,-1.78793],[-73.29459,-1.77654],[-73.24986,-1.78039],[-73.24417,-1.78842],[-73.25679,-1.80252],[-73.23435,-1.80172],[-73.23207,-1.76106],[-73.22087,-1.74867],[-73.20379,-1.76392],[-73.18603,-1.80792],[-73.14729,-1.80269],[-73.15028,-1.86136],[-73.13326,-1.87241],[-73.11277,-1.87281],[-73.10745,-1.88606],[-73.11842,-1.91208],[-73.11231,-1.94617],[-73.12337,-1.98122],[-73.12032,-2.01316],[-73.09373,-2.03546],[-73.10675,-2.07495],[-73.10063,-2.08258],[-73.07368,-2.08163],[-73.06979,-2.08788],[-73.07673,-2.10819],[-73.11419,-2.13087],[-73.13004,-2.1816],[-73.17046,-2.19161],[-73.16767,-2.22902],[-73.15163,-2.26016],[-73.11768,-2.28701],[-73.12293,-2.32394],[-73.09997,-2.32457],[-73.08215,-2.31115],[-73.0683,-2.31514],[-73.07003,-2.34525],[-73.06236,-2.35897],[-73.0523,-2.36086],[-73.04423,-2.35279],[-73.04241,-2.32326],[-73.0338,-2.31465],[-73.02403,-2.31881],[-73.00488,-2.35761],[-72.99412,-2.35722],[-72.97846,-2.33865],[-72.9645,-2.34115],[-72.95173,-2.40096],[-72.92263,-2.4195],[-72.93742,-2.44441],[-72.9338,-2.45487],[-72.89513,-2.43367],[-72.8518,-2.43578],[-72.80281,-2.41071],[-72.77645,-2.38437],[-72.76009,-2.39585],[-72.75529,-2.41967],[-72.74579,-2.42677],[-72.73378,-2.41962],[-72.72693,-2.39091],[-72.70775,-2.38907],[-72.68914,-2.41383],[-72.69103,-2.44848],[-72.68129,-2.45166],[-72.66709,-2.43995],[-72.65822,-2.40724],[-72.63732,-2.38879],[-72.6408,-2.36326],[-72.6197,-2.35628],[-72.59552,-2.36655],[-72.56879,-2.39758],[-72.53526,-2.40543],[-72.51699,-2.42637],[-72.49797,-2.41826],[-72.47159,-2.42003],[-72.42815,-2.43743],[-72.40866,-2.41449],[-72.37942,-2.45498],[-72.38088,-2.47821],[-72.37177,-2.48919],[-72.29753,-2.4736],[-72.28628,-2.45418],[-72.25955,-2.45852],[-72.26216,-2.4355],[-72.24854,-2.43066],[-72.22036,-2.44835],[-72.18446,-2.4297],[-72.16947,-2.4319],[-72.16635,-2.46441],[-72.14982,-2.47002],[-72.13714,-2.44942],[-72.14528,-2.40625],[-72.09783,-2.37027],[-72.08206,-2.36796],[-72.04874,-2.33494],[-72.0372,-2.338],[-72.01011,-2.36895],[-71.94978,-2.35636],[-71.93998,-2.36232],[-71.93482,-2.37967],[-71.92244,-2.37815],[-71.91922,-2.36542],[-71.93832,-2.32835],[-71.93491,-2.31235],[-71.88476,-2.31159],[-71.83277,-2.19042],[-71.82284,-2.18814],[-71.80975,-2.20418],[-71.79913,-2.20437],[-71.76693,-2.1585],[-71.73248,-2.14014],[-71.71892,-2.15994],[-71.73122,-2.20145],[-71.723,-2.22655],[-71.7085,-2.22733],[-71.64768,-2.20006],[-71.58716,-2.23828],[-71.51889,-2.24897],[-71.51983,-2.30208],[-71.50046,-2.35221],[-71.48751,-2.35338],[-71.47938,-2.34006],[-71.49615,-2.29334],[-71.49481,-2.278],[-71.47732,-2.26936],[-71.45825,-2.27415],[-71.42892,-2.32067],[-71.3964,-2.34711],[-71.40656,-2.38825],[-71.39472,-2.40703],[-71.35785,-2.38264],[-71.32074,-2.37777],[-71.30709,-2.34742],[-71.27219,-2.33345],[-71.26634,-2.33648],[-71.26811,-2.35777],[-71.24865,-2.33902],[-71.23477,-2.33675],[-71.20018,-2.37456],[-71.17578,-2.37903],[-71.16684,-2.33777],[-71.15358,-2.33361],[-71.13788,-2.34335],[-71.13032,-2.33749],[-71.14338,-2.30159],[-71.13679,-2.28717],[-71.11993,-2.2805],[-71.05333,-2.27062],[-71.03035,-2.27705],[-71.01691,-2.29553],[-70.99614,-2.30349],[-70.99042,-2.28709],[-71.01844,-2.23744],[-71.0174,-2.22183],[-71.00462,-2.20881],[-70.9727,-2.21422],[-70.95572,-2.24308],[-70.93735,-2.25448],[-70.92066,-2.25014],[-70.90281,-2.22707],[-70.87939,-2.22089],[-70.85496,-2.23701],[-70.83595,-2.29081],[-70.77776,-2.29299],[-70.75124,-2.32827],[-70.69389,-2.33926],[-70.66592,-2.35377],[-70.66273,-2.36377],[-70.67727,-2.38605],[-70.67844,-2.40214],[-70.66488,-2.41041],[-70.62785,-2.39503],[-70.6283,-2.42162],[-70.64137,-2.45551],[-70.62723,-2.47638],[-70.5993,-2.48444],[-70.55435,-2.46775],[-70.55759,-2.44308],[-70.59642,-2.42591],[-70.58992,-2.41789],[-70.55871,-2.41998],[-70.51055,-2.47176],[-70.46928,-2.45588],[-70.45148,-2.48157],[-70.44629,-2.51079],[-70.42862,-2.52487],[-70.40775,-2.52329],[-70.36201,-2.48987],[-70.32404,-2.50328],[-70.30098,-2.50258],[-70.29517,-2.51538],[-70.3018,-2.52822],[-70.35211,-2.54354],[-70.35651,-2.56421],[-70.33458,-2.57789],[-70.31787,-2.57854],[-70.26787,-2.5436],[-70.24531,-2.55042],[-70.23101,-2.57122],[-70.21683,-2.64852],[-70.1963,-2.65898],[-70.18216,-2.63461],[-70.16616,-2.63639],[-70.15421,-2.65688],[-70.16206,-2.68785],[-70.14055,-2.70054],[-70.11843,-2.69863],[-70.10103,-2.65386],[-70.08494,-2.64903],[-70.06604,-2.6841],[-70.07125,-2.72432],[-70.06006,-2.75892],[-70.07361,-2.79066],[-70.71347,-3.79423],[-70.68519,-3.79334],[-70.65252,-3.82888],[-70.62716,-3.83202],[-70.61902,-3.84006],[-70.57727,-3.82801],[-70.54092,-3.86304],[-70.51063,-3.87547],[-70.44981,-3.85668],[-70.41376,-3.82203],[-70.3876,-3.8285],[-70.35406,-3.79929],[-70.29228,-3.82119],[-70.27631,-3.83763],[-70.25352,-3.8845],[-70.1867,-3.91835],[-70.17428,-3.97006],[-70.1144,-4.04955],[-70.06778,-4.07598],[-70.03408,-4.13441],[-69.95569,-4.20764],[-69.94959,-4.27938],[-69.98036,-4.34042],[-70.01514,-4.35052],[-70.02931,-4.37238],[-70.04441,-4.37374],[-70.05144,-4.3625],[-70.04026,-4.34697],[-70.04296,-4.33219],[-70.07409,-4.32065],[-70.07908,-4.31206],[-70.07324,-4.30392],[-70.0486,-4.30508],[-70.04027,-4.29479],[-70.06136,-4.2947],[-70.07508,-4.28529],[-70.09604,-4.28777],[-70.10936,-4.25615],[-70.12099,-4.28542],[-70.14514,-4.27275],[-70.15639,-4.27474],[-70.17063,-4.30523],[-70.15207,-4.32129],[-70.15261,-4.33003],[-70.1748,-4.33488],[-70.18084,-4.3554],[-70.19633,-4.36034],[-70.21379,-4.29845],[-70.22542,-4.31704],[-70.25996,-4.3086],[-70.2681,-4.2958],[-70.24725,-4.28679],[-70.24838,-4.27284],[-70.28979,-4.28801],[-70.28434,-4.27251],[-70.30739,-4.25853],[-70.30811,-4.24729],[-70.27853,-4.22893],[-70.28758,-4.19881],[-70.2866,-4.16737],[-70.31971,-4.14339],[-70.32833,-4.14527],[-70.32765,-4.16835],[-70.33853,-4.17915],[-70.37681,-4.13501],[-70.43282,-4.13129],[-70.44237,-4.13944],[-70.4349,-4.16273],[-70.45424,-4.15892],[-70.46491,-4.17587],[-70.48523,-4.16079],[-70.49269,-4.19158],[-70.50557,-4.19913],[-70.51411,-4.19084],[-70.50364,-4.16877],[-70.50825,-4.15119],[-70.52342,-4.13638],[-70.5356,-4.14541],[-70.55111,-4.13632],[-70.54101,-4.1548],[-70.55774,-4.16535],[-70.55542,-4.2016],[-70.57189,-4.21125],[-70.56446,-4.17412],[-70.6221,-4.19213],[-70.6352,-4.17349],[-70.61738,-4.12918],[-70.64462,-4.12695],[-70.65018,-4.16413],[-70.66062,-4.14476],[-70.66993,-4.14438],[-70.66678,-4.17022],[-70.68228,-4.20693],[-70.69037,-4.18819],[-70.72395,-4.18599],[-70.75775,-4.15852],[-70.78674,-4.18542],[-70.80099,-4.18182],[-70.82564,-4.21186],[-70.84324,-4.21714],[-70.84458,-4.23082],[-70.82606,-4.21933],[-70.81678,-4.22944],[-70.83438,-4.2541],[-70.85098,-4.24696],[-70.86389,-4.25065],[-70.84625,-4.27938],[-70.87662,-4.29146],[-70.87638,-4.32165],[-70.90005,-4.32588],[-70.91543,-4.36001],[-70.93352,-4.35606],[-70.93804,-4.3831],[-70.94829,-4.37602],[-70.96903,-4.37759],[-70.97537,-4.35677],[-70.99449,-4.34476],[-70.98795,-4.37655],[-70.99651,-4.3858],[-71.01789,-4.37999],[-71.04,-4.39919],[-71.04349,-4.37282],[-71.05068,-4.36748],[-71.05695,-4.38577],[-71.07842,-4.39435],[-71.07745,-4.3742],[-71.09103,-4.3725],[-71.10811,-4.37869],[-71.10624,-4.39937],[-71.11504,-4.40814],[-71.12936,-4.389],[-71.14764,-4.38078],[-71.14978,-4.40225],[-71.15609,-4.40228],[-71.15784,-4.3912],[-71.18189,-4.3939],[-71.19369,-4.42307],[-71.20606,-4.39963],[-71.19797,-4.3864],[-71.2014,-4.37824],[-71.21539,-4.37845],[-71.22241,-4.40617],[-71.23026,-4.38307],[-71.24592,-4.39049],[-71.26921,-4.38376],[-71.27956,-4.39692],[-71.26067,-4.39423],[-71.26779,-4.409],[-71.26086,-4.42511],[-71.2748,-4.43849],[-71.28849,-4.44015],[-71.30474,-4.41714],[-71.31911,-4.41781],[-71.30086,-4.44444],[-71.30821,-4.46226],[-71.31347,-4.44272],[-71.34026,-4.44022],[-71.3459,-4.42554],[-71.36058,-4.43363],[-71.37855,-4.42419],[-71.39061,-4.42723],[-71.41638,-4.46228],[-71.43361,-4.47596],[-71.43787,-4.47085],[-71.42604,-4.46621],[-71.43094,-4.44668],[-71.41225,-4.43539],[-71.43629,-4.42769],[-71.43817,-4.44905],[-71.45119,-4.44551],[-71.45086,-4.43171],[-71.46152,-4.43924],[-71.47768,-4.43355],[-71.48261,-4.4566],[-71.50687,-4.43735],[-71.50658,-4.45766],[-71.4928,-4.47436],[-71.49397,-4.4852],[-71.51619,-4.47161],[-71.51741,-4.46122],[-71.53728,-4.46308],[-71.53624,-4.48169],[-71.55837,-4.4776],[-71.55071,-4.48556],[-71.56693,-4.50576],[-71.60282,-4.52845],[-71.61887,-4.527],[-71.63346,-4.51233],[-71.61251,-4.48288],[-71.61617,-4.46698],[-71.62721,-4.47603],[-71.62472,-4.48888],[-71.64791,-4.50273],[-71.64659,-4.48057],[-71.65429,-4.47114],[-71.66053,-4.47472],[-71.65404,-4.48758],[-71.65793,-4.50094],[-71.67197,-4.50583],[-71.68822,-4.49696],[-71.7068,-4.50989],[-71.73686,-4.49556],[-71.75073,-4.46742],[-71.74896,-4.49132],[-71.76765,-4.5037],[-71.77135,-4.4886],[-71.78533,-4.48232],[-71.78337,-4.4966],[-71.79242,-4.49516],[-71.7938,-4.48365],[-71.81025,-4.4929],[-71.80654,-4.50439],[-71.83212,-4.49584],[-71.83016,-4.51443],[-71.83914,-4.50453],[-71.85656,-4.51137],[-71.865,-4.52645],[-71.87935,-4.51526],[-71.88535,-4.52193],[-71.90549,-4.51475],[-71.90781,-4.51978],[-71.89359,-4.52251],[-71.88459,-4.53709],[-71.91818,-4.52885],[-71.92678,-4.54726],[-71.91911,-4.56345],[-71.93048,-4.56173],[-71.92719,-4.57006],[-71.93436,-4.5782],[-71.95,-4.58029],[-71.94261,-4.59472],[-71.9504,-4.59913],[-71.94733,-4.60843],[-71.97682,-4.61141],[-71.98386,-4.60345],[-71.99373,-4.60902],[-71.9812,-4.62601],[-72.00219,-4.62905],[-72.00599,-4.64528],[-72.01555,-4.63108],[-72.04244,-4.6229],[-72.03794,-4.64282],[-72.04591,-4.64443],[-72.04642,-4.65422],[-72.0581,-4.64936],[-72.06819,-4.65923],[-72.05967,-4.67335],[-72.06499,-4.67614],[-72.0708,-4.66288],[-72.08028,-4.66867],[-72.07666,-4.68026],[-72.08937,-4.68109],[-72.10131,-4.70551],[-72.12467,-4.71576],[-72.12061,-4.72771],[-72.12682,-4.73457],[-72.13372,-4.7313],[-72.12761,-4.72183],[-72.14036,-4.71151],[-72.14673,-4.72391],[-72.16151,-4.7288],[-72.15931,-4.73526],[-72.1719,-4.73389],[-72.19323,-4.74582],[-72.18736,-4.75049],[-72.19236,-4.76295],[-72.20928,-4.74746],[-72.22192,-4.75513],[-72.21251,-4.7594],[-72.21508,-4.76703],[-72.24351,-4.78136],[-72.25572,-4.76546],[-72.26143,-4.78075],[-72.25514,-4.79208],[-72.26443,-4.78584],[-72.26962,-4.79765],[-72.28292,-4.79732],[-72.27658,-4.78886],[-72.2797,-4.77089],[-72.28327,-4.78342],[-72.30142,-4.77538],[-72.3065,-4.79042],[-72.31319,-4.78567],[-72.3105,-4.77444],[-72.32804,-4.781],[-72.31971,-4.78859],[-72.32488,-4.81322],[-72.32526,-4.80174],[-72.33865,-4.80446],[-72.33775,-4.79346],[-72.34484,-4.80671],[-72.36805,-4.80293],[-72.37172,-4.80873],[-72.35884,-4.82339],[-72.37497,-4.82194],[-72.38222,-4.82627],[-72.37233,-4.83241],[-72.38906,-4.83329],[-72.37534,-4.83757],[-72.38372,-4.84963],[-72.38025,-4.85851],[-72.38967,-4.86183],[-72.3811,-4.87099],[-72.39663,-4.87325],[-72.43438,-4.81663],[-72.53908,-4.6929],[-72.5486,-4.59772],[-72.61522,-4.48351],[-72.7104,-4.40736],[-72.76751,-4.35026],[-72.8151,-4.24556],[-72.79606,-4.16942],[-72.82461,-4.07424],[-72.88172,-3.9981],[-72.91028,-3.88388],[-72.91979,-3.80774],[-72.86269,-3.72208],[-72.76751,-3.61738],[-72.71992,-3.4651],[-72.71992,-3.28426],[-72.74847,-3.17956],[-72.85317,-3.05583],[-72.92931,-2.9321],[-73.04352,-2.84644],[-73.10063,-2.73222],[-73.26244,-2.50379],[-73.31954,-2.38958],[-73.36713,-2.21826],[-73.42424,-2.11356],[-73.52893,-2.03742],[-73.60508,-1.97079],[-73.6717,-1.82803],[-73.69074,-1.72333],[-73.81447,-1.53297],[-74.07145,-1.34262],[-74.16663,-1.28551],[-74.29036,-1.26647],[-74.37602,-1.26647],[-74.53903,-1.28203],[-74.66211,-1.40512],[-74.7097,-1.55978],[-74.78109,-1.65496],[-74.93575,-1.83342],[-75.1856,-1.96429],[-75.45923,-2.03567],[-75.53062,-2.19034],[-75.6258,-2.30931],[-75.75667,-2.41639],[-75.93513,-2.48777],[-76.00651,-2.49967],[-76.16117,-2.45208],[-76.24446,-2.345],[-76.26074,-2.29616],[-76.04343,-2.12709],[-75.58267,-1.54746],[-75.55836,-1.56072],[-75.55036,-1.50199],[-75.53805,-1.48077],[-75.3867,-0.92974],[-75.37948,-0.92375],[-75.36981,-0.92901],[-75.30006,-0.98715],[-75.28853,-0.98566],[-75.27437,-0.9696],[-75.21145,-0.96957],[-75.20322,-0.97566],[-75.18833,-0.9702],[-75.22891,-0.94149],[-75.2335,-0.92201],[-75.2194,-0.89955],[-75.22117,-0.86576],[-75.24847,-0.8341],[-75.23979,-0.79929],[-75.26497,-0.78394],[-75.25094,-0.76252],[-75.26579,-0.75116],[-75.27344,-0.72894],[-75.27218,-0.71392],[-75.24786,-0.6945],[-75.27138,-0.66361],[-75.25791,-0.65506],[-75.25647,-0.6435],[-75.24791,-0.64746],[-75.24473,-0.63937],[-75.23131,-0.64694],[-75.23336,-0.63397],[-75.2231,-0.6285],[-75.23223,-0.6144],[-75.22597,-0.60572],[-75.23993,-0.60105],[-75.23895,-0.5789],[-75.22449,-0.57109],[-75.22749,-0.55076],[-75.24408,-0.54695],[-75.23796,-0.539],[-75.24692,-0.51891],[-75.26193,-0.5332],[-75.26759,-0.53002],[-75.26965,-0.50259],[-75.28612,-0.49733],[-75.2947,-0.50577],[-75.30073,-0.49278],[-75.31276,-0.49424],[-75.31095,-0.47442],[-75.32645,-0.46065],[-75.32485,-0.45314],[-75.3491,-0.46354],[-75.35646,-0.44678],[-75.38785,-0.43412],[-75.38971,-0.41516],[-75.40098,-0.39966],[-75.41501,-0.39622],[-75.46273,-0.31843],[-75.46436,-0.29859],[-75.47371,-0.29675],[-75.48222,-0.23696],[-75.51082,-0.21202],[-75.51417,-0.19738],[-75.53077,-0.1809],[-75.56871,-0.18527],[-75.5788,-0.17835],[-75.59052,-0.19063],[-75.61062,-0.19245],[-75.6105,-0.11336],[-75.60172,-0.10989],[-75.59539,-0.12043],[-75.57814,-0.12038],[-75.56361,-0.1312],[-75.55265,-0.13068],[-75.54244,-0.11568],[-75.53709,-0.12127],[-75.5349,-0.11504],[-75.51607,-0.11447],[-75.4968,-0.13202],[-75.48506,-0.13018],[-75.46702,-0.14078],[-75.46068,-0.15167],[-75.43108,-0.15379],[-75.40513,-0.17027],[-75.36821,-0.16323],[-75.36402,-0.14611],[-75.35284,-0.14731],[-75.35912,-0.15799],[-75.35217,-0.16382],[-75.33957,-0.15539],[-75.31214,-0.16034],[-75.29578,-0.14807],[-75.28795,-0.15396],[-75.28397,-0.1416],[-75.2588,-0.12716],[-75.25546,-0.11149],[-75.22576,-0.08603],[-75.21549,-0.04869],[-75.1836,-0.03861],[-75.14137,-0.06632]]]}},{"type":"Feature","properties":{"NIVEL":2,"FECHA":"2026-08-20","DESCRIPCIO":null,"RECOMENDAC":null,"RESPONS":"AFLORES","nivel":2,"nivel_nombre":"AMARILLO","fecha":"2026-08-20","aviso_num":"232"},"geometry":{"type":"Polygon","coordinates":[[[-71.46174,-10.79209],[-71.34277,-10.86348],[-71.30707,-10.87537],[-71.24759,-10.93486],[-71.2,-11.01814],[-71.09292,-11.13711],[-70.97395,-11.1847],[-70.93826,-11.23229],[-70.77169,-11.32747],[-70.67652,-11.42265],[-70.53355,-11.54377],[-70.38801,-11.62867],[-70.1453,-11.70005],[-69.717,-11.70005],[-69.11737,-11.74288],[-69.05989,-11.75725],[-68.65228,-12.50274],[-68.66043,-12.51941],[-68.65552,-12.53459],[-68.66473,-12.52422],[-68.68138,-12.52536],[-68.67409,-12.53246],[-68.67448,-12.55297],[-68.69148,-12.55726],[-68.6993,-12.5721],[-68.69386,-12.58661],[-68.70142,-12.57911],[-68.71384,-12.60412],[-68.72415,-12.60204],[-68.73176,-12.60991],[-68.74059,-12.63276],[-68.73104,-12.6509],[-68.73381,-12.66738],[-68.71955,-12.66122],[-68.7283,-12.67132],[-68.71992,-12.66703],[-68.71193,-12.68011],[-68.73449,-12.69212],[-68.72513,-12.69726],[-68.74237,-12.70799],[-68.72791,-12.71339],[-68.76689,-12.74219],[-68.78045,-12.73208],[-68.78897,-12.75779],[-68.80395,-12.75657],[-68.80473,-12.78357],[-68.81802,-12.79076],[-68.80763,-12.80862],[-68.82435,-12.80483],[-68.83937,-12.8239],[-68.82913,-12.82847],[-68.8393,-12.82963],[-68.83095,-12.84166],[-68.84175,-12.84349],[-68.8348,-12.85784],[-68.85098,-12.86644],[-68.85854,-12.85891],[-68.8707,-12.87059],[-68.86409,-12.87484],[-68.87251,-12.88751],[-68.86611,-12.89552],[-68.87487,-12.91923],[-68.86131,-12.92663],[-68.87663,-12.92868],[-68.86613,-12.93132],[-68.87341,-12.93976],[-68.86021,-12.94777],[-68.87817,-12.94076],[-68.8746,-12.94846],[-68.88216,-12.95763],[-68.87604,-12.96018],[-68.87483,-12.97988],[-68.86573,-12.97188],[-68.86232,-12.98127],[-68.8768,-12.98719],[-68.86717,-12.9958],[-68.86716,-13.01003],[-68.8748,-13.01467],[-68.85405,-13.01441],[-68.86678,-13.03088],[-68.85166,-13.03245],[-68.85011,-13.04799],[-68.863,-13.04743],[-68.85417,-13.05986],[-68.86911,-13.0815],[-68.8598,-13.09566],[-68.86638,-13.11098],[-68.85924,-13.11329],[-68.87311,-13.11309],[-68.86597,-13.1193],[-68.87802,-13.1362],[-68.8677,-13.13439],[-68.8699,-13.14893],[-68.85809,-13.15052],[-68.87086,-13.16803],[-68.8568,-13.16996],[-68.86113,-13.18348],[-68.87213,-13.18136],[-68.85222,-13.2107],[-68.85467,-13.21688],[-68.86139,-13.21245],[-68.86274,-13.22502],[-68.8538,-13.22209],[-68.85753,-13.23501],[-68.84529,-13.24669],[-68.85952,-13.25596],[-68.85291,-13.26139],[-68.85933,-13.2672],[-68.84902,-13.26961],[-68.86191,-13.27128],[-68.85691,-13.29399],[-68.8684,-13.29983],[-68.85941,-13.31229],[-68.87879,-13.32938],[-68.86803,-13.3335],[-68.879,-13.3444],[-68.867,-13.35077],[-68.87537,-13.35388],[-68.8688,-13.35924],[-68.88846,-13.37191],[-68.88316,-13.38141],[-68.89168,-13.38319],[-68.88458,-13.3931],[-68.8947,-13.40171],[-68.88533,-13.40444],[-68.89775,-13.41326],[-68.88949,-13.4354],[-68.90052,-13.43522],[-68.8988,-13.44671],[-68.906,-13.43707],[-68.89608,-13.46126],[-68.90599,-13.45667],[-68.90144,-13.47045],[-68.90833,-13.46954],[-68.90548,-13.47539],[-68.91676,-13.48427],[-68.90743,-13.48909],[-68.92194,-13.5101],[-68.91454,-13.51254],[-68.91934,-13.52533],[-68.92207,-13.51728],[-68.93517,-13.52909],[-68.94083,-13.52228],[-68.93562,-13.53475],[-68.94952,-13.55153],[-68.9458,-13.56858],[-68.95806,-13.58981],[-68.95247,-13.6044],[-68.97224,-13.60139],[-68.97244,-13.61111],[-69.00504,-13.62412],[-68.9902,-13.63489],[-68.99671,-13.63965],[-68.99467,-13.65178],[-69.03103,-13.65514],[-69.03721,-13.64028],[-69.06194,-13.65762],[-69.06697,-13.6733],[-69.06692,-13.6874],[-69.0355,-13.7162],[-69.02595,-13.73929],[-69.00776,-13.7385],[-68.97446,-13.76059],[-68.98036,-13.78298],[-68.99239,-13.77805],[-68.99482,-13.787],[-68.97428,-13.79617],[-68.95859,-13.7905],[-68.91724,-13.81417],[-68.92307,-13.82804],[-68.94105,-13.83954],[-68.95096,-13.87867],[-68.9728,-13.88219],[-68.98253,-13.89471],[-68.98283,-13.93008],[-68.9633,-13.94867],[-68.97889,-13.97653],[-68.95401,-14.00528],[-68.94629,-14.00452],[-68.93634,-14.02635],[-68.91794,-14.02735],[-68.90905,-14.04042],[-68.89032,-14.04661],[-68.87943,-14.06467],[-68.88405,-14.08392],[-68.87528,-14.08679],[-68.87113,-14.11106],[-68.84926,-14.1383],[-68.83329,-14.14487],[-68.8337,-14.15394],[-68.84625,-14.15303],[-68.85618,-14.16267],[-68.84631,-14.19694],[-68.82668,-14.21307],[-68.8278,-14.21942],[-68.96241,-14.22005],[-68.96894,-14.23523],[-68.98501,-14.23712],[-68.9884,-14.25043],[-68.97925,-14.26563],[-69.00518,-14.29087],[-69.01524,-14.31471],[-68.9849,-14.37257],[-69.00574,-14.39664],[-69.21731,-14.22704],[-69.3458,-14.08427],[-69.50285,-13.99861],[-69.68845,-13.8844],[-69.81694,-13.77019],[-70.05964,-13.67025],[-70.25952,-13.55603],[-70.44511,-13.48465],[-71.08631,-13.25664],[-71.24362,-13.25483],[-71.29597,-13.20249],[-71.36735,-13.16917],[-71.46729,-13.16917],[-71.51012,-13.14062],[-71.59578,-13.04544],[-71.63861,-13.02165],[-71.66241,-12.99309],[-71.67668,-12.9693],[-71.69057,-12.80187],[-71.81568,-12.68515],[-71.91562,-12.48528],[-72.01556,-12.35679],[-72.1155,-12.29968],[-72.27254,-12.34251],[-72.30109,-12.45672],[-72.40103,-12.57094],[-72.5438,-12.6566],[-72.75795,-12.6566],[-72.92927,-12.67087],[-73.08632,-12.75653],[-73.41829,-12.79377],[-73.47778,-12.78782],[-73.71572,-12.70454],[-73.85849,-12.62126],[-74.03695,-12.44875],[-74.14403,-12.38332],[-74.20351,-12.35357],[-74.22731,-12.35357],[-74.28679,-12.29409],[-74.35823,-12.19088],[-74.49773,-12.15334],[-74.53342,-12.08196],[-74.69761,-12.06054],[-74.69761,-12.02485],[-74.75471,-11.86067],[-74.84037,-11.76787],[-74.98314,-11.64652],[-75.04025,-11.57513],[-75.05453,-11.53944],[-75.1045,-11.48233],[-75.17588,-11.4395],[-75.23299,-11.41809],[-75.3472,-11.32529],[-75.37575,-11.28246],[-75.44,-11.13969],[-75.46855,-11.04689],[-75.46855,-10.98265],[-75.43286,-10.94249],[-75.43286,-10.89699],[-75.41858,-10.87557],[-75.34006,-10.87557],[-75.22585,-10.93268],[-75.02597,-10.97551],[-74.92604,-11.01834],[-74.84751,-11.08258],[-74.79754,-11.16111],[-74.7333,-11.23249],[-74.69047,-11.31101],[-74.58339,-11.37526],[-74.51201,-11.46806],[-74.39066,-11.58227],[-74.32641,-11.6251],[-74.2693,-11.68935],[-74.21934,-11.72504],[-74.20467,-11.75437],[-74.16782,-11.75871],[-74.031,-11.87173],[-73.92393,-11.93717],[-73.87634,-11.96096],[-73.82875,-11.96691],[-73.80531,-11.94633],[-73.79817,-11.87494],[-73.81959,-11.78928],[-73.95522,-11.58941],[-73.99805,-11.50375],[-74.05515,-11.45378],[-74.09798,-11.31815],[-74.11226,-11.23963],[-74.11226,-11.1968],[-74.10559,-11.19096],[-74.07915,-11.19977],[-73.97207,-11.19977],[-73.8174,-11.23546],[-73.60325,-11.23546],[-73.28203,-11.18787],[-73.09167,-11.0927],[-72.98459,-11.0927],[-72.82993,-11.02131],[-72.74665,-10.94993],[-72.67526,-10.84285],[-72.56936,-10.8236],[-72.55629,-10.80399],[-72.47301,-10.78019],[-72.22317,-10.79209],[-72.13988,-10.7683],[-72.0923,-10.7445],[-71.96143,-10.7326],[-71.75917,-10.7326],[-71.58071,-10.7564],[-71.46174,-10.79209]]]}},{"type":"Feature","properties":{"NIVEL":2,"FECHA":"2026-08-20","DESCRIPCIO":null,"RECOMENDAC":null,"RESPONS":"AFLORES","nivel":2,"nivel_nombre":"AMARILLO","fecha":"2026-08-20","aviso_num":"232"},"geometry":{"type":"Polygon","coordinates":[[[-71.93729,-17.01781],[-71.87125,-17.06299],[-71.76667,-17.19653],[-71.84997,-17.16491],[-71.93021,-17.08068],[-72.01641,-17.03287],[-72.02312,-17.02239],[-72.04149,-17.01588],[-72.07357,-17.02236],[-72.0911,-17.01189],[-72.11221,-17.01576],[-72.10381,-16.99626],[-72.1225,-16.97817],[-72.11929,-16.96992],[-72.14385,-16.96579],[-72.14598,-16.95653],[-72.16514,-16.94818],[-72.16495,-16.93811],[-72.18432,-16.93575],[-72.18442,-16.92478],[-72.19569,-16.9268],[-72.21152,-16.90245],[-72.2276,-16.89433],[-72.23252,-16.90055],[-72.27647,-16.8731],[-72.28848,-16.87513],[-72.28729,-16.86059],[-72.29684,-16.84903],[-72.2887,-16.83703],[-72.31204,-16.81378],[-72.31012,-16.80762],[-72.32647,-16.80285],[-72.32908,-16.78923],[-72.35411,-16.76596],[-72.37426,-16.76075],[-72.37312,-16.75249],[-72.40069,-16.75111],[-72.40531,-16.73894],[-72.41661,-16.73616],[-72.44788,-16.70238],[-72.59367,-16.66733],[-72.74146,-16.64219],[-72.77606,-16.62607],[-72.8487,-16.5646],[-72.91629,-16.52037],[-72.98685,-16.51744],[-73.00413,-16.50703],[-73.0117,-16.51236],[-73.04827,-16.50013],[-73.05549,-16.48712],[-73.10339,-16.45482],[-73.1318,-16.4501],[-73.15074,-16.43383],[-73.07972,-16.42737],[-73.02975,-16.44165],[-72.96551,-16.46306],[-72.90126,-16.49876],[-72.67283,-16.59156],[-72.5729,-16.60583],[-72.43727,-16.66294],[-72.35161,-16.70577],[-72.30878,-16.74146],[-72.22312,-16.83426],[-72.12318,-16.91992],[-72.06607,-16.94847],[-72.00183,-16.99844],[-71.93729,-17.01781]]]}}]}