{"type":"FeatureCollection","bbox":[-81.32823,-18.350928,-68.640372,-0.038606],"properties":{"fecha":"2026-08-18","aviso_num":"230","nivel_max":3,"fuente":"https://www.senamhi.gob.pe/?p=aviso-24H"},"features":[{"type":"Feature","properties":{"NIVEL":1,"FECHA":"2026-08-18","DESCRIPCIO":null,"RECOMENDAC":null,"RESPONS":"GLIMAY","nivel":1,"nivel_nombre":"VERDE","fecha":"2026-08-18","aviso_num":"230"},"geometry":{"type":"Polygon","coordinates":[[[-70.02774,-18.26969],[-70.01822,-18.18982],[-70.02298,-18.09464],[-70.06106,-17.98994],[-70.08961,-17.94235],[-70.20858,-17.8329],[-70.24189,-17.81862],[-70.34659,-17.73296],[-70.37039,-17.69489],[-70.41797,-17.6473],[-70.54171,-17.55688],[-70.5893,-17.52833],[-70.69875,-17.49026],[-70.74634,-17.4855],[-70.81296,-17.45218],[-70.86055,-17.44742],[-70.97001,-17.41411],[-71.07471,-17.41411],[-71.1794,-17.49977],[-71.21271,-17.51405],[-71.25554,-17.51405],[-71.32217,-17.43315],[-71.33645,-17.39508],[-71.39831,-17.31418],[-71.41735,-17.24279],[-71.41259,-17.16189],[-71.46018,-17.01912],[-71.52204,-16.93346],[-71.64578,-16.85256],[-71.75047,-16.86684],[-71.85517,-16.94298],[-71.88372,-16.99533],[-71.91741,-17.09352],[-72.03448,-17.01753],[-72.07357,-17.02236],[-72.0911,-17.01189],[-72.11192,-17.01588],[-72.10381,-16.99626],[-72.1225,-16.97817],[-72.11929,-16.96992],[-72.14385,-16.96579],[-72.14598,-16.95653],[-72.16514,-16.94818],[-72.16495,-16.93811],[-72.18432,-16.93575],[-72.18442,-16.92478],[-72.19569,-16.9268],[-72.21152,-16.90245],[-72.2276,-16.89433],[-72.23252,-16.90055],[-72.27647,-16.8731],[-72.28848,-16.87513],[-72.28729,-16.86059],[-72.29684,-16.84903],[-72.2887,-16.83703],[-72.31204,-16.81378],[-72.31012,-16.80762],[-72.32647,-16.80285],[-72.32908,-16.78923],[-72.35411,-16.76596],[-72.37426,-16.76075],[-72.37312,-16.75249],[-72.40069,-16.75111],[-72.40531,-16.73894],[-72.41661,-16.73616],[-72.44788,-16.70238],[-72.59367,-16.66733],[-72.70905,-16.65269],[-72.752,-16.63811],[-72.92009,-16.51849],[-72.98685,-16.51744],[-73.00413,-16.50703],[-73.0117,-16.51236],[-73.04877,-16.49994],[-73.05549,-16.48712],[-73.10339,-16.45482],[-73.12962,-16.45103],[-73.14858,-16.43881],[-73.15916,-16.41993],[-73.18935,-16.4154],[-73.20844,-16.40039],[-73.23501,-16.41528],[-73.24358,-16.40679],[-73.26039,-16.40928],[-73.26036,-16.40199],[-73.27221,-16.3982],[-73.29151,-16.40578],[-73.30593,-16.37527],[-73.30077,-16.35206],[-73.3142,-16.3387],[-73.45126,-16.28131],[-73.48219,-16.28369],[-73.55933,-16.24449],[-73.56741,-16.24954],[-73.61993,-16.23009],[-73.64917,-16.23429],[-73.67621,-16.22356],[-73.70032,-16.24155],[-73.69971,-16.21994],[-73.72788,-16.19525],[-73.83482,-16.15456],[-73.87012,-16.13491],[-73.88734,-16.11049],[-73.95303,-16.07511],[-73.95911,-16.06082],[-73.97941,-16.05296],[-73.98962,-16.03912],[-74.01782,-16.03687],[-74.03317,-16.01757],[-74.0256,-15.99252],[-74.05445,-15.95452],[-74.17503,-15.89698],[-74.2416,-15.8787],[-74.25182,-15.85514],[-74.27901,-15.83882],[-74.29178,-15.83701],[-74.3044,-15.8465],[-74.31322,-15.8399],[-74.32674,-15.84973],[-74.3268,-15.84204],[-74.39548,-15.82936],[-74.43912,-15.79491],[-74.46274,-15.75543],[-74.46287,-15.72604],[-74.47246,-15.71948],[-74.6803,-15.64513],[-74.72851,-15.61169],[-74.80333,-15.57684],[-74.83949,-15.56509],[-74.85341,-15.57321],[-74.84776,-15.55454],[-74.88755,-15.52413],[-74.97363,-15.49057],[-74.98454,-15.47019],[-75.00051,-15.46212],[-75.05637,-15.45463],[-75.07508,-15.44296],[-75.07108,-15.43563],[-75.08191,-15.42401],[-75.09964,-15.42348],[-75.11029,-15.41052],[-75.1404,-15.40717],[-75.14468,-15.39381],[-75.15857,-15.39287],[-75.16151,-15.37813],[-75.19453,-15.36815],[-75.18628,-15.35442],[-75.1608,-15.3583],[-75.15285,-15.3512],[-75.15149,-15.33458],[-75.16446,-15.31148],[-75.19593,-15.29115],[-75.22913,-15.28574],[-75.24865,-15.2553],[-75.26403,-15.25076],[-75.22281,-15.25638],[-75.21623,-15.2333],[-75.23221,-15.20277],[-75.27468,-15.16832],[-75.31557,-15.15041],[-75.33622,-15.14622],[-75.3495,-15.15833],[-75.34812,-15.14842],[-75.35792,-15.13995],[-75.37174,-15.15154],[-75.37134,-15.12815],[-75.38413,-15.11641],[-75.39479,-15.08067],[-75.40921,-15.06799],[-75.41357,-15.04312],[-75.43316,-15.02658],[-75.44269,-15.00059],[-75.48632,-14.97908],[-75.50314,-14.96238],[-75.50186,-14.94181],[-75.49165,-14.9342],[-75.50979,-14.91077],[-75.57452,-14.8678],[-75.68203,-14.81771],[-75.76031,-14.76141],[-75.85557,-14.71628],[-75.84891,-14.70844],[-75.85576,-14.69444],[-75.91677,-14.65891],[-75.92776,-14.64203],[-75.93046,-14.57128],[-75.97473,-14.52461],[-75.96478,-14.50589],[-75.97228,-14.4705],[-76.03911,-14.42453],[-76.0662,-14.38694],[-76.13652,-14.34881],[-76.14524,-14.33016],[-76.11096,-14.32922],[-76.1053,-14.31406],[-76.14357,-14.22762],[-76.19048,-14.19826],[-76.19753,-14.17348],[-76.21786,-14.16792],[-76.22096,-14.153],[-76.23856,-14.14862],[-76.25198,-14.15439],[-76.26625,-14.1402],[-76.27095,-14.14549],[-76.25658,-14.16749],[-76.25446,-14.155],[-76.25339,-14.16352],[-76.27488,-14.1973],[-76.27549,-14.1829],[-76.29361,-14.16276],[-76.27872,-14.15243],[-76.28576,-14.13822],[-76.27989,-14.12754],[-76.28444,-14.10001],[-76.29216,-14.089],[-76.27613,-14.08249],[-76.27637,-14.06187],[-76.26063,-14.05577],[-76.27051,-14.03615],[-76.26262,-14.02023],[-76.28578,-13.99679],[-76.27023,-13.98087],[-76.27304,-13.95187],[-76.29536,-13.92837],[-76.28215,-13.9106],[-76.29557,-13.90463],[-76.29803,-13.8935],[-76.31211,-13.89245],[-76.31633,-13.91545],[-76.32775,-13.92466],[-76.34112,-13.91508],[-76.35601,-13.9228],[-76.37265,-13.91023],[-76.39633,-13.9089],[-76.39836,-13.89207],[-76.38595,-13.84385],[-76.36764,-13.82792],[-76.371,-13.8062],[-76.358,-13.80057],[-76.34465,-13.80427],[-76.32547,-13.79329],[-76.29642,-13.79328],[-76.28888,-13.79786],[-76.31165,-13.84707],[-76.29764,-13.83804],[-76.26141,-13.86583],[-76.25088,-13.85421],[-76.25815,-13.83857],[-76.24803,-13.83139],[-76.2503,-13.81304],[-76.2204,-13.71765],[-76.21704,-13.6812],[-76.19766,-13.64088],[-76.18744,-13.56582],[-76.1909,-13.47581],[-76.18544,-13.44943],[-76.20843,-13.38099],[-76.25619,-13.30645],[-76.39313,-13.13731],[-76.48978,-13.03185],[-76.48289,-13.01593],[-76.51646,-12.9554],[-76.50663,-12.94731],[-76.50579,-12.92581],[-76.51983,-12.84993],[-76.55926,-12.82164],[-76.56785,-12.80295],[-76.60918,-12.77774],[-76.61846,-12.75944],[-76.63786,-12.74516],[-76.6301,-12.72104],[-76.65638,-12.69908],[-76.65406,-12.68617],[-76.67249,-12.66071],[-76.67221,-12.62827],[-76.70472,-12.59634],[-76.70983,-12.57452],[-76.74642,-12.53933],[-76.80378,-12.50883],[-76.79866,-12.4997],[-76.80553,-12.49422],[-76.79805,-12.48938],[-76.80322,-12.48029],[-76.79093,-12.47763],[-76.78519,-12.44371],[-76.77504,-12.43787],[-76.78159,-12.4149],[-76.77569,-12.4045],[-76.7834,-12.39813],[-76.77736,-12.39368],[-76.78955,-12.38571],[-76.79942,-12.36228],[-76.81725,-12.35227],[-76.81927,-12.33944],[-76.82699,-12.34294],[-76.83661,-12.31617],[-76.85529,-12.30019],[-76.94443,-12.24528],[-77.03784,-12.20565],[-77.0384,-12.16842],[-77.02752,-12.16496],[-77.02608,-12.14455],[-77.0651,-12.10288],[-77.13466,-12.06987],[-77.17072,-12.07307],[-77.14862,-12.05861],[-77.15632,-12.04847],[-77.14871,-12.05741],[-77.14627,-12.04407],[-77.14206,-12.04676],[-77.14082,-12.04562],[-77.14295,-12.03744],[-77.14896,-12.03891],[-77.15568,-12.04669],[-77.15629,-12.04692],[-77.13872,-12.01935],[-77.13355,-11.96313],[-77.15902,-11.86882],[-77.17209,-11.84642],[-77.18689,-11.83888],[-77.17798,-11.80212],[-77.19018,-11.7837],[-77.19815,-11.78348],[-77.19827,-11.76821],[-77.17768,-11.77466],[-77.16739,-11.74244],[-77.19852,-11.6955],[-77.19219,-11.68077],[-77.20784,-11.64809],[-77.28208,-11.58737],[-77.2705,-11.58434],[-77.271,-11.57207],[-77.29596,-11.53725],[-77.30072,-11.51796],[-77.34231,-11.48696],[-77.34269,-11.47439],[-77.3605,-11.46023],[-77.49671,-11.37793],[-77.64835,-11.30274],[-77.64587,-11.2964],[-77.65423,-11.29124],[-77.64329,-11.29052],[-77.64009,-11.27561],[-77.6499,-11.24464],[-77.64715,-11.22173],[-77.63099,-11.21183],[-77.6255,-11.21777],[-77.60171,-11.21402],[-77.59235,-11.18208],[-77.60234,-11.15053],[-77.62013,-11.1269],[-77.6131,-11.11216],[-77.63386,-11.09361],[-77.62807,-11.08928],[-77.63738,-11.0713],[-77.63342,-11.05451],[-77.66187,-11.01348],[-77.64682,-10.99819],[-77.66463,-10.95898],[-77.65783,-10.94651],[-77.70152,-10.88612],[-77.70596,-10.85358],[-77.75083,-10.81881],[-77.75458,-10.80372],[-77.74404,-10.79454],[-77.76495,-10.77181],[-77.76242,-10.76282],[-77.80403,-10.72595],[-77.80869,-10.70257],[-77.88659,-10.61206],[-77.90868,-10.56959],[-77.90078,-10.5642],[-77.90816,-10.54429],[-77.9394,-10.50901],[-77.96561,-10.49297],[-77.96332,-10.47111],[-77.98041,-10.43937],[-78.01442,-10.41124],[-78.00071,-10.39747],[-78.0106,-10.3747],[-78.05523,-10.34537],[-78.05683,-10.30346],[-78.08707,-10.27712],[-78.08101,-10.24832],[-78.09196,-10.24198],[-78.08729,-10.23012],[-78.10158,-10.20111],[-78.16357,-10.14719],[-78.17344,-10.11521],[-78.18502,-10.10939],[-78.16574,-10.09195],[-78.17576,-10.0697],[-78.17577,-10.04396],[-78.1961,-10.02012],[-78.19306,-10.00135],[-78.20808,-9.96677],[-78.23356,-9.95131],[-78.22424,-9.93985],[-78.23022,-9.91254],[-78.22451,-9.90722],[-78.24379,-9.86849],[-78.23429,-9.85403],[-78.2378,-9.83419],[-78.2271,-9.82157],[-78.22603,-9.79548],[-78.29589,-9.72629],[-78.29434,-9.70543],[-78.30652,-9.69523],[-78.30761,-9.68394],[-78.31929,-9.6815],[-78.31884,-9.66666],[-78.33579,-9.65475],[-78.34337,-9.63291],[-78.35859,-9.62398],[-78.36687,-9.62969],[-78.36133,-9.61007],[-78.37227,-9.58624],[-78.36532,-9.58128],[-78.36638,-9.55891],[-78.39127,-9.53102],[-78.38449,-9.52096],[-78.39666,-9.49897],[-78.39459,-9.47766],[-78.40471,-9.47509],[-78.39195,-9.45794],[-78.38088,-9.45572],[-78.38011,-9.44549],[-78.39199,-9.42912],[-78.40764,-9.43585],[-78.40668,-9.42482],[-78.41776,-9.42615],[-78.41601,-9.41875],[-78.42794,-9.41129],[-78.42679,-9.39204],[-78.43373,-9.39037],[-78.42828,-9.37157],[-78.4095,-9.36312],[-78.42762,-9.36032],[-78.4254,-9.3413],[-78.43768,-9.34175],[-78.44294,-9.32703],[-78.4567,-9.32743],[-78.46086,-9.31619],[-78.47461,-9.31794],[-78.4722,-9.32882],[-78.48133,-9.33334],[-78.47948,-9.3219],[-78.49834,-9.31197],[-78.49887,-9.28692],[-78.52552,-9.27456],[-78.4918,-9.25087],[-78.48492,-9.20887],[-78.49377,-9.19196],[-78.53269,-9.17469],[-78.56147,-9.18118],[-78.56636,-9.19356],[-78.55676,-9.20348],[-78.55388,-9.23512],[-78.58381,-9.20336],[-78.57704,-9.19474],[-78.59,-9.19568],[-78.60308,-9.17544],[-78.61018,-9.17621],[-78.60993,-9.16011],[-78.56969,-9.17],[-78.55932,-9.15025],[-78.55922,-9.12283],[-78.58503,-9.08248],[-78.60472,-9.07613],[-78.6131,-9.08153],[-78.61255,-9.07294],[-78.62261,-9.08124],[-78.62991,-9.07357],[-78.63774,-9.04772],[-78.62151,-9.01596],[-78.65794,-8.99594],[-78.65833,-8.98607],[-78.65051,-8.99095],[-78.64387,-8.98214],[-78.64369,-8.93508],[-78.6508,-8.91609],[-78.76116,-8.77396],[-78.76102,-8.757],[-78.74277,-8.74032],[-78.73754,-8.71458],[-78.74672,-8.68427],[-78.73792,-8.66627],[-78.74724,-8.62443],[-78.79495,-8.55034],[-78.91425,-8.46079],[-78.93448,-8.43704],[-78.93452,-8.42796],[-78.91402,-8.42953],[-78.90523,-8.42072],[-78.89541,-8.38289],[-78.95831,-8.29245],[-78.95784,-8.2621],[-78.98346,-8.22903],[-78.98398,-8.21546],[-79.11557,-8.09666],[-79.1231,-8.08376],[-79.11935,-8.07186],[-79.13008,-8.05985],[-79.30786,-7.92543],[-79.3111,-7.91239],[-79.37448,-7.84444],[-79.38957,-7.79121],[-79.46546,-7.71657],[-79.4377,-7.69831],[-79.43682,-7.6736],[-79.57661,-7.46151],[-79.58864,-7.4149],[-79.56954,-7.38999],[-79.58854,-7.35093],[-79.59155,-7.3048],[-79.61458,-7.25885],[-79.69093,-7.1769],[-79.68202,-7.153],[-79.68347,-7.1249],[-79.74777,-7.04931],[-79.86612,-6.9486],[-79.87148,-6.92483],[-79.93185,-6.87331],[-79.93993,-6.82641],[-79.9813,-6.7517],[-80.07489,-6.67552],[-80.25648,-6.56083],[-80.5325,-6.41704],[-80.7838,-6.29896],[-80.89454,-6.20335],[-81.09375,-6.08028],[-81.1115,-6.06194],[-81.14036,-6.00666],[-81.14954,-5.97945],[-81.14943,-5.88959],[-81.12851,-5.86446],[-81.12351,-5.84297],[-81.09746,-5.83817],[-81.08544,-5.81566],[-81.08362,-5.79166],[-81.06807,-5.78582],[-81.03599,-5.82268],[-81.0042,-5.83587],[-80.99202,-5.83285],[-80.95419,-5.84618],[-80.92196,-5.83686],[-80.89149,-5.80982],[-80.86124,-5.74967],[-80.85044,-5.6565],[-80.8663,-5.59015],[-80.89758,-5.51145],[-80.9385,-5.44649],[-81.05298,-5.33099],[-81.08518,-5.30996],[-81.10777,-5.31524],[-81.13812,-5.26362],[-81.19478,-5.21151],[-81.16736,-5.16712],[-81.17962,-5.13294],[-81.16047,-5.12341],[-81.16784,-5.08097],[-81.15998,-5.07275],[-81.1488,-5.07936],[-81.13239,-5.06971],[-81.1122,-5.08418],[-81.09067,-5.08174],[-81.06254,-5.05027],[-81.06029,-5.03401],[-81.08651,-4.96706],[-81.3282,-4.68259],[-81.3273,-4.66914],[-81.30871,-4.66008],[-81.2861,-4.57504],[-81.2744,-4.57112],[-81.28064,-4.52961],[-81.30503,-4.47977],[-81.30039,-4.46107],[-81.27345,-4.44578],[-81.25283,-4.39562],[-81.24963,-4.34747],[-81.26082,-4.30969],[-81.25424,-4.2779],[-81.23817,-4.25101],[-81.17433,-4.2155],[-81.14614,-4.17946],[-81.12723,-4.17379],[-81.10005,-4.12818],[-81.05229,-4.10479],[-81.01066,-4.04133],[-80.98681,-3.9847],[-80.97279,-3.97659],[-80.96306,-3.95788],[-80.83365,-3.87576],[-80.82869,-3.8373],[-80.78723,-3.74819],[-80.7536,-3.71817],[-80.72657,-3.7108],[-80.65656,-3.66678],[-80.62743,-3.66304],[-80.60352,-3.63645],[-80.57547,-3.63061],[-80.54485,-3.58973],[-80.49771,-3.49919],[-80.47487,-3.50646],[-80.4697,-3.50571],[-80.47579,-3.50522],[-80.4797,-3.50362],[-80.45794,-3.50025],[-80.46296,-3.50397],[-80.46095,-3.50592],[-80.45625,-3.5],[-80.42672,-3.48729],[-80.40732,-3.48522],[-80.39902,-3.48626],[-80.42316,-3.48713],[-80.44113,-3.49477],[-80.4287,-3.49018],[-80.43114,-3.49862],[-80.41596,-3.49639],[-80.42104,-3.51281],[-80.37883,-3.49461],[-80.39497,-3.49225],[-80.37191,-3.48572],[-80.32659,-3.43978],[-80.31285,-3.4027],[-80.31848,-3.38177],[-80.28992,-3.41048],[-80.25667,-3.41315],[-80.22238,-3.43515],[-80.22076,-3.4455],[-80.24013,-3.46125],[-80.24502,-3.4858],[-80.23244,-3.48916],[-80.22801,-3.50162],[-80.21573,-3.5],[-80.20499,-3.55221],[-80.21864,-3.57391],[-80.21113,-3.59221],[-80.18819,-3.5984],[-80.19716,-3.61771],[-80.18662,-3.62913],[-80.18559,-3.659],[-80.19874,-3.68938],[-80.18018,-3.73516],[-80.18845,-3.74331],[-80.18358,-3.75175],[-80.19194,-3.74854],[-80.19261,-3.77537],[-80.16043,-3.80239],[-80.16311,-3.82767],[-80.15144,-3.85483],[-80.15855,-3.86982],[-80.12679,-3.89455],[-80.14024,-3.91296],[-80.15781,-3.91315],[-80.18346,-3.92725],[-80.21678,-3.95698],[-80.23495,-3.94883],[-80.23616,-3.96272],[-80.27223,-4.0081],[-80.29905,-4.01725],[-80.32369,-4.01117],[-80.33865,-3.99217],[-80.35276,-3.99476],[-80.36453,-3.98212],[-80.37711,-3.98964],[-80.39829,-3.98026],[-80.42454,-3.99647],[-80.43024,-3.9895],[-80.44619,-3.99703],[-80.44532,-4.01585],[-80.45631,-4.01788],[-80.45113,-4.03103],[-80.46792,-4.03504],[-80.47955,-4.05397],[-80.47214,-4.07561],[-80.48733,-4.08313],[-80.46385,-4.1158],[-80.46738,-4.12729],[-80.44701,-4.12115],[-80.44931,-4.20934],[-80.43114,-4.19606],[-80.40928,-4.21854],[-80.36778,-4.19743],[-80.35268,-4.2207],[-80.33979,-4.20838],[-80.32937,-4.21458],[-80.31319,-4.19825],[-80.30958,-4.20562],[-80.36725,-4.26995],[-80.36718,-4.28205],[-80.3908,-4.29577],[-80.42357,-4.33098],[-80.43512,-4.36127],[-80.44579,-4.3678],[-80.45387,-4.38733],[-80.44766,-4.40306],[-80.45388,-4.40793],[-80.44913,-4.44761],[-80.44004,-4.45577],[-80.41951,-4.46688],[-80.41727,-4.45969],[-80.38954,-4.48611],[-80.38052,-4.47675],[-80.36189,-4.48008],[-80.33587,-4.4674],[-80.2915,-4.43672],[-80.29555,-4.42397],[-80.27708,-4.4041],[-80.26491,-4.41175],[-80.23469,-4.38701],[-80.23123,-4.3724],[-80.22048,-4.37812],[-80.21829,-4.35347],[-80.21135,-4.35925],[-80.19573,-4.34977],[-80.20548,-4.33867],[-80.18686,-4.33511],[-80.17985,-4.29879],[-80.17132,-4.28999],[-80.15541,-4.30434],[-80.13628,-4.28516],[-80.13496,-4.29628],[-80.10863,-4.29815],[-80.10424,-4.29096],[-80.06148,-4.31022],[-80.0345,-4.34875],[-79.96298,-4.39448],[-79.93867,-4.39671],[-79.91928,-4.38543],[-79.87064,-4.41331],[-79.85405,-4.43447],[-79.853,-4.45131],[-79.81302,-4.4911],[-79.79016,-4.49274],[-79.72592,-4.46985],[-79.70627,-4.47074],[-79.65546,-4.43416],[-79.62814,-4.43911],[-79.60165,-4.45628],[-79.56339,-4.51427],[-79.55253,-4.51396],[-79.54163,-4.52673],[-79.52078,-4.52645],[-79.50929,-4.51784],[-79.49043,-4.52815],[-79.47802,-4.56785],[-79.49521,-4.5799],[-79.48825,-4.62599],[-79.46446,-4.65046],[-79.45595,-4.70422],[-79.43044,-4.74001],[-79.39602,-4.82583],[-79.38914,-4.83428],[-79.3653,-4.83633],[-79.34766,-4.88443],[-79.32412,-4.88474],[-79.30169,-4.90412],[-79.26551,-4.96717],[-79.17874,-4.96117],[-79.11071,-4.9794],[-79.07616,-4.97104],[-79.07181,-4.99041],[-79.05437,-4.99013],[-79.02614,-5.01531],[-79.01137,-5.0113],[-78.97228,-4.89487],[-78.94497,-4.89815],[-78.89166,-4.88734],[-78.88953,-4.87303],[-78.91186,-4.85164],[-78.8969,-4.8322],[-78.89169,-4.80801],[-78.91542,-4.78086],[-78.88963,-4.76393],[-78.89049,-4.71729],[-78.86322,-4.6906],[-78.86261,-4.67573],[-78.84099,-4.6536],[-78.80476,-4.63793],[-78.77434,-4.64206],[-78.76206,-4.62911],[-78.70618,-4.62435],[-78.68055,-4.59503],[-78.65582,-4.58488],[-78.66286,-4.57009],[-78.65657,-4.56209],[-78.66132,-4.53082],[-78.60696,-4.59026],[-78.56889,-4.67592],[-78.55937,-4.7711],[-78.55937,-4.90435],[-78.54985,-4.97097],[-78.50227,-5.04711],[-78.47847,-5.11612],[-78.44992,-5.33027],[-78.48561,-5.45876],[-78.56413,-5.60867],[-78.57841,-5.6515],[-78.58555,-5.70147],[-78.52844,-5.81568],[-78.4285,-5.86565],[-78.34998,-5.87279],[-78.26432,-5.95131],[-78.10728,-5.96559],[-77.99306,-5.90134],[-77.95737,-5.85137],[-77.95023,-5.82282],[-77.9074,-5.7443],[-77.78605,-5.7086],[-77.65756,-5.7443],[-77.58617,-5.77999],[-77.55048,-5.81568],[-77.51479,-5.8942],[-77.46482,-5.96559],[-77.36488,-6.02983],[-77.34347,-6.05838],[-77.33633,-6.14405],[-77.32618,-6.1745],[-77.38566,-6.28158],[-77.42136,-6.32917],[-77.45705,-6.35296],[-77.49274,-6.40055],[-77.50464,-6.47193],[-77.50464,-6.59091],[-77.49274,-6.67419],[-77.43325,-6.78126],[-77.37377,-6.91214],[-77.33807,-7.04301],[-77.32618,-7.12629],[-77.32618,-7.19767],[-77.2072,-7.42372],[-77.04064,-7.62597],[-76.98116,-7.76874],[-76.94546,-7.88771],[-76.82649,-8.05428],[-76.75511,-8.18515],[-76.51716,-8.53017],[-76.45767,-8.68483],[-76.44578,-8.75622],[-76.49337,-8.87519],[-76.54096,-8.94657],[-76.54096,-9.02986],[-76.51716,-9.12503],[-76.45767,-9.22021],[-76.25542,-9.2559],[-76.17214,-9.2797],[-76.11265,-9.35108],[-76.08067,-9.37596],[-75.94839,-9.53696],[-75.91269,-9.62025],[-75.848,-9.72808],[-75.88057,-9.73351],[-75.9234,-9.7692],[-75.94482,-9.82631],[-75.93768,-9.92624],[-75.89485,-9.99049],[-75.81633,-10.0476],[-75.80539,-10.1187],[-75.82525,-10.16835],[-75.88474,-10.22189],[-75.92043,-10.20999],[-75.95612,-10.16241],[-75.97991,-10.10292],[-76.00966,-10.05533],[-76.08699,-9.98989],[-76.12863,-9.978],[-76.17622,-10.01369],[-76.15243,-10.16835],[-76.20001,-10.22784],[-76.26545,-10.23379],[-76.30114,-10.1743],[-76.31304,-10.12076],[-76.31304,-10.06723],[-76.34873,-10.01369],[-76.37847,-10.00179],[-76.42011,-10.03154],[-76.4915,-10.05533],[-76.5034,-10.00179],[-76.49745,-9.98395],[-76.44391,-9.91851],[-76.44391,-9.87092],[-76.4796,-9.82928],[-76.53314,-9.82928],[-76.60452,-9.93041],[-76.63427,-10.06723],[-76.71755,-10.07318],[-76.73539,-10.01369],[-76.74134,-9.90661],[-76.77703,-9.88877],[-76.80083,-9.86497],[-76.9436,-9.88877],[-76.96144,-9.91851],[-77.05067,-9.90661],[-77.13395,-9.79359],[-77.17559,-9.76979],[-77.27672,-9.76385],[-77.31241,-9.79954],[-77.34181,-9.81213],[-77.3719,-9.94825],[-77.3481,-10.01964],[-77.31241,-10.07318],[-77.27672,-10.10887],[-77.25293,-10.16241],[-77.21723,-10.1862],[-77.15775,-10.1981],[-77.13395,-10.16241],[-77.08636,-10.15646],[-77.06852,-10.24569],[-77.08636,-10.27543],[-77.08636,-10.32302],[-77.05067,-10.36466],[-77.01801,-10.37555],[-77.0132,-10.39],[-77.04294,-10.44354],[-77.06673,-10.45544],[-77.11432,-10.52682],[-77.10837,-10.62795],[-77.06078,-10.68148],[-77.0013,-10.69933],[-76.90017,-10.69933],[-76.87043,-10.74097],[-76.87043,-10.8183],[-76.84663,-10.91348],[-76.7931,-11.02056],[-76.73956,-11.08599],[-76.69792,-11.10979],[-76.64438,-11.15738],[-76.58489,-11.18712],[-76.54325,-11.23471],[-76.41238,-11.30014],[-76.34695,-11.31799],[-76.29936,-11.31799],[-76.19228,-11.34773],[-76.11495,-11.44291],[-75.99598,-11.55594],[-75.96028,-11.62732],[-75.96623,-11.63922],[-75.91864,-11.69276],[-75.87105,-11.80578],[-75.82941,-11.85337],[-75.74613,-11.89501],[-75.6807,-11.90691],[-75.59742,-11.99614],[-75.57957,-12.04373],[-75.52603,-12.12701],[-75.49629,-12.22219],[-75.41301,-12.3828],[-75.36542,-12.43039],[-75.29403,-12.46608],[-75.14532,-12.50177],[-75.03229,-12.56126],[-74.99065,-12.6029],[-74.96091,-12.69808],[-74.96091,-12.74567],[-74.91927,-12.8111],[-74.8003,-12.823],[-74.72296,-12.90033],[-74.71107,-12.94792],[-74.68132,-12.97766],[-74.51476,-13.055],[-74.45672,-13.15323],[-74.40595,-13.18224],[-74.38216,-13.22983],[-74.37621,-13.25957],[-74.34052,-13.31311],[-74.22154,-13.39639],[-74.15611,-13.42019],[-74.12042,-13.44993],[-74.10257,-13.47967],[-74.09067,-13.52131],[-74.03119,-13.55106],[-73.97765,-13.5927],[-73.9598,-13.61649],[-73.87652,-13.64624],[-73.81109,-13.69383],[-73.78134,-13.70572],[-73.71591,-13.70572],[-73.66237,-13.74736],[-73.54934,-13.92582],[-73.5315,-14.021],[-73.48391,-14.13403],[-73.46012,-14.17567],[-73.40063,-14.21731],[-73.35304,-14.23515],[-73.30545,-14.2411],[-73.24596,-14.2292],[-73.12491,-14.15708],[-72.94036,-13.88981],[-72.91041,-13.86842],[-72.87472,-13.79703],[-72.82713,-13.72565],[-72.75574,-13.64237],[-72.66057,-13.63047],[-72.494,-13.64237],[-72.37503,-13.66616],[-72.30365,-13.72565],[-72.20847,-13.77324],[-72.12519,-13.90411],[-72.12519,-13.99929],[-72.14898,-14.07067],[-72.18467,-14.13016],[-72.16088,-14.21344],[-72.0895,-14.29672],[-72.00621,-14.35621],[-71.89914,-14.34431],[-71.82776,-14.27292],[-71.82776,-14.15395],[-71.87534,-14.07067],[-71.75637,-14.01118],[-71.60171,-14.13016],[-71.56601,-14.18964],[-71.39945,-14.23723],[-71.25668,-14.30862],[-71.10202,-14.47518],[-70.7451,-14.48708],[-70.61423,-14.49897],[-70.47146,-14.52277],[-70.35249,-14.58225],[-70.25731,-14.61795],[-70.19782,-14.68933],[-69.90039,-14.73692],[-69.79332,-14.78451],[-69.72193,-14.8321],[-69.69814,-14.90348],[-69.60296,-15.02245],[-69.53158,-15.09384],[-69.46019,-15.22471],[-69.36501,-15.29609],[-69.23517,-15.34331],[-69.24856,-15.37081],[-69.26033,-15.37404],[-69.24985,-15.42672],[-69.23233,-15.4418],[-69.25351,-15.46919],[-69.29007,-15.43688],[-69.30895,-15.46389],[-69.31172,-15.47297],[-69.30058,-15.48635],[-69.31338,-15.49253],[-69.30886,-15.50513],[-69.32967,-15.53481],[-69.38546,-15.69777],[-69.24571,-16.1444],[-69.10079,-16.22482],[-69.08154,-16.22138],[-69.05526,-16.19736],[-69.01276,-16.21976],[-69.00697,-16.20536],[-68.98434,-16.19011],[-68.96239,-16.19165],[-68.8847,-16.26566],[-68.81422,-16.31977],[-68.81422,-16.34799],[-68.98628,-16.44001],[-69.03904,-16.56652],[-69.01705,-16.63815],[-68.9961,-16.65658],[-69.04346,-16.68784],[-69.05521,-16.68665],[-69.10452,-16.71246],[-69.13644,-16.71354],[-69.17001,-16.72754],[-69.18619,-16.79755],[-69.19753,-16.79924],[-69.21924,-16.83613],[-69.2534,-16.86099],[-69.30467,-16.91584],[-69.32459,-16.95154],[-69.32008,-16.96075],[-69.33543,-16.98026],[-69.36901,-16.99041],[-69.39358,-17.02057],[-69.37309,-17.04831],[-69.37374,-17.07312],[-69.40627,-17.10029],[-69.43292,-17.10986],[-69.44913,-17.09775],[-69.51185,-17.14617],[-69.5569,-17.15928],[-69.5781,-17.20648],[-69.60315,-17.21978],[-69.61598,-17.26128],[-69.64429,-17.28097],[-69.64132,-17.28745],[-69.57522,-17.29259],[-69.46732,-17.37354],[-69.46829,-17.50417],[-69.66541,-17.6599],[-69.79599,-17.64624],[-69.8212,-17.68636],[-69.82168,-17.74381],[-69.80005,-17.76233],[-69.79571,-17.86226],[-69.77672,-17.90816],[-69.74718,-17.94394],[-69.7515,-17.98559],[-69.81308,-18.11448],[-69.85431,-18.16535],[-69.96055,-18.26288],[-69.98023,-18.27026],[-70.02774,-18.26969]]]}},{"type":"Feature","properties":{"NIVEL":3,"FECHA":"2026-08-18","DESCRIPCIO":null,"RECOMENDAC":null,"RESPONS":"GLIMAY","nivel":3,"nivel_nombre":"NARANJA","fecha":"2026-08-18","aviso_num":"230"},"geometry":{"type":"Polygon","coordinates":[[[-70.65726,-3.82408],[-70.8057,-3.88159],[-70.91929,-3.88159],[-71.28012,-3.80141],[-71.33357,-3.76132],[-71.47389,-3.621],[-71.52066,-3.53413],[-71.60753,-3.30026],[-71.67435,-3.24013],[-71.74117,-3.20004],[-71.86812,-3.18667],[-72.02181,-3.18667],[-72.14208,-3.22008],[-72.28908,-3.23345],[-72.57641,-3.23345],[-72.78355,-3.2134],[-73.131,-3.12654],[-73.23791,-3.07976],[-73.38492,-2.97953],[-73.43837,-2.90603],[-73.45842,-2.85258],[-73.51187,-2.69221],[-73.51855,-2.62539],[-73.55865,-2.49844],[-73.59874,-2.45166],[-73.66556,-2.41825],[-73.73906,-2.40489],[-73.81256,-2.35143],[-73.83929,-2.30466],[-73.86601,-2.23116],[-73.90611,-2.09084],[-73.91947,-1.99729],[-73.90611,-1.84361],[-73.87938,-1.71665],[-73.77915,-1.52956],[-73.66556,-1.4427],[-73.61878,-1.42265],[-73.58529,-1.42068],[-73.57315,-1.42896],[-73.53787,-1.43089],[-73.52631,-1.468],[-73.511,-1.48213],[-73.48739,-1.48565],[-73.48565,-1.49778],[-73.4951,-1.51015],[-73.47857,-1.52209],[-73.47841,-1.53043],[-73.4903,-1.5693],[-73.47962,-1.57552],[-73.46374,-1.5673],[-73.45735,-1.57432],[-73.46523,-1.59117],[-73.50366,-1.62258],[-73.51659,-1.66271],[-73.53553,-1.68328],[-73.52611,-1.71104],[-73.49995,-1.7312],[-73.45928,-1.7364],[-73.43566,-1.76248],[-73.43159,-1.7887],[-73.38334,-1.77471],[-73.32697,-1.80486],[-73.31738,-1.82619],[-73.30373,-1.81811],[-73.30884,-1.78793],[-73.29459,-1.77654],[-73.24986,-1.78039],[-73.24417,-1.78842],[-73.25679,-1.80252],[-73.23435,-1.80172],[-73.23207,-1.76106],[-73.22087,-1.74867],[-73.20379,-1.76392],[-73.18603,-1.80792],[-73.14729,-1.80269],[-73.15028,-1.86136],[-73.13326,-1.87241],[-73.11277,-1.87281],[-73.10745,-1.88606],[-73.11842,-1.91208],[-73.11231,-1.94617],[-73.12337,-1.98122],[-73.12032,-2.01316],[-73.09373,-2.03546],[-73.10675,-2.07495],[-73.10063,-2.08258],[-73.07368,-2.08163],[-73.06979,-2.08788],[-73.07673,-2.10819],[-73.11419,-2.13087],[-73.13004,-2.1816],[-73.17046,-2.19161],[-73.16767,-2.22902],[-73.15163,-2.26016],[-73.11768,-2.28701],[-73.12293,-2.32394],[-73.09997,-2.32457],[-73.08215,-2.31115],[-73.0683,-2.31514],[-73.07003,-2.34525],[-73.06236,-2.35897],[-73.0523,-2.36086],[-73.04423,-2.35279],[-73.04241,-2.32326],[-73.0338,-2.31465],[-73.02403,-2.31881],[-73.00488,-2.35761],[-72.99412,-2.35722],[-72.97846,-2.33865],[-72.9645,-2.34115],[-72.95173,-2.40096],[-72.92263,-2.4195],[-72.93742,-2.44441],[-72.9338,-2.45487],[-72.89513,-2.43367],[-72.8518,-2.43578],[-72.80281,-2.41071],[-72.77645,-2.38437],[-72.76009,-2.39585],[-72.75529,-2.41967],[-72.74579,-2.42677],[-72.73378,-2.41962],[-72.72693,-2.39091],[-72.70775,-2.38907],[-72.68914,-2.41383],[-72.69103,-2.44848],[-72.68129,-2.45166],[-72.66709,-2.43995],[-72.65822,-2.40724],[-72.63732,-2.38879],[-72.6408,-2.36326],[-72.6197,-2.35628],[-72.59552,-2.36655],[-72.56879,-2.39758],[-72.53526,-2.40543],[-72.51699,-2.42637],[-72.49797,-2.41826],[-72.47159,-2.42003],[-72.42815,-2.43743],[-72.40866,-2.41449],[-72.37942,-2.45498],[-72.38088,-2.47821],[-72.37177,-2.48919],[-72.29753,-2.4736],[-72.28628,-2.45418],[-72.25955,-2.45852],[-72.26216,-2.4355],[-72.24854,-2.43066],[-72.22036,-2.44835],[-72.18446,-2.4297],[-72.16947,-2.4319],[-72.16635,-2.46441],[-72.14982,-2.47002],[-72.13714,-2.44942],[-72.14528,-2.40625],[-72.09783,-2.37027],[-72.08206,-2.36796],[-72.04874,-2.33494],[-72.0372,-2.338],[-72.01011,-2.36895],[-71.94978,-2.35636],[-71.93998,-2.36232],[-71.93482,-2.37967],[-71.92244,-2.37815],[-71.91922,-2.36542],[-71.93832,-2.32835],[-71.93491,-2.31235],[-71.88476,-2.31159],[-71.83277,-2.19042],[-71.82284,-2.18814],[-71.80975,-2.20418],[-71.79913,-2.20437],[-71.76693,-2.1585],[-71.73248,-2.14014],[-71.71892,-2.15994],[-71.73122,-2.20145],[-71.723,-2.22655],[-71.7085,-2.22733],[-71.64768,-2.20006],[-71.58716,-2.23828],[-71.51889,-2.24897],[-71.51983,-2.30208],[-71.50046,-2.35221],[-71.48751,-2.35338],[-71.47938,-2.34006],[-71.49615,-2.29334],[-71.49481,-2.278],[-71.47732,-2.26936],[-71.45825,-2.27415],[-71.42892,-2.32067],[-71.3964,-2.34711],[-71.40656,-2.38825],[-71.39472,-2.40703],[-71.35785,-2.38264],[-71.32074,-2.37777],[-71.30709,-2.34742],[-71.27219,-2.33345],[-71.26634,-2.33648],[-71.26811,-2.35777],[-71.24865,-2.33902],[-71.23477,-2.33675],[-71.20018,-2.37456],[-71.17578,-2.37903],[-71.16684,-2.33777],[-71.15358,-2.33361],[-71.13788,-2.34335],[-71.13032,-2.33749],[-71.14338,-2.30159],[-71.13679,-2.28717],[-71.11993,-2.2805],[-71.05333,-2.27062],[-71.03035,-2.27705],[-71.01691,-2.29553],[-70.99614,-2.30349],[-70.99042,-2.28709],[-71.01844,-2.23744],[-71.0174,-2.22183],[-71.00462,-2.20881],[-70.9727,-2.21422],[-70.95572,-2.24308],[-70.93735,-2.25448],[-70.92066,-2.25014],[-70.90281,-2.22707],[-70.87939,-2.22089],[-70.85496,-2.23701],[-70.83595,-2.29081],[-70.77776,-2.29299],[-70.75124,-2.32827],[-70.69389,-2.33926],[-70.66592,-2.35377],[-70.66273,-2.36377],[-70.67727,-2.38605],[-70.67844,-2.40214],[-70.66488,-2.41041],[-70.62785,-2.39503],[-70.6283,-2.42162],[-70.64137,-2.45551],[-70.62723,-2.47638],[-70.5993,-2.48444],[-70.55435,-2.46775],[-70.55759,-2.44308],[-70.59642,-2.42591],[-70.58992,-2.41789],[-70.55871,-2.41998],[-70.51055,-2.47176],[-70.46928,-2.45588],[-70.45148,-2.48157],[-70.44629,-2.51079],[-70.42862,-2.52487],[-70.40775,-2.52329],[-70.36201,-2.48987],[-70.32404,-2.50328],[-70.30098,-2.50258],[-70.29517,-2.51538],[-70.3018,-2.52822],[-70.35211,-2.54354],[-70.35651,-2.56421],[-70.33458,-2.57789],[-70.31787,-2.57854],[-70.26787,-2.5436],[-70.24531,-2.55042],[-70.23101,-2.57122],[-70.21683,-2.64852],[-70.1963,-2.65898],[-70.18216,-2.63461],[-70.16616,-2.63639],[-70.15421,-2.65688],[-70.16206,-2.68785],[-70.14055,-2.70054],[-70.11843,-2.69863],[-70.10103,-2.65386],[-70.08494,-2.64903],[-70.06604,-2.6841],[-70.07125,-2.72432],[-70.06006,-2.75892],[-70.07361,-2.79066],[-70.71347,-3.79423],[-70.68519,-3.79334],[-70.65726,-3.82408]]]}},{"type":"Feature","properties":{"NIVEL":2,"FECHA":"2026-08-18","DESCRIPCIO":null,"RECOMENDAC":null,"RESPONS":"GLIMAY","nivel":2,"nivel_nombre":"AMARILLO","fecha":"2026-08-18","aviso_num":"230"},"geometry":{"type":"Polygon","coordinates":[[[-72.38704,-4.83186],[-72.43639,-4.78252],[-72.46018,-4.68734],[-72.47208,-4.50888],[-72.51967,-4.4256],[-72.59105,-4.36611],[-72.67433,-4.33042],[-73.17402,-4.28283],[-73.32868,-4.24714],[-73.55473,-4.17575],[-73.6737,-4.09247],[-73.74509,-3.9854],[-73.79268,-3.85453],[-73.79268,-3.72366],[-73.74509,-3.61658],[-73.63801,-3.47381],[-73.60232,-3.29535],[-73.61422,-3.11689],[-73.63801,-2.92654],[-73.6856,-2.83136],[-73.74509,-2.73618],[-73.81647,-2.6529],[-73.93545,-2.55772],[-73.99493,-2.48634],[-74.05442,-2.26029],[-74.06632,-2.15321],[-74.04252,-1.84388],[-73.99493,-1.59404],[-73.93545,-1.46317],[-73.81647,-1.37989],[-73.76888,-1.3204],[-73.68322,-1.23836],[-73.64701,-1.26719],[-73.62109,-1.2596],[-73.61297,-1.31549],[-73.60291,-1.32529],[-73.57162,-1.31979],[-73.57916,-1.35958],[-73.56148,-1.37718],[-73.55009,-1.41125],[-73.559,-1.41907],[-73.57699,-1.41322],[-73.58529,-1.42068],[-73.61878,-1.42265],[-73.66556,-1.4427],[-73.77915,-1.52956],[-73.87938,-1.71665],[-73.90611,-1.84361],[-73.91947,-1.99729],[-73.90611,-2.09084],[-73.86601,-2.23116],[-73.83929,-2.30466],[-73.81256,-2.35143],[-73.73906,-2.40489],[-73.66556,-2.41825],[-73.59874,-2.45166],[-73.55865,-2.49844],[-73.51855,-2.62539],[-73.51187,-2.69221],[-73.45842,-2.85258],[-73.43837,-2.90603],[-73.38492,-2.97953],[-73.23791,-3.07976],[-73.131,-3.12654],[-72.78355,-3.2134],[-72.57641,-3.23345],[-72.28908,-3.23345],[-72.14208,-3.22008],[-72.02181,-3.18667],[-71.86812,-3.18667],[-71.74117,-3.20004],[-71.67435,-3.24013],[-71.60753,-3.30026],[-71.52066,-3.53413],[-71.47389,-3.621],[-71.33357,-3.76132],[-71.28012,-3.80141],[-70.91929,-3.88159],[-70.8057,-3.88159],[-70.65726,-3.82408],[-70.61902,-3.84006],[-70.58087,-3.82681],[-70.54092,-3.86304],[-70.49641,-3.87581],[-70.44981,-3.85668],[-70.41376,-3.82203],[-70.38943,-3.8293],[-70.35406,-3.79929],[-70.32403,-3.80622],[-70.27915,-3.83372],[-70.25352,-3.8845],[-70.1867,-3.91835],[-70.17454,-3.96956],[-70.14957,-4.00675],[-70.1144,-4.04955],[-70.0631,-4.08089],[-70.03408,-4.13441],[-69.95049,-4.21949],[-69.94959,-4.27938],[-69.95623,-4.29772],[-69.98036,-4.34042],[-70.01514,-4.35052],[-70.02931,-4.37238],[-70.04166,-4.37497],[-70.05102,-4.36492],[-70.04026,-4.34697],[-70.04296,-4.33219],[-70.07874,-4.3147],[-70.07324,-4.30392],[-70.04533,-4.30359],[-70.04116,-4.29336],[-70.09604,-4.28777],[-70.10936,-4.25615],[-70.12099,-4.28542],[-70.14514,-4.27275],[-70.15639,-4.27474],[-70.17063,-4.30523],[-70.15207,-4.32129],[-70.15261,-4.33003],[-70.1748,-4.33488],[-70.18084,-4.3554],[-70.19365,-4.36087],[-70.20026,-4.35686],[-70.21379,-4.29845],[-70.22542,-4.31704],[-70.25996,-4.3086],[-70.2681,-4.2958],[-70.24582,-4.28462],[-70.2522,-4.2712],[-70.29092,-4.28723],[-70.28434,-4.27251],[-70.30948,-4.25118],[-70.2792,-4.23271],[-70.28565,-4.1704],[-70.31971,-4.14339],[-70.32833,-4.14527],[-70.32765,-4.16835],[-70.33853,-4.17915],[-70.37681,-4.13501],[-70.43282,-4.13129],[-70.44237,-4.13944],[-70.4349,-4.16273],[-70.45424,-4.15892],[-70.46491,-4.17587],[-70.48523,-4.16079],[-70.49269,-4.19158],[-70.50557,-4.19913],[-70.51411,-4.19084],[-70.50364,-4.16877],[-70.50825,-4.15119],[-70.52342,-4.13638],[-70.5356,-4.14541],[-70.55111,-4.13632],[-70.54101,-4.1548],[-70.55774,-4.16535],[-70.55542,-4.2016],[-70.57189,-4.21125],[-70.56446,-4.17412],[-70.6221,-4.19213],[-70.6352,-4.17349],[-70.61738,-4.12918],[-70.64462,-4.12695],[-70.65018,-4.16413],[-70.66062,-4.14476],[-70.66993,-4.14438],[-70.66678,-4.17022],[-70.68228,-4.20693],[-70.69037,-4.18819],[-70.72395,-4.18599],[-70.75775,-4.15852],[-70.78674,-4.18542],[-70.80099,-4.18182],[-70.82564,-4.21186],[-70.84324,-4.21714],[-70.84458,-4.23082],[-70.82606,-4.21933],[-70.81678,-4.22944],[-70.83438,-4.2541],[-70.85098,-4.24696],[-70.86389,-4.25065],[-70.84625,-4.27938],[-70.87831,-4.29339],[-70.87638,-4.32165],[-70.90005,-4.32588],[-70.9141,-4.35906],[-70.93352,-4.35606],[-70.93673,-4.38266],[-70.96903,-4.37759],[-70.97537,-4.35677],[-70.99449,-4.34476],[-70.98795,-4.37655],[-70.99651,-4.3858],[-71.01789,-4.37999],[-71.04,-4.39919],[-71.04349,-4.37282],[-71.05068,-4.36748],[-71.05695,-4.38577],[-71.07842,-4.39435],[-71.07745,-4.3742],[-71.09103,-4.3725],[-71.10811,-4.37869],[-71.10624,-4.39937],[-71.11504,-4.40814],[-71.12936,-4.389],[-71.14764,-4.38078],[-71.14978,-4.40225],[-71.15609,-4.40228],[-71.15784,-4.3912],[-71.18189,-4.3939],[-71.19369,-4.42307],[-71.20606,-4.39963],[-71.19797,-4.3864],[-71.2014,-4.37824],[-71.21539,-4.37845],[-71.22241,-4.40617],[-71.23026,-4.38307],[-71.24592,-4.39049],[-71.26921,-4.38376],[-71.27956,-4.39692],[-71.26067,-4.39423],[-71.26779,-4.409],[-71.26086,-4.42511],[-71.2748,-4.43849],[-71.28849,-4.44015],[-71.30474,-4.41714],[-71.31911,-4.41781],[-71.30086,-4.44444],[-71.30821,-4.46226],[-71.31347,-4.44272],[-71.34026,-4.44022],[-71.3459,-4.42554],[-71.36058,-4.43363],[-71.37855,-4.42419],[-71.39061,-4.42723],[-71.41638,-4.46228],[-71.43361,-4.47596],[-71.43787,-4.47085],[-71.42604,-4.46621],[-71.43094,-4.44668],[-71.41225,-4.43539],[-71.43629,-4.42769],[-71.43817,-4.44905],[-71.45119,-4.44551],[-71.45086,-4.43171],[-71.46152,-4.43924],[-71.47768,-4.43355],[-71.48261,-4.4566],[-71.50687,-4.43735],[-71.50658,-4.45766],[-71.4928,-4.47436],[-71.49397,-4.4852],[-71.51619,-4.47161],[-71.51741,-4.46122],[-71.53728,-4.46308],[-71.53624,-4.48169],[-71.55837,-4.4776],[-71.55071,-4.48556],[-71.56693,-4.50576],[-71.60282,-4.52845],[-71.61887,-4.527],[-71.63346,-4.51233],[-71.61251,-4.48288],[-71.61617,-4.46698],[-71.62721,-4.47603],[-71.62472,-4.48888],[-71.64791,-4.50273],[-71.64659,-4.48057],[-71.65429,-4.47114],[-71.66053,-4.47472],[-71.65404,-4.48758],[-71.65793,-4.50094],[-71.67197,-4.50583],[-71.68822,-4.49696],[-71.7068,-4.50989],[-71.73686,-4.49556],[-71.75073,-4.46742],[-71.74896,-4.49132],[-71.76765,-4.5037],[-71.77135,-4.4886],[-71.78533,-4.48232],[-71.78337,-4.4966],[-71.79242,-4.49516],[-71.7938,-4.48365],[-71.81025,-4.4929],[-71.80654,-4.50439],[-71.83212,-4.49584],[-71.83016,-4.51443],[-71.83914,-4.50453],[-71.85656,-4.51137],[-71.865,-4.52645],[-71.87935,-4.51526],[-71.88535,-4.52193],[-71.90549,-4.51475],[-71.90781,-4.51978],[-71.89359,-4.52251],[-71.88459,-4.53709],[-71.91818,-4.52885],[-71.92678,-4.54726],[-71.91911,-4.56345],[-71.93048,-4.56173],[-71.92719,-4.57006],[-71.93436,-4.5782],[-71.95,-4.58029],[-71.94261,-4.59472],[-71.9504,-4.59913],[-71.94653,-4.60783],[-71.97682,-4.61141],[-71.98386,-4.60345],[-71.99373,-4.60902],[-71.9812,-4.62601],[-72.00219,-4.62905],[-72.00599,-4.64528],[-72.01555,-4.63108],[-72.04244,-4.6229],[-72.03794,-4.64282],[-72.04591,-4.64443],[-72.04642,-4.65422],[-72.0581,-4.64936],[-72.06819,-4.65923],[-72.05967,-4.67335],[-72.06499,-4.67614],[-72.0708,-4.66288],[-72.08028,-4.66867],[-72.07742,-4.68117],[-72.08937,-4.68109],[-72.10131,-4.70551],[-72.12467,-4.71576],[-72.12511,-4.7336],[-72.13308,-4.7333],[-72.12726,-4.72251],[-72.14036,-4.71151],[-72.14673,-4.72391],[-72.16151,-4.7288],[-72.15931,-4.73526],[-72.1719,-4.73389],[-72.19323,-4.74582],[-72.18736,-4.75049],[-72.19236,-4.76295],[-72.20928,-4.74746],[-72.22192,-4.75513],[-72.21251,-4.7594],[-72.21508,-4.76703],[-72.24351,-4.78136],[-72.25572,-4.76546],[-72.26143,-4.78075],[-72.25404,-4.79125],[-72.26542,-4.78617],[-72.27115,-4.79835],[-72.28386,-4.79556],[-72.27658,-4.78886],[-72.27805,-4.77103],[-72.28327,-4.78342],[-72.30142,-4.77538],[-72.3065,-4.79042],[-72.31319,-4.78567],[-72.3099,-4.77485],[-72.32326,-4.77836],[-72.32902,-4.78422],[-72.31971,-4.78859],[-72.32332,-4.81242],[-72.32526,-4.80174],[-72.33865,-4.80446],[-72.34,-4.7933],[-72.34484,-4.80671],[-72.37138,-4.80554],[-72.35941,-4.82417],[-72.37497,-4.82194],[-72.38222,-4.82627],[-72.37233,-4.83241],[-72.38704,-4.83186]]]}},{"type":"Feature","properties":{"NIVEL":3,"FECHA":"2026-08-18","DESCRIPCIO":null,"RECOMENDAC":null,"RESPONS":"GLIMAY","nivel":3,"nivel_nombre":"NARANJA","fecha":"2026-08-18","aviso_num":"230"},"geometry":{"type":"Polygon","coordinates":[[[-74.5779,-10.30525],[-74.56838,-10.39091],[-74.59694,-10.4956],[-74.70163,-10.53367],[-74.8444,-10.51464],[-74.93958,-10.38139],[-75.04427,-10.40042],[-75.12993,-10.38139],[-75.47258,-10.24814],[-75.56776,-10.14344],[-75.58679,-10.04826],[-75.59631,-9.95309],[-75.52017,-9.89598],[-75.45354,-9.81032],[-75.50113,-9.61044],[-75.4821,-9.51527],[-75.43451,-9.41057],[-75.44402,-9.19166],[-75.42499,-9.07744],[-75.33933,-8.87757],[-75.32981,-8.75384],[-75.35836,-8.63011],[-75.39643,-8.573],[-75.42499,-8.50637],[-75.52017,-8.38264],[-75.5392,-8.18277],[-75.52017,-8.10662],[-75.43451,-7.9353],[-75.42499,-7.82109],[-75.43451,-7.72591],[-75.43451,-7.54507],[-75.40595,-7.44989],[-75.36788,-7.39279],[-75.32029,-7.35471],[-75.14217,-7.27041],[-74.89199,-7.32616],[-74.8444,-7.36423],[-74.77777,-7.39279],[-74.71115,-7.44038],[-74.60645,-7.53555],[-74.54935,-7.64025],[-74.52079,-7.73543],[-74.52079,-7.78302],[-74.48272,-7.85916],[-74.4732,-7.99241],[-74.42561,-8.08759],[-74.25429,-8.22084],[-74.19719,-8.32553],[-74.19719,-8.43023],[-74.21622,-8.54445],[-74.24478,-8.62059],[-74.30188,-8.64914],[-74.34947,-8.7348],[-74.37803,-8.88709],[-74.4161,-8.99178],[-74.48272,-9.09648],[-74.50176,-9.23925],[-74.4732,-9.38202],[-74.36851,-9.59141],[-74.38754,-9.83887],[-74.44465,-9.97212],[-74.52079,-10.01971],[-74.5779,-10.09585],[-74.60645,-10.21959],[-74.5779,-10.30525]]]}},{"type":"Feature","properties":{"NIVEL":1,"FECHA":"2026-08-18","DESCRIPCIO":null,"RECOMENDAC":null,"RESPONS":"GLIMAY","nivel":1,"nivel_nombre":"VERDE","fecha":"2026-08-18","aviso_num":"230"},"geometry":{"type":"Polygon","coordinates":[[[-75.12946,-0.06632],[-75.06546,-0.0842],[-75.00498,-0.14569],[-74.96089,-0.15353],[-74.95776,-0.18002],[-74.94671,-0.19384],[-74.92655,-0.20366],[-74.91635,-0.22021],[-74.90629,-0.2153],[-74.90539,-0.20246],[-74.89877,-0.20355],[-74.88038,-0.2369],[-74.83618,-0.23358],[-74.81986,-0.20619],[-74.79708,-0.18902],[-74.77055,-0.20136],[-74.73612,-0.25033],[-74.71957,-0.29006],[-74.72061,-0.33492],[-74.71477,-0.34356],[-74.69874,-0.35024],[-74.67768,-0.32927],[-74.67001,-0.33042],[-74.67196,-0.35926],[-74.6494,-0.37433],[-74.59743,-0.35139],[-74.60324,-0.37882],[-74.56432,-0.39228],[-74.56152,-0.41063],[-74.54127,-0.42081],[-74.51604,-0.46675],[-74.48706,-0.46162],[-74.48566,-0.48834],[-74.4645,-0.4741],[-74.45314,-0.48794],[-74.41105,-0.49892],[-74.41207,-0.55346],[-74.40286,-0.55809],[-74.38866,-0.54004],[-74.3826,-0.54198],[-74.37582,-0.59071],[-74.34903,-0.62382],[-74.36092,-0.65289],[-74.32566,-0.68293],[-74.33347,-0.70544],[-74.36365,-0.71699],[-74.36068,-0.73479],[-74.33238,-0.75903],[-74.30065,-0.75627],[-74.30475,-0.79303],[-74.2916,-0.7923],[-74.27816,-0.77499],[-74.27143,-0.77786],[-74.26835,-0.78728],[-74.28044,-0.81324],[-74.27302,-0.82484],[-74.23342,-0.8184],[-74.25624,-0.84701],[-74.25726,-0.87929],[-74.29356,-0.86517],[-74.30805,-0.87965],[-74.30097,-0.89538],[-74.27551,-0.89354],[-74.26639,-0.89986],[-74.2512,-0.94408],[-74.25944,-0.96711],[-74.25531,-0.98236],[-74.20671,-1.00942],[-74.15645,-1.00633],[-74.08235,-1.04801],[-74.05201,-1.05295],[-74.03429,-1.04482],[-74.02635,-1.01362],[-74.01086,-1.00488],[-74.00328,-1.01824],[-74.01075,-1.06292],[-73.99906,-1.09281],[-73.98173,-1.10403],[-73.95273,-1.08275],[-73.94495,-1.08582],[-73.93868,-1.09791],[-73.95455,-1.12332],[-73.94525,-1.13121],[-73.92726,-1.12059],[-73.90624,-1.12462],[-73.8948,-1.14475],[-73.8954,-1.16858],[-73.87141,-1.1973],[-73.86078,-1.22937],[-73.82355,-1.23636],[-73.80961,-1.24912],[-73.78814,-1.23968],[-73.78391,-1.25761],[-73.77432,-1.25909],[-73.754,-1.2384],[-73.75368,-1.20599],[-73.74512,-1.19966],[-73.73699,-1.24218],[-73.71814,-1.25113],[-73.69756,-1.24909],[-73.81646,-1.37989],[-73.93544,-1.46317],[-73.99492,-1.59404],[-74.04251,-1.84388],[-74.06631,-2.15321],[-74.05441,-2.26029],[-73.99492,-2.48634],[-73.93544,-2.55772],[-73.81646,-2.6529],[-73.74508,-2.73618],[-73.68559,-2.83136],[-73.638,-2.92654],[-73.61421,-3.11689],[-73.60231,-3.29535],[-73.638,-3.47381],[-73.74508,-3.61658],[-73.79267,-3.72366],[-73.79267,-3.85453],[-73.74508,-3.9854],[-73.6737,-4.09247],[-73.55472,-4.17575],[-73.32867,-4.24714],[-73.17401,-4.28283],[-72.67432,-4.33042],[-72.59104,-4.36611],[-72.51966,-4.4256],[-72.47207,-4.50888],[-72.46017,-4.68734],[-72.43638,-4.78252],[-72.38854,-4.83606],[-72.37533,-4.83757],[-72.38371,-4.84963],[-72.38024,-4.85851],[-72.38966,-4.86183],[-72.38201,-4.87296],[-72.39915,-4.87382],[-72.4061,-4.88866],[-72.41239,-4.87636],[-72.42185,-4.87599],[-72.41465,-4.8997],[-72.42832,-4.90153],[-72.43033,-4.91046],[-72.44295,-4.8982],[-72.45466,-4.90079],[-72.4545,-4.89149],[-72.47112,-4.89186],[-72.46918,-4.90529],[-72.46321,-4.90267],[-72.45134,-4.91569],[-72.45841,-4.92418],[-72.47372,-4.92455],[-72.48202,-4.9508],[-72.48794,-4.9503],[-72.48772,-4.93339],[-72.49677,-4.94999],[-72.50673,-4.94514],[-72.50493,-4.93581],[-72.52115,-4.93287],[-72.52216,-4.96002],[-72.52724,-4.95341],[-72.53879,-4.9641],[-72.53688,-4.95365],[-72.55193,-4.95556],[-72.56799,-4.98372],[-72.58298,-4.98152],[-72.58466,-4.99796],[-72.59799,-4.98386],[-72.59782,-4.99485],[-72.60982,-4.99601],[-72.5985,-4.99999],[-72.61222,-5.01656],[-72.6062,-5.03097],[-72.61711,-5.03596],[-72.62119,-5.0518],[-72.6288,-5.03835],[-72.6284,-5.05088],[-72.64141,-5.06299],[-72.642,-5.04497],[-72.65736,-5.06363],[-72.65748,-5.05453],[-72.66598,-5.05912],[-72.67082,-5.04726],[-72.69244,-5.0609],[-72.70901,-5.04837],[-72.71518,-5.05746],[-72.72764,-5.05199],[-72.72621,-5.06167],[-72.73759,-5.06123],[-72.72986,-5.0744],[-72.73808,-5.07553],[-72.73985,-5.08859],[-72.75636,-5.07662],[-72.76801,-5.09922],[-72.78418,-5.09331],[-72.77905,-5.10201],[-72.78594,-5.11344],[-72.79052,-5.10584],[-72.80102,-5.11137],[-72.81724,-5.10223],[-72.81535,-5.13914],[-72.8223,-5.13168],[-72.82347,-5.14404],[-72.83355,-5.13849],[-72.84951,-5.14595],[-72.85084,-5.13601],[-72.88724,-5.16307],[-72.8842,-5.17525],[-72.87718,-5.17418],[-72.87998,-5.18689],[-72.87577,-5.17668],[-72.86902,-5.17906],[-72.87672,-5.18841],[-72.86935,-5.20086],[-72.87573,-5.20367],[-72.86489,-5.20768],[-72.86389,-5.234],[-72.87326,-5.24889],[-72.86223,-5.2475],[-72.87107,-5.26346],[-72.86051,-5.27117],[-72.86788,-5.27445],[-72.86777,-5.29073],[-72.87645,-5.28907],[-72.87044,-5.29378],[-72.87449,-5.30385],[-72.88863,-5.30691],[-72.88252,-5.31062],[-72.89184,-5.31772],[-72.88814,-5.32359],[-72.90415,-5.33381],[-72.90352,-5.34],[-72.89608,-5.33246],[-72.89028,-5.35084],[-72.90394,-5.35293],[-72.90724,-5.37099],[-72.92027,-5.37595],[-72.92413,-5.40761],[-72.93865,-5.41852],[-72.9321,-5.42687],[-72.95281,-5.44465],[-72.94591,-5.45369],[-72.95888,-5.46613],[-72.95842,-5.4809],[-72.94903,-5.47988],[-72.96159,-5.4953],[-72.96058,-5.52198],[-72.9544,-5.52359],[-72.95285,-5.54487],[-72.93856,-5.54128],[-72.9573,-5.55819],[-72.95014,-5.56358],[-72.96129,-5.5731],[-72.95297,-5.57747],[-72.96075,-5.57989],[-72.95164,-5.58267],[-72.97367,-5.61291],[-72.95911,-5.65689],[-72.98556,-5.66128],[-72.98955,-5.67451],[-72.97993,-5.6785],[-72.98421,-5.69351],[-72.99295,-5.69634],[-72.99066,-5.70621],[-72.99841,-5.70057],[-73.00398,-5.70847],[-72.9951,-5.71583],[-73.00317,-5.7202],[-73.00046,-5.72852],[-73.0079,-5.72434],[-73.00523,-5.73232],[-73.02752,-5.73341],[-73.01918,-5.74052],[-73.04639,-5.75935],[-73.04271,-5.77554],[-73.05464,-5.77564],[-73.04903,-5.78267],[-73.05302,-5.79517],[-73.06228,-5.79362],[-73.06725,-5.80217],[-73.07085,-5.79657],[-73.07299,-5.80515],[-73.07978,-5.8012],[-73.08478,-5.81145],[-73.07547,-5.8098],[-73.07646,-5.81644],[-73.09539,-5.82118],[-73.08766,-5.82024],[-73.08908,-5.83023],[-73.1013,-5.82574],[-73.11421,-5.83318],[-73.11701,-5.86433],[-73.12235,-5.85783],[-73.1282,-5.87057],[-73.13574,-5.86343],[-73.13484,-5.86964],[-73.15206,-5.86796],[-73.16115,-5.88534],[-73.15611,-5.88085],[-73.1536,-5.88686],[-73.16732,-5.89712],[-73.16122,-5.90786],[-73.16765,-5.90765],[-73.1721,-5.93011],[-73.17959,-5.92679],[-73.18694,-5.94472],[-73.17733,-5.97085],[-73.19416,-5.99056],[-73.18679,-6.00513],[-73.20897,-6.00864],[-73.21838,-6.01988],[-73.20939,-6.0221],[-73.22233,-6.02206],[-73.21798,-6.02757],[-73.23628,-6.03569],[-73.2382,-6.04399],[-73.22753,-6.04358],[-73.23537,-6.05133],[-73.22878,-6.0536],[-73.23449,-6.06349],[-73.22746,-6.0767],[-73.23956,-6.07739],[-73.23111,-6.09134],[-73.23764,-6.09056],[-73.23572,-6.10075],[-73.24818,-6.10802],[-73.24663,-6.14962],[-73.21626,-6.18318],[-73.21559,-6.19247],[-73.22422,-6.19437],[-73.2112,-6.20171],[-73.22028,-6.21958],[-73.21282,-6.22609],[-73.20859,-6.21954],[-73.18666,-6.26207],[-73.1806,-6.25729],[-73.1607,-6.27667],[-73.15791,-6.32255],[-73.15252,-6.32934],[-73.14727,-6.32307],[-73.15054,-6.3384],[-73.143,-6.33484],[-73.14089,-6.35874],[-73.13204,-6.36265],[-73.13557,-6.38026],[-73.12986,-6.37505],[-73.1279,-6.3932],[-73.11857,-6.38866],[-73.10472,-6.40666],[-73.10577,-6.4194],[-73.12118,-6.43174],[-73.11116,-6.45357],[-73.11978,-6.46795],[-73.11855,-6.462],[-73.12973,-6.46358],[-73.1279,-6.47693],[-73.14252,-6.49077],[-73.13194,-6.49675],[-73.13522,-6.51046],[-73.14181,-6.51468],[-73.14186,-6.50532],[-73.15134,-6.52668],[-73.16338,-6.53133],[-73.17032,-6.51794],[-73.17303,-6.52778],[-73.18796,-6.52302],[-73.17573,-6.53457],[-73.18725,-6.54074],[-73.18167,-6.54578],[-73.19952,-6.54671],[-73.19334,-6.55424],[-73.20296,-6.5532],[-73.1961,-6.56287],[-73.20668,-6.57711],[-73.22178,-6.56443],[-73.23005,-6.57345],[-73.2274,-6.58884],[-73.24175,-6.58375],[-73.23934,-6.59276],[-73.25071,-6.581],[-73.26829,-6.59346],[-73.27537,-6.58492],[-73.29237,-6.58768],[-73.29695,-6.59715],[-73.31591,-6.59085],[-73.32956,-6.60041],[-73.33326,-6.59354],[-73.3528,-6.59327],[-73.3824,-6.6216],[-73.37991,-6.63576],[-73.41502,-6.64293],[-73.42484,-6.65502],[-73.44029,-6.65191],[-73.46404,-6.66906],[-73.47213,-6.66434],[-73.48531,-6.67452],[-73.52192,-6.67614],[-73.54034,-6.68612],[-73.56178,-6.72203],[-73.58712,-6.72362],[-73.62415,-6.74516],[-73.62439,-6.75283],[-73.63825,-6.75415],[-73.66636,-6.80555],[-73.68197,-6.81426],[-73.69594,-6.83997],[-73.71045,-6.84019],[-73.72226,-6.8846],[-73.73929,-6.89983],[-73.73147,-6.90461],[-73.74957,-6.93947],[-73.73198,-6.96416],[-73.74937,-6.97773],[-73.75117,-7.00746],[-73.74406,-7.01499],[-73.75098,-7.03437],[-73.74519,-7.04676],[-73.77516,-7.09029],[-73.77207,-7.10365],[-73.78794,-7.1162],[-73.78272,-7.13002],[-73.77073,-7.13062],[-73.77742,-7.14449],[-73.75713,-7.15495],[-73.75793,-7.16915],[-73.7442,-7.17413],[-73.74413,-7.1957],[-73.73055,-7.21949],[-73.70471,-7.22756],[-73.70917,-7.23705],[-73.69721,-7.24631],[-73.70409,-7.27371],[-73.68297,-7.29907],[-73.68849,-7.32246],[-73.69903,-7.32271],[-73.7151,-7.34438],[-73.74273,-7.35379],[-73.741,-7.34039],[-73.74972,-7.3369],[-73.76945,-7.33875],[-73.77712,-7.34774],[-73.80919,-7.33862],[-73.81807,-7.35191],[-73.84176,-7.35431],[-73.85164,-7.38925],[-73.87542,-7.37892],[-73.89196,-7.3857],[-73.89479,-7.37342],[-73.90985,-7.36176],[-73.92306,-7.37726],[-73.93513,-7.35744],[-73.94381,-7.36995],[-73.92686,-7.40818],[-73.90984,-7.41988],[-73.91319,-7.42813],[-73.89785,-7.47299],[-73.91177,-7.47995],[-73.90643,-7.50386],[-73.9298,-7.53343],[-73.97113,-7.53436],[-73.96721,-7.56081],[-73.9465,-7.56444],[-73.87712,-7.60355],[-73.88855,-7.64023],[-73.85463,-7.67624],[-73.82727,-7.66687],[-73.82415,-7.69223],[-73.81056,-7.70052],[-73.80791,-7.71576],[-73.78985,-7.71372],[-73.72951,-7.73329],[-73.72218,-7.74475],[-73.70289,-7.74239],[-73.69981,-7.76091],[-73.67714,-7.76668],[-73.66684,-7.78144],[-73.66732,-7.85964],[-73.69167,-7.87596],[-73.709,-7.8724],[-73.72354,-7.87881],[-73.74636,-7.87067],[-73.74964,-7.8606],[-73.75392,-7.86622],[-73.74332,-7.89233],[-73.76035,-7.90916],[-73.7284,-7.92967],[-73.73598,-7.94737],[-73.71857,-7.95263],[-73.71488,-7.96585],[-73.69373,-7.9547],[-73.68796,-7.97632],[-73.66919,-7.98387],[-73.66976,-7.99675],[-73.65612,-8.01315],[-73.62734,-8.00653],[-73.60494,-8.03425],[-73.61435,-8.05746],[-73.57256,-8.12868],[-73.58379,-8.16456],[-73.57688,-8.19697],[-73.55951,-8.22366],[-73.57548,-8.24086],[-73.55109,-8.2455],[-73.51436,-8.27079],[-73.52571,-8.29677],[-73.51453,-8.32113],[-73.53,-8.35022],[-73.51321,-8.3567],[-73.50796,-8.37298],[-73.47339,-8.38422],[-73.4294,-8.4254],[-73.40978,-8.43469],[-73.39481,-8.43129],[-73.37621,-8.47024],[-73.36425,-8.46376],[-73.3597,-8.47265],[-73.31992,-8.47404],[-73.31691,-8.52306],[-73.3233,-8.53304],[-73.32913,-8.61678],[-73.3246,-8.62096],[-73.30737,-8.61091],[-73.29997,-8.63191],[-73.28819,-8.63196],[-73.27297,-8.66433],[-73.25378,-8.67133],[-73.24357,-8.69022],[-73.19261,-8.68775],[-73.15533,-8.6983],[-73.12407,-8.73912],[-73.12864,-8.74961],[-73.12273,-8.76672],[-73.10274,-8.78441],[-73.10011,-8.8193],[-73.08389,-8.8364],[-73.0658,-8.84219],[-73.06813,-8.86032],[-73.05917,-8.86243],[-73.04698,-8.90577],[-73.02519,-8.91618],[-73.00737,-8.9113],[-72.98779,-8.91752],[-72.95607,-8.98101],[-72.929,-8.98494],[-72.95116,-9.0121],[-72.93463,-9.03299],[-72.93115,-9.05353],[-72.93792,-9.07024],[-72.92809,-9.09325],[-72.93457,-9.12035],[-72.94817,-9.13313],[-72.94629,-9.14302],[-72.97825,-9.16203],[-72.99177,-9.16059],[-72.99988,-9.17413],[-73.01422,-9.17786],[-73.00039,-9.19505],[-72.99144,-9.19545],[-72.99739,-9.22236],[-73.0118,-9.22043],[-73.02449,-9.23475],[-73.05069,-9.2271],[-73.06161,-9.23461],[-73.08245,-9.26928],[-73.09542,-9.27535],[-73.08953,-9.30812],[-73.1195,-9.31832],[-73.12189,-9.33056],[-73.13619,-9.33672],[-73.13646,-9.3541],[-73.15747,-9.36039],[-73.16476,-9.35501],[-73.17685,-9.36322],[-73.17502,-9.39904],[-73.19189,-9.40715],[-72.70439,-9.41224],[-72.69968,-9.43],[-72.68702,-9.42922],[-72.68324,-9.43936],[-72.67073,-9.43345],[-72.64311,-9.45205],[-72.63142,-9.4422],[-72.61591,-9.44236],[-72.60805,-9.45346],[-72.56487,-9.45587],[-72.56544,-9.46418],[-72.55592,-9.45995],[-72.54942,-9.47251],[-72.54511,-9.46586],[-72.53024,-9.46702],[-72.50763,-9.49128],[-72.48903,-9.48045],[-72.44271,-9.48977],[-72.42888,-9.47703],[-72.41456,-9.4857],[-72.39559,-9.47715],[-72.3745,-9.49235],[-72.34497,-9.4946],[-72.32859,-9.50692],[-72.33057,-9.52053],[-72.30668,-9.54379],[-72.28858,-9.53325],[-72.27099,-9.53995],[-72.2763,-9.60316],[-72.25652,-9.62076],[-72.24091,-9.61633],[-72.24841,-9.64176],[-72.23349,-9.65874],[-72.25105,-9.75086],[-72.23372,-9.75083],[-72.20296,-9.77882],[-72.17501,-9.77821],[-72.13945,-9.79742],[-72.15093,-9.8304],[-72.1424,-9.83526],[-72.13629,-9.87223],[-72.12403,-9.87487],[-72.1388,-9.90574],[-72.15342,-9.90896],[-72.16243,-9.93093],[-72.14392,-9.94223],[-72.15014,-9.95358],[-72.13808,-9.96634],[-72.14694,-9.97918],[-72.16526,-9.9855],[-72.1685,-9.99967],[-71.36314,-10.00014],[-71.3481,-9.98374],[-71.33816,-9.98519],[-71.33086,-9.96677],[-71.3005,-9.99164],[-71.28628,-9.9922],[-71.27915,-9.98193],[-71.24209,-9.97656],[-71.24131,-9.96293],[-71.20861,-9.96968],[-71.19748,-9.96505],[-71.19319,-9.94638],[-71.18067,-9.94176],[-71.17752,-9.92091],[-71.16686,-9.91812],[-71.15927,-9.89053],[-71.12783,-9.85702],[-71.09034,-9.85319],[-71.06501,-9.8277],[-71.04668,-9.82475],[-71.03932,-9.81584],[-70.98201,-9.81721],[-70.98052,-9.79504],[-70.95146,-9.74891],[-70.91192,-9.7413],[-70.8859,-9.71413],[-70.8566,-9.66481],[-70.82634,-9.65637],[-70.82424,-9.64324],[-70.78141,-9.63846],[-70.77424,-9.61427],[-70.75378,-9.60697],[-70.75585,-9.60069],[-70.74533,-9.60425],[-70.74763,-9.58404],[-70.73876,-9.56043],[-70.72641,-9.55901],[-70.71789,-9.57026],[-70.70285,-9.54715],[-70.66781,-9.53446],[-70.65421,-9.51942],[-70.6513,-9.52601],[-70.63947,-9.51237],[-70.64105,-9.50027],[-70.62387,-9.50163],[-70.62,-9.48019],[-70.61139,-9.47059],[-70.60408,-9.47613],[-70.59963,-9.45743],[-70.58444,-9.45909],[-70.5839,-9.4425],[-70.5589,-9.44039],[-70.55001,-9.43001],[-70.53778,-9.43566],[-70.53458,-9.42788],[-70.52662,-9.43836],[-70.51482,-9.42889],[-70.51411,-9.43831],[-70.49856,-9.42468],[-70.48438,-9.42515],[-70.48397,-9.44088],[-70.49965,-9.44775],[-70.49287,-9.46334],[-70.513,-9.4612],[-70.49379,-9.5046],[-70.50181,-9.4928],[-70.51001,-9.50547],[-70.51961,-9.50355],[-70.51907,-9.51552],[-70.53243,-9.51409],[-70.53022,-9.5377],[-70.55871,-9.53292],[-70.5521,-9.54071],[-70.55717,-9.55435],[-70.54439,-9.56076],[-70.54341,-9.57189],[-70.55413,-9.57318],[-70.56448,-9.56373],[-70.57564,-9.56726],[-70.57718,-9.54887],[-70.58826,-9.5604],[-70.57374,-9.57558],[-70.57613,-9.59833],[-70.58634,-9.60762],[-70.57279,-9.64084],[-70.55472,-9.66741],[-70.54112,-9.66818],[-70.53066,-9.67994],[-70.51332,-9.71498],[-70.52758,-9.75041],[-70.52472,-9.76584],[-70.54737,-9.78942],[-70.56587,-9.77779],[-70.579,-9.80298],[-70.59626,-9.80114],[-70.61148,-9.82054],[-70.61037,-9.85293],[-70.60157,-9.86608],[-70.60185,-11.00017],[-70.50976,-10.93422],[-70.50347,-10.94717],[-70.43983,-10.99676],[-70.42585,-11.0388],[-70.37387,-11.04777],[-70.36186,-11.06054],[-70.29652,-11.07059],[-70.22963,-11.04706],[-70.18715,-11.05401],[-70.16418,-11.04013],[-70.14636,-11.04187],[-70.14423,-11.03353],[-70.12862,-11.02967],[-70.10379,-11.00591],[-70.09551,-11.00789],[-70.08094,-10.98712],[-70.05268,-10.99388],[-70.02522,-10.98002],[-70.02495,-10.97097],[-70.01546,-10.97775],[-69.99563,-10.96271],[-69.98692,-10.96517],[-69.98249,-10.9507],[-69.9726,-10.95566],[-69.97012,-10.94313],[-69.96234,-10.9493],[-69.94605,-10.94085],[-69.94207,-10.92857],[-69.92139,-10.92222],[-69.90877,-10.93381],[-69.88931,-10.92056],[-69.86153,-10.93106],[-69.85082,-10.92683],[-69.84637,-10.93434],[-69.83924,-10.92458],[-69.81968,-10.93388],[-69.79916,-10.926],[-69.7824,-10.93409],[-69.75763,-10.92994],[-69.76118,-10.94003],[-69.74803,-10.93951],[-69.72573,-10.97497],[-69.71035,-10.96472],[-69.70495,-10.97591],[-69.68863,-10.96553],[-69.6854,-10.97245],[-69.64679,-10.95256],[-69.62169,-10.95739],[-69.60843,-10.95006],[-69.59857,-10.95758],[-69.59857,-10.94659],[-69.58682,-10.94178],[-69.55715,-10.94749],[-69.21643,-11.49982],[-69.09154,-11.68135],[-68.95636,-11.91631],[-68.64037,-12.50274],[-68.64852,-12.51941],[-68.64361,-12.53459],[-68.65283,-12.52422],[-68.66947,-12.52536],[-68.66218,-12.53246],[-68.66257,-12.55297],[-68.67957,-12.55726],[-68.6874,-12.5721],[-68.68196,-12.58661],[-68.68951,-12.57911],[-68.70193,-12.60412],[-68.71225,-12.60204],[-68.71985,-12.60991],[-68.72868,-12.63276],[-68.71913,-12.6509],[-68.7219,-12.66738],[-68.70764,-12.66122],[-68.71639,-12.67132],[-68.70801,-12.66703],[-68.70002,-12.68011],[-68.72258,-12.69212],[-68.71323,-12.69726],[-68.73046,-12.70799],[-68.716,-12.71339],[-68.75498,-12.74219],[-68.76855,-12.73208],[-68.77707,-12.75779],[-68.79205,-12.75657],[-68.79283,-12.78357],[-68.80611,-12.79076],[-68.79572,-12.80862],[-68.81244,-12.80483],[-68.82747,-12.8239],[-68.81722,-12.82847],[-68.8274,-12.82963],[-68.81904,-12.84166],[-68.82985,-12.84349],[-68.82289,-12.85784],[-68.83908,-12.86644],[-68.84663,-12.85891],[-68.85864,-12.87009],[-68.85218,-12.87484],[-68.8606,-12.88751],[-68.8542,-12.89552],[-68.86297,-12.91923],[-68.8494,-12.92663],[-68.86472,-12.92868],[-68.85422,-12.93132],[-68.86151,-12.93976],[-68.8483,-12.94777],[-68.86696,-12.94125],[-68.86269,-12.94846],[-68.87025,-12.95763],[-68.8639,-12.96107],[-68.96585,-12.95292],[-69.17286,-13.03858],[-69.25852,-13.05999],[-69.35846,-13.10282],[-69.54406,-13.10996],[-69.86529,-13.09569],[-69.98664,-13.07427],[-70.20793,-12.99575],[-70.53629,-12.9315],[-70.67192,-12.91723],[-70.85752,-12.85298],[-70.9289,-12.78874],[-71.00029,-12.66738],[-71.07881,-12.56031],[-71.16447,-12.46751],[-71.41431,-12.2248],[-71.56422,-12.11059],[-71.73554,-12.00351],[-71.88545,-11.94641],[-72.04963,-11.90358],[-72.27092,-11.86075],[-72.39941,-11.84647],[-72.90624,-11.91071],[-72.97048,-11.91071],[-73.07756,-11.87502],[-73.14894,-11.81078],[-73.34359,-11.45051],[-73.35247,-11.36173],[-73.37626,-11.25465],[-73.44765,-11.11188],[-73.48334,-10.56461],[-73.50713,-10.40994],[-73.56662,-10.30287],[-73.638,-10.19579],[-73.69749,-10.07682],[-73.72128,-9.98164],[-73.74508,-9.63662],[-73.74508,-9.44626],[-73.73318,-9.24401],[-73.75698,-8.88709],[-73.75698,-8.73242],[-73.80457,-8.55396],[-73.91164,-8.36361],[-73.98303,-8.26843],[-74.03061,-8.17325],[-74.1139,-8.11376],[-74.17338,-8.05428],[-74.24477,-8.00669],[-74.31615,-7.92341],[-74.38753,-7.81633],[-74.45892,-7.61408],[-74.45892,-7.5189],[-74.49461,-7.47131],[-74.5422,-7.36423],[-74.64927,-7.28095],[-74.79204,-7.19767],[-74.93481,-7.15008],[-75.15126,-7.14561],[-75.22264,-7.13371],[-75.37731,-7.02663],[-75.43679,-6.91956],[-75.4249,-6.7292],[-75.36541,-6.59833],[-75.30592,-6.49125],[-75.30592,-6.33659],[-75.31782,-6.17003],[-75.4011,-6.03916],[-75.48438,-5.99157],[-75.59282,-5.95542],[-75.65404,-5.91562],[-75.8325,-5.82282],[-75.89675,-5.8014],[-76.25367,-5.73002],[-76.41071,-5.66577],[-76.61058,-5.50873],[-76.66055,-5.45876],[-76.83901,-5.35882],[-77.01747,-5.30885],[-77.10313,-5.26602],[-77.2459,-5.21606],[-77.38153,-5.15895],[-77.48861,-5.0947],[-77.56713,-5.0376],[-77.7099,-4.88055],[-77.75273,-4.68781],[-77.75273,-4.51649],[-77.73845,-4.43797],[-77.6742,-4.28093],[-77.65993,-4.19527],[-77.66707,-4.00253],[-77.68848,-3.88832],[-77.73131,-3.7741],[-77.73845,-3.63847],[-77.83839,-3.44574],[-77.86694,-3.18875],[-77.88122,-3.13879],[-77.90263,-3.09596],[-77.93424,-3.07137],[-77.82815,-3.0082],[-77.83267,-2.998],[-76.61996,-2.58969],[-76.03152,-2.12709],[-75.57076,-1.54746],[-75.55166,-1.56277],[-75.54572,-1.55951],[-75.53845,-1.50199],[-75.52614,-1.48077],[-75.37479,-0.92974],[-75.36757,-0.92375],[-75.3579,-0.92901],[-75.28815,-0.98715],[-75.27662,-0.98566],[-75.26246,-0.9696],[-75.19954,-0.96957],[-75.19132,-0.97566],[-75.17642,-0.9702],[-75.217,-0.94149],[-75.22159,-0.92201],[-75.20749,-0.89955],[-75.20926,-0.86576],[-75.23657,-0.8341],[-75.22788,-0.79929],[-75.25306,-0.78394],[-75.23903,-0.76252],[-75.25388,-0.75116],[-75.26153,-0.72894],[-75.26028,-0.71392],[-75.23595,-0.6945],[-75.25948,-0.66361],[-75.24601,-0.65506],[-75.24456,-0.6435],[-75.236,-0.64746],[-75.23282,-0.63937],[-75.2194,-0.64694],[-75.22145,-0.63397],[-75.21119,-0.6285],[-75.22032,-0.6144],[-75.21406,-0.60572],[-75.22802,-0.60105],[-75.22704,-0.5789],[-75.21258,-0.57109],[-75.21558,-0.55076],[-75.23217,-0.54695],[-75.22605,-0.539],[-75.23502,-0.51891],[-75.25003,-0.5332],[-75.25569,-0.53002],[-75.25775,-0.50259],[-75.27422,-0.49733],[-75.28279,-0.50577],[-75.28882,-0.49278],[-75.30085,-0.49424],[-75.29904,-0.47442],[-75.31454,-0.46065],[-75.31294,-0.45314],[-75.33719,-0.46354],[-75.34455,-0.44678],[-75.37594,-0.43412],[-75.3778,-0.41516],[-75.38907,-0.39966],[-75.4031,-0.39622],[-75.45082,-0.31843],[-75.45245,-0.29859],[-75.4618,-0.29675],[-75.47031,-0.23696],[-75.49891,-0.21202],[-75.50226,-0.19738],[-75.51886,-0.1809],[-75.5568,-0.18527],[-75.56689,-0.17835],[-75.57861,-0.19063],[-75.59871,-0.19245],[-75.59859,-0.11336],[-75.58981,-0.10989],[-75.58348,-0.12043],[-75.56623,-0.12038],[-75.5517,-0.1312],[-75.54074,-0.13068],[-75.53053,-0.11568],[-75.52518,-0.12127],[-75.52299,-0.11504],[-75.50416,-0.11447],[-75.4849,-0.13202],[-75.47316,-0.13018],[-75.45512,-0.14078],[-75.44877,-0.15167],[-75.41918,-0.15379],[-75.39322,-0.17027],[-75.35631,-0.16323],[-75.35212,-0.14611],[-75.34094,-0.14731],[-75.34722,-0.15799],[-75.34027,-0.16382],[-75.32766,-0.15539],[-75.30023,-0.16034],[-75.28387,-0.14807],[-75.27604,-0.15396],[-75.27206,-0.1416],[-75.24689,-0.12716],[-75.24355,-0.11149],[-75.21385,-0.08603],[-75.20358,-0.04869],[-75.17169,-0.03861],[-75.12946,-0.06632]],[[-73.95,-1.13211],[-73.94779,-1.13211],[-73.94548,-1.13129],[-73.95,-1.13211]],[[-70.64622,-10.05409],[-70.64551,-10.05701],[-70.64551,-10.05507],[-70.64622,-10.05409]]]}},{"type":"Feature","properties":{"NIVEL":2,"FECHA":"2026-08-18","DESCRIPCIO":null,"RECOMENDAC":null,"RESPONS":"GLIMAY","nivel":2,"nivel_nombre":"AMARILLO","fecha":"2026-08-18","aviso_num":"230"},"geometry":{"type":"Polygon","coordinates":[[[-73.12491,-14.15708],[-73.24596,-14.2292],[-73.30545,-14.2411],[-73.35304,-14.23515],[-73.40063,-14.21731],[-73.46012,-14.17567],[-73.51365,-14.07454],[-73.54934,-13.92582],[-73.66237,-13.74736],[-73.71591,-13.70572],[-73.78134,-13.70572],[-73.81109,-13.69383],[-73.87652,-13.64624],[-73.9598,-13.61649],[-73.97765,-13.5927],[-74.03119,-13.55106],[-74.09067,-13.52131],[-74.10257,-13.47967],[-74.12042,-13.44993],[-74.15611,-13.42019],[-74.22154,-13.39639],[-74.34052,-13.31311],[-74.37621,-13.25957],[-74.38216,-13.22983],[-74.40595,-13.18224],[-74.45672,-13.15323],[-74.51476,-13.055],[-74.68132,-12.97766],[-74.71107,-12.94792],[-74.72296,-12.90033],[-74.8003,-12.823],[-74.91927,-12.8111],[-74.96091,-12.74567],[-74.96091,-12.69808],[-74.99065,-12.6029],[-75.03229,-12.56126],[-75.14532,-12.50177],[-75.29403,-12.46608],[-75.36542,-12.43039],[-75.41301,-12.3828],[-75.49629,-12.22219],[-75.52603,-12.12701],[-75.57957,-12.04373],[-75.59742,-11.99614],[-75.6807,-11.90691],[-75.74613,-11.89501],[-75.82941,-11.85337],[-75.87105,-11.80578],[-75.91864,-11.69276],[-75.96623,-11.63922],[-75.96028,-11.62732],[-75.99598,-11.55594],[-76.11495,-11.44291],[-76.19228,-11.34773],[-76.29936,-11.31799],[-76.34695,-11.31799],[-76.41238,-11.30014],[-76.54325,-11.23471],[-76.58489,-11.18712],[-76.64438,-11.15738],[-76.69792,-11.10979],[-76.73956,-11.08599],[-76.7931,-11.02056],[-76.84663,-10.91348],[-76.87043,-10.8183],[-76.87043,-10.74097],[-76.90017,-10.69933],[-77.0013,-10.69933],[-77.06078,-10.68148],[-77.10837,-10.62795],[-77.11432,-10.52682],[-77.06673,-10.45544],[-77.04294,-10.44354],[-77.0132,-10.39],[-77.01801,-10.37555],[-77.05067,-10.36466],[-77.08636,-10.32302],[-77.08636,-10.27543],[-77.06852,-10.24569],[-77.08636,-10.15646],[-77.13395,-10.16241],[-77.15775,-10.1981],[-77.21723,-10.1862],[-77.25293,-10.16241],[-77.27672,-10.10887],[-77.31241,-10.07318],[-77.36,-9.99584],[-77.3719,-9.94825],[-77.34181,-9.81213],[-77.31241,-9.79954],[-77.27672,-9.76385],[-77.17559,-9.76979],[-77.13395,-9.79359],[-77.05067,-9.90661],[-76.96144,-9.91851],[-76.9436,-9.88877],[-76.80083,-9.86497],[-76.77703,-9.88877],[-76.74134,-9.90661],[-76.73539,-10.01369],[-76.71755,-10.07318],[-76.63427,-10.06723],[-76.60452,-9.93041],[-76.53314,-9.82928],[-76.4796,-9.82928],[-76.44391,-9.87092],[-76.44391,-9.91851],[-76.49745,-9.98395],[-76.5034,-10.00179],[-76.4915,-10.05533],[-76.42011,-10.03154],[-76.37847,-10.00179],[-76.34873,-10.01369],[-76.31304,-10.06723],[-76.31304,-10.12076],[-76.30114,-10.1743],[-76.26545,-10.23379],[-76.20001,-10.22784],[-76.15243,-10.16835],[-76.17622,-10.01369],[-76.12863,-9.978],[-76.08699,-9.98989],[-76.00966,-10.05533],[-75.97991,-10.10292],[-75.95612,-10.16241],[-75.92043,-10.20999],[-75.88474,-10.22189],[-75.82525,-10.16835],[-75.80539,-10.1187],[-75.81633,-10.0476],[-75.89485,-9.99049],[-75.93768,-9.92624],[-75.94482,-9.862],[-75.94482,-9.82631],[-75.9234,-9.7692],[-75.88057,-9.73351],[-75.848,-9.72808],[-75.91269,-9.62025],[-75.94839,-9.53696],[-76.08067,-9.37596],[-76.11265,-9.35108],[-76.17214,-9.2797],[-76.25542,-9.2559],[-76.45767,-9.22021],[-76.51716,-9.12503],[-76.54096,-9.02986],[-76.54096,-8.94657],[-76.49337,-8.87519],[-76.44578,-8.75622],[-76.45767,-8.68483],[-76.51716,-8.53017],[-76.63613,-8.36361],[-76.75511,-8.18515],[-76.82649,-8.05428],[-76.94546,-7.88771],[-76.98116,-7.76874],[-77.04064,-7.62597],[-77.2072,-7.42372],[-77.32618,-7.19767],[-77.32618,-7.12629],[-77.33807,-7.04301],[-77.37377,-6.91214],[-77.39756,-6.85265],[-77.49274,-6.67419],[-77.50464,-6.59091],[-77.50464,-6.47193],[-77.49274,-6.40055],[-77.45705,-6.35296],[-77.42136,-6.32917],[-77.38566,-6.28158],[-77.32618,-6.1745],[-77.33633,-6.14405],[-77.34347,-6.05838],[-77.36488,-6.02983],[-77.46482,-5.96559],[-77.51479,-5.8942],[-77.55048,-5.81568],[-77.58617,-5.77999],[-77.65756,-5.7443],[-77.7218,-5.72288],[-77.78605,-5.7086],[-77.9074,-5.7443],[-77.95023,-5.82282],[-77.95737,-5.85137],[-77.99306,-5.90134],[-78.10728,-5.96559],[-78.26432,-5.95131],[-78.34998,-5.87279],[-78.4285,-5.86565],[-78.52844,-5.81568],[-78.58555,-5.70147],[-78.56413,-5.60867],[-78.48561,-5.45876],[-78.44992,-5.33027],[-78.47847,-5.11612],[-78.50227,-5.04711],[-78.54985,-4.97097],[-78.55937,-4.90435],[-78.55937,-4.7711],[-78.56889,-4.67592],[-78.60696,-4.59026],[-78.66132,-4.53082],[-78.63575,-4.50088],[-78.63448,-4.46402],[-78.62323,-4.44174],[-78.60036,-4.42753],[-78.60275,-4.41104],[-78.63409,-4.41516],[-78.65227,-4.33251],[-78.63818,-4.30265],[-78.61824,-4.29422],[-78.61086,-4.26726],[-78.59854,-4.25792],[-78.60895,-4.22609],[-78.59998,-4.20922],[-78.57728,-4.19555],[-78.58115,-4.13487],[-78.56774,-4.10118],[-78.53723,-4.06159],[-78.56769,-4.0451],[-78.56571,-3.99196],[-78.54267,-3.97447],[-78.5245,-3.93726],[-78.48883,-3.93382],[-78.47555,-3.90606],[-78.4868,-3.89372],[-78.47784,-3.88316],[-78.47625,-3.85771],[-78.45996,-3.83699],[-78.46587,-3.82753],[-78.436,-3.81912],[-78.40937,-3.78239],[-78.41614,-3.76543],[-78.40248,-3.73539],[-78.4218,-3.72406],[-78.42344,-3.6932],[-78.41575,-3.68597],[-78.40024,-3.68973],[-78.39322,-3.67718],[-78.40082,-3.65041],[-78.38631,-3.6401],[-78.39978,-3.6062],[-78.39286,-3.60368],[-78.39475,-3.58776],[-78.38621,-3.57371],[-78.39119,-3.5601],[-78.36907,-3.53924],[-78.35538,-3.49435],[-78.35918,-3.46952],[-78.34138,-3.4271],[-78.35623,-3.40356],[-78.34426,-3.39182],[-78.34637,-3.38241],[-78.30265,-3.39975],[-78.24621,-3.40233],[-78.24426,-3.43776],[-78.22617,-3.49155],[-78.2314,-3.49881],[-78.21729,-3.50886],[-78.20049,-3.49548],[-78.19232,-3.50034],[-78.16039,-3.48007],[-78.14839,-3.48037],[-78.14464,-3.46116],[-78.15491,-3.41156],[-78.17774,-3.41009],[-78.19574,-3.36076],[-78.17031,-3.35064],[-78.15174,-3.32854],[-78.1368,-3.32654],[-78.14141,-3.32016],[-78.10725,-3.27715],[-78.09071,-3.23431],[-78.06477,-3.22445],[-78.03622,-3.18964],[-78.01269,-3.17885],[-78.00913,-3.15807],[-77.98496,-3.1336],[-77.98245,-3.11965],[-77.97076,-3.11741],[-77.96268,-3.0954],[-77.95031,-3.08951],[-77.94615,-3.07137],[-77.91454,-3.09596],[-77.89312,-3.13879],[-77.87885,-3.18875],[-77.85029,-3.44574],[-77.75036,-3.63847],[-77.74322,-3.7741],[-77.70039,-3.88832],[-77.67897,-4.00253],[-77.67183,-4.19527],[-77.68611,-4.28093],[-77.75036,-4.43797],[-77.76463,-4.51649],[-77.76463,-4.68781],[-77.7218,-4.88055],[-77.57903,-5.0376],[-77.50051,-5.0947],[-77.39344,-5.15895],[-77.25781,-5.21606],[-77.11504,-5.26602],[-77.02938,-5.30885],[-76.85092,-5.35882],[-76.67246,-5.45876],[-76.62249,-5.50873],[-76.42262,-5.66577],[-76.26557,-5.73002],[-75.90865,-5.8014],[-75.84441,-5.82282],[-75.66595,-5.91562],[-75.60473,-5.95542],[-75.49629,-5.99157],[-75.41301,-6.03916],[-75.32973,-6.17003],[-75.31783,-6.33659],[-75.31783,-6.49125],[-75.37732,-6.59833],[-75.4368,-6.7292],[-75.4487,-6.91956],[-75.38921,-7.02663],[-75.23455,-7.13371],[-75.16316,-7.14561],[-74.94672,-7.15008],[-74.80395,-7.19767],[-74.66118,-7.28095],[-74.55411,-7.36423],[-74.50652,-7.47131],[-74.47082,-7.5189],[-74.47082,-7.61408],[-74.39944,-7.81633],[-74.32806,-7.92341],[-74.25667,-8.00669],[-74.18529,-8.05428],[-74.1258,-8.11376],[-74.04252,-8.17325],[-73.99493,-8.26843],[-73.92355,-8.36361],[-73.81647,-8.55396],[-73.76888,-8.73242],[-73.76888,-8.88709],[-73.74509,-9.24401],[-73.75699,-9.44626],[-73.75699,-9.63662],[-73.73319,-9.98164],[-73.7094,-10.07682],[-73.64991,-10.19579],[-73.57853,-10.30287],[-73.51904,-10.40994],[-73.49525,-10.56461],[-73.45955,-11.11188],[-73.38817,-11.25465],[-73.36437,-11.36173],[-73.3555,-11.45051],[-73.16085,-11.81078],[-73.08946,-11.87502],[-72.98239,-11.91071],[-72.91814,-11.91071],[-72.41132,-11.84647],[-72.28283,-11.86075],[-72.06154,-11.90358],[-71.89735,-11.94641],[-71.74745,-12.00351],[-71.57613,-12.11059],[-71.42622,-12.2248],[-71.17638,-12.46751],[-71.09072,-12.56031],[-71.01219,-12.66738],[-70.94081,-12.78874],[-70.86943,-12.85298],[-70.68383,-12.91723],[-70.5482,-12.9315],[-70.21983,-12.99575],[-69.99854,-13.07427],[-69.79153,-13.10282],[-69.55596,-13.10996],[-69.37037,-13.10282],[-69.27043,-13.05999],[-69.18477,-13.03858],[-68.97776,-12.95292],[-68.8758,-12.96107],[-68.87483,-12.97988],[-68.86385,-12.97301],[-68.86339,-12.98429],[-68.8768,-12.98719],[-68.86717,-12.9958],[-68.86716,-13.01003],[-68.875,-13.01383],[-68.86992,-13.019],[-68.85405,-13.01441],[-68.86678,-13.03088],[-68.85166,-13.03245],[-68.85011,-13.04799],[-68.863,-13.04743],[-68.85417,-13.05986],[-68.86911,-13.0815],[-68.8598,-13.09566],[-68.86638,-13.11098],[-68.85924,-13.11329],[-68.87311,-13.11309],[-68.86597,-13.1193],[-68.87802,-13.1362],[-68.8677,-13.13439],[-68.8699,-13.14893],[-68.85809,-13.15052],[-68.87086,-13.16803],[-68.8568,-13.16996],[-68.86113,-13.18348],[-68.87213,-13.18136],[-68.85222,-13.2107],[-68.85467,-13.21688],[-68.86139,-13.21245],[-68.86274,-13.22502],[-68.8538,-13.22209],[-68.85753,-13.23501],[-68.84529,-13.24669],[-68.85952,-13.25596],[-68.85291,-13.26139],[-68.85933,-13.2672],[-68.84902,-13.26961],[-68.86191,-13.27128],[-68.85691,-13.29399],[-68.8684,-13.29983],[-68.85941,-13.31229],[-68.87879,-13.32938],[-68.86803,-13.3335],[-68.879,-13.3444],[-68.867,-13.35077],[-68.87537,-13.35388],[-68.8688,-13.35924],[-68.88846,-13.37191],[-68.88316,-13.38141],[-68.89168,-13.38319],[-68.88458,-13.3931],[-68.8947,-13.40171],[-68.88533,-13.40444],[-68.89775,-13.41326],[-68.88949,-13.4354],[-68.90052,-13.43522],[-68.8988,-13.44671],[-68.906,-13.43707],[-68.89608,-13.46126],[-68.90599,-13.45667],[-68.90144,-13.47045],[-68.90833,-13.46954],[-68.90548,-13.47539],[-68.91676,-13.48427],[-68.90743,-13.48909],[-68.92194,-13.5101],[-68.91454,-13.51254],[-68.91934,-13.52533],[-68.92207,-13.51728],[-68.93517,-13.52909],[-68.94083,-13.52228],[-68.93562,-13.53475],[-68.94952,-13.55153],[-68.9458,-13.56858],[-68.95806,-13.58981],[-68.95247,-13.6044],[-68.97224,-13.60139],[-68.97244,-13.61111],[-69.00504,-13.62412],[-68.9902,-13.63489],[-68.99579,-13.65239],[-69.02033,-13.65763],[-69.02505,-13.65075],[-69.033,-13.65386],[-69.03559,-13.64048],[-69.04685,-13.645],[-69.06319,-13.65941],[-69.06724,-13.68675],[-69.0355,-13.7162],[-69.02595,-13.73929],[-69.00776,-13.7385],[-68.97446,-13.76059],[-68.98036,-13.78298],[-68.99239,-13.77805],[-68.99423,-13.78751],[-68.97428,-13.79617],[-68.95859,-13.7905],[-68.91724,-13.81417],[-68.92307,-13.82804],[-68.94105,-13.83954],[-68.95096,-13.87867],[-68.9728,-13.88219],[-68.98253,-13.89471],[-68.98283,-13.93008],[-68.9633,-13.94867],[-68.97889,-13.97653],[-68.95401,-14.00528],[-68.94629,-14.00452],[-68.93634,-14.02635],[-68.91794,-14.02735],[-68.90905,-14.04042],[-68.89032,-14.04661],[-68.87943,-14.06467],[-68.88405,-14.08392],[-68.87528,-14.08679],[-68.87113,-14.11106],[-68.84926,-14.1383],[-68.83329,-14.14487],[-68.8337,-14.15394],[-68.84625,-14.15303],[-68.85618,-14.16267],[-68.84631,-14.19694],[-68.82676,-14.21561],[-68.96241,-14.22005],[-68.96894,-14.23523],[-68.98501,-14.23712],[-68.9884,-14.25043],[-68.97925,-14.26563],[-69.00518,-14.29087],[-69.01524,-14.31471],[-68.98541,-14.37466],[-69.00401,-14.39117],[-69.00526,-14.40434],[-69.02481,-14.40681],[-69.02838,-14.42482],[-69.05038,-14.42913],[-69.06123,-14.44254],[-69.08195,-14.44444],[-69.09748,-14.48572],[-69.11252,-14.48615],[-69.11829,-14.50789],[-69.15403,-14.52162],[-69.14354,-14.53026],[-69.15003,-14.58031],[-69.17925,-14.59052],[-69.22135,-14.58179],[-69.23101,-14.60873],[-69.2279,-14.65416],[-69.2449,-14.66133],[-69.25837,-14.68398],[-69.22487,-14.73902],[-69.23994,-14.75947],[-69.27085,-14.76957],[-69.3012,-14.7653],[-69.3538,-14.80167],[-69.35679,-14.85198],[-69.34387,-14.88273],[-69.35384,-14.92441],[-69.36459,-14.93098],[-69.36057,-14.96106],[-69.32324,-15.00459],[-69.31436,-15.04123],[-69.29952,-15.04737],[-69.3041,-15.05363],[-69.29012,-15.07471],[-69.29245,-15.08374],[-69.28593,-15.08313],[-69.28465,-15.09647],[-69.27269,-15.10348],[-69.27729,-15.1099],[-69.26843,-15.10434],[-69.26561,-15.11724],[-69.26257,-15.10972],[-69.24346,-15.11221],[-69.24394,-15.12185],[-69.23624,-15.11969],[-69.22961,-15.13216],[-69.19045,-15.15878],[-69.11964,-15.25859],[-69.13734,-15.25515],[-69.15216,-15.26889],[-69.1763,-15.26136],[-69.17797,-15.27918],[-69.19349,-15.29582],[-69.19479,-15.31504],[-69.20656,-15.32425],[-69.21564,-15.31716],[-69.23517,-15.34331],[-69.36501,-15.29609],[-69.46019,-15.22471],[-69.53158,-15.09384],[-69.60296,-15.02245],[-69.69814,-14.90348],[-69.72193,-14.8321],[-69.79332,-14.78451],[-69.90039,-14.73692],[-70.19782,-14.68933],[-70.25731,-14.61795],[-70.35249,-14.58225],[-70.47146,-14.52277],[-70.61423,-14.49897],[-70.7451,-14.48708],[-71.10202,-14.47518],[-71.25668,-14.30862],[-71.39945,-14.23723],[-71.56601,-14.18964],[-71.60171,-14.13016],[-71.75637,-14.01118],[-71.87534,-14.07067],[-71.82776,-14.15395],[-71.82776,-14.27292],[-71.89914,-14.34431],[-72.00621,-14.35621],[-72.0895,-14.29672],[-72.16088,-14.21344],[-72.18467,-14.13016],[-72.14898,-14.07067],[-72.12519,-13.99929],[-72.12519,-13.90411],[-72.20847,-13.77324],[-72.30365,-13.72565],[-72.37503,-13.66616],[-72.494,-13.64237],[-72.66057,-13.63047],[-72.75574,-13.64237],[-72.82713,-13.72565],[-72.87472,-13.79703],[-72.91041,-13.86842],[-72.94036,-13.88981],[-73.12491,-14.15708]],[[-74.89199,-7.32616],[-75.14217,-7.27041],[-75.32029,-7.35471],[-75.36788,-7.39279],[-75.40595,-7.44989],[-75.43451,-7.54507],[-75.43451,-7.72591],[-75.42499,-7.82109],[-75.43451,-7.9353],[-75.52017,-8.10662],[-75.5392,-8.18277],[-75.52968,-8.3065],[-75.52017,-8.38264],[-75.42499,-8.50637],[-75.39643,-8.573],[-75.35836,-8.63011],[-75.32981,-8.75384],[-75.33933,-8.87757],[-75.42499,-9.07744],[-75.44402,-9.19166],[-75.43451,-9.41057],[-75.4821,-9.51527],[-75.50113,-9.61044],[-75.45354,-9.81032],[-75.52017,-9.89598],[-75.59631,-9.95309],[-75.58679,-10.04826],[-75.56776,-10.14344],[-75.47258,-10.24814],[-75.12993,-10.38139],[-75.04427,-10.40042],[-74.93958,-10.38139],[-74.8444,-10.51464],[-74.70163,-10.53367],[-74.59694,-10.4956],[-74.56838,-10.39091],[-74.5779,-10.30525],[-74.60645,-10.21959],[-74.5779,-10.09585],[-74.52079,-10.01971],[-74.44465,-9.97212],[-74.38754,-9.83887],[-74.36851,-9.59141],[-74.4732,-9.38202],[-74.50176,-9.23925],[-74.48272,-9.09648],[-74.4161,-8.99178],[-74.37803,-8.88709],[-74.34947,-8.7348],[-74.30188,-8.64914],[-74.24478,-8.62059],[-74.21622,-8.54445],[-74.19719,-8.43023],[-74.19719,-8.32553],[-74.25429,-8.22084],[-74.42561,-8.08759],[-74.4732,-7.99241],[-74.48272,-7.85916],[-74.52079,-7.78302],[-74.52079,-7.73543],[-74.54935,-7.64025],[-74.60645,-7.53555],[-74.71115,-7.44038],[-74.77777,-7.39279],[-74.8444,-7.36423],[-74.89199,-7.32616]]]}},{"type":"Feature","properties":{"NIVEL":2,"FECHA":"2026-08-18","DESCRIPCIO":null,"RECOMENDAC":null,"RESPONS":"GLIMAY","nivel":2,"nivel_nombre":"AMARILLO","fecha":"2026-08-18","aviso_num":"230"},"geometry":{"type":"Polygon","coordinates":[[[-71.41259,-17.16189],[-71.41735,-17.24279],[-71.39831,-17.31418],[-71.33645,-17.39508],[-71.32217,-17.43315],[-71.25554,-17.51405],[-71.21271,-17.51405],[-71.1794,-17.49977],[-71.07471,-17.41411],[-70.97001,-17.41411],[-70.86055,-17.44742],[-70.81296,-17.45218],[-70.74634,-17.4855],[-70.69875,-17.49026],[-70.5893,-17.52833],[-70.41797,-17.6473],[-70.37039,-17.69489],[-70.34659,-17.73296],[-70.24189,-17.81862],[-70.20858,-17.8329],[-70.08961,-17.94235],[-70.06106,-17.98994],[-70.02298,-18.09464],[-70.01822,-18.18982],[-70.02774,-18.26969],[-70.05071,-18.2688],[-70.14965,-18.31837],[-70.19717,-18.32219],[-70.31745,-18.3097],[-70.35388,-18.32619],[-70.37714,-18.35068],[-70.48482,-18.27118],[-70.67857,-18.16185],[-70.7606,-18.07871],[-70.81167,-18.05025],[-70.81316,-18.04049],[-70.8877,-18.00929],[-70.88259,-17.99336],[-70.89019,-17.96929],[-70.91208,-17.9528],[-70.91049,-17.94007],[-70.92333,-17.93779],[-70.92526,-17.92668],[-70.93543,-17.92931],[-70.94314,-17.91381],[-70.95968,-17.91067],[-71.00913,-17.8769],[-71.02951,-17.8849],[-71.09628,-17.8682],[-71.10545,-17.8434],[-71.16769,-17.81027],[-71.18489,-17.78121],[-71.3492,-17.69345],[-71.36337,-17.69265],[-71.36819,-17.70616],[-71.38139,-17.70735],[-71.34108,-17.63699],[-71.36555,-17.54536],[-71.36295,-17.48879],[-71.38114,-17.44998],[-71.39436,-17.38941],[-71.4188,-17.37749],[-71.42467,-17.36363],[-71.43279,-17.36665],[-71.43139,-17.35052],[-71.44471,-17.33224],[-71.45811,-17.33242],[-71.46989,-17.31882],[-71.47688,-17.32281],[-71.47254,-17.29716],[-71.50285,-17.28113],[-71.50932,-17.26861],[-71.52407,-17.26533],[-71.52867,-17.27113],[-71.53792,-17.25396],[-71.56402,-17.26157],[-71.67322,-17.21737],[-71.82995,-17.1767],[-71.86861,-17.14928],[-71.91703,-17.09051],[-71.88372,-16.99533],[-71.85517,-16.94298],[-71.75047,-16.86684],[-71.64578,-16.85256],[-71.52204,-16.93346],[-71.48873,-16.97629],[-71.46018,-17.01912],[-71.43638,-17.07623],[-71.41259,-17.16189]]]}}]}